{"type":"FeatureCollection","features":[{"type":"Feature","id":0,"geometry":{"type":"MultiPolygon","coordinates":[[[[9.30621,41.71169],[9.2985,41.70672],[9.29726,41.7053],[9.29374,41.70122],[9.27429,41.69829],[9.26832,41.6956],[9.26253,41.69303],[9.25645,41.69025],[9.24387,41.68257],[9.24017,41.68604],[9.23556,41.68722],[9.2319,41.68623],[9.23126,41.68656],[9.23085,41.68693],[9.2307,41.68688],[9.23023,41.68702],[9.22898,41.68742],[9.22875,41.68753],[9.22748,41.68774],[9.22693,41.68791],[9.22395,41.68897],[9.22322,41.68921],[9.22231,41.68963],[9.22142,41.69012],[9.22062,41.69061],[9.22016,41.69101],[9.2196,41.69117],[9.21937,41.69143],[9.21897,41.69183],[9.21847,41.69252],[9.21767,41.69372],[9.21642,41.69593],[9.21633,41.69658],[9.21622,41.6973],[9.21663,41.69872],[9.21718,41.69999],[9.21635,41.70189],[9.21226,41.70535],[9.21255,41.70784],[9.21677,41.71061],[9.22173,41.71512],[9.22406,41.72035],[9.22369,41.72124],[9.22275,41.72273],[9.22276,41.72472],[9.22374,41.72742],[9.22301,41.72885],[9.2231,41.72971],[9.22269,41.73026],[9.2227,41.73075],[9.22274,41.73113],[9.22212,41.73137],[9.22148,41.7319],[9.21984,41.73226],[9.21945,41.73264],[9.21988,41.73322],[9.21929,41.73372],[9.21963,41.73472],[9.21586,41.73663],[9.21848,41.73819],[9.22025,41.74173],[9.22106,41.74232],[9.22142,41.74337],[9.22139,41.74448],[9.22105,41.74502],[9.22179,41.74523],[9.22232,41.74575],[9.22295,41.74725],[9.22313,41.74781],[9.22477,41.7485],[9.2266,41.75032],[9.22768,41.75099],[9.22866,41.75217],[9.2292,41.75309],[9.22939,41.75433],[9.22859,41.75539],[9.22975,41.75576],[9.23015,41.75608],[9.23023,41.75697],[9.23064,41.75789],[9.23094,41.75888],[9.23072,41.75937],[9.2311,41.76084],[9.23169,41.7613],[9.23169,41.76182],[9.23193,41.76223],[9.23218,41.76304],[9.23029,41.76407],[9.22846,41.76564],[9.22903,41.76733],[9.2283,41.76797],[9.22813,41.76908],[9.22871,41.77135],[9.22937,41.77148],[9.22959,41.77159],[9.23019,41.77217],[9.23062,41.7725],[9.23166,41.77319],[9.23194,41.77407],[9.2317,41.77446],[9.25949,41.77435],[9.28433,41.76815],[9.29645,41.75789],[9.31078,41.75243],[9.31213,41.75127],[9.31282,41.75062],[9.31442,41.74881],[9.31453,41.74823],[9.31549,41.74738],[9.31613,41.74691],[9.31799,41.74614],[9.31875,41.74348],[9.31964,41.74296],[9.32033,41.74195],[9.32038,41.74085],[9.32032,41.73992],[9.32064,41.7395],[9.32002,41.73787],[9.31972,41.73656],[9.31939,41.73575],[9.31883,41.73474],[9.31773,41.73395],[9.3174,41.73314],[9.31719,41.73206],[9.31653,41.73159],[9.31671,41.73124],[9.31566,41.73096],[9.31595,41.73068],[9.31549,41.72938],[9.31654,41.72708],[9.31479,41.72637],[9.31323,41.7244],[9.31083,41.72126],[9.30621,41.71169]]]]},"properties":{"ID":"2026","id":"2026","NOM_MASSIF":"CAVU","dept":"20"}},{"type":"Feature","id":1,"geometry":{"type":"MultiPolygon","coordinates":[[[[9.14967,41.62337],[9.15289,41.61946],[9.15187,41.61705],[9.14903,41.61286],[9.15175,41.61506],[9.15462,41.61532],[9.15726,41.61622],[9.16219,41.61574],[9.16501,41.61597],[9.16723,41.61682],[9.17028,41.61642],[9.17273,41.61514],[9.17283,41.61372],[9.17172,41.61276],[9.17154,41.6115],[9.17308,41.61032],[9.17299,41.60905],[9.17503,41.60762],[9.17545,41.60632],[9.17826,41.60651],[9.18086,41.60669],[9.18114,41.60502],[9.18157,41.60325],[9.18479,41.60255],[9.18633,41.60078],[9.18555,41.59963],[9.18419,41.59887],[9.18488,41.59723],[9.18392,41.59634],[9.18232,41.59469],[9.18056,41.59294],[9.17876,41.5913],[9.17725,41.58942],[9.17606,41.58838],[9.17522,41.58798],[9.1753,41.58737],[9.17397,41.58599],[9.17177,41.58485],[9.17066,41.5835],[9.17096,41.58205],[9.17138,41.5808],[9.17528,41.58067],[9.1786,41.57905],[9.17997,41.57602],[9.18002,41.57329],[9.17435,41.55539],[9.17214,41.55231],[9.17084,41.55214],[9.16945,41.55236],[9.16807,41.5523],[9.16799,41.55096],[9.168,41.54929],[9.16547,41.54718],[9.15967,41.54801],[9.15489,41.5482],[9.14976,41.54488],[9.14475,41.54231],[9.14697,41.53895],[9.14129,41.53558],[9.13289,41.52885],[9.12859,41.52435],[9.12742,41.52262],[9.12059,41.52014],[9.11419,41.5187],[9.1075,41.51693],[9.10063,41.51788],[9.09851,41.52009],[9.09601,41.52143],[9.09447,41.52121],[9.09254,41.52018],[9.09198,41.51812],[9.09224,41.51574],[9.08891,41.51496],[9.0829,41.51335],[9.08003,41.51457],[9.07774,41.51344],[9.0724,41.51278],[9.06637,41.51338],[9.06207,41.51345],[9.05573,41.51044],[9.04968,41.50749],[9.04463,41.5062],[9.03756,41.50307],[9.03081,41.5006],[9.0023,41.49898],[9.00229,41.50234],[9.00193,41.50767],[9.0091,41.52171],[9.00854,41.52475],[9.00941,41.52718],[9.01084,41.52855],[9.01429,41.52927],[9.01598,41.53115],[9.01633,41.53274],[9.01664,41.53432],[9.01712,41.53565],[9.01856,41.53717],[9.02392,41.54186],[9.02256,41.5431],[9.02151,41.54787],[9.02393,41.55301],[9.02845,41.55803],[9.02901,41.56018],[9.02981,41.56334],[9.02831,41.56314],[9.02313,41.56457],[9.0207,41.56504],[9.01871,41.56629],[9.00769,41.5702],[9.00785,41.57315],[9.01713,41.58965],[9.01852,41.59281],[9.01871,41.59462],[9.02945,41.59792],[9.03705,41.59827],[9.0473,41.60262],[9.05295,41.60804],[9.06509,41.61377],[9.0732,41.61939],[9.08051,41.62782],[9.08963,41.63394],[9.10486,41.6368],[9.11464,41.63471],[9.12427,41.63744],[9.13216,41.63898],[9.13624,41.63771],[9.14088,41.63964],[9.14433,41.63873],[9.1459,41.64196],[9.15063,41.64358],[9.15731,41.63559],[9.14967,41.62337]]]]},"properties":{"ID":"2028","id":"2028","NOM_MASSIF":"CAGNA","dept":"20"}},{"type":"Feature","id":2,"geometry":{"type":"MultiPolygon","coordinates":[[[[8.99726,41.75869],[9.00098,41.76034],[9.00284,41.7608],[9.003,41.76174],[9.00703,41.76478],[9.0085,41.76894],[9.01481,41.77333],[9.02085,41.77589],[9.02616,41.77479],[9.02986,41.77294],[9.03381,41.77588],[9.03864,41.78283],[9.04273,41.78646],[9.04483,41.78712],[9.04739,41.79062],[9.0497,41.79392],[9.05507,41.79607],[9.05575,41.7991],[9.05865,41.80102],[9.05949,41.80363],[9.06048,41.80478],[9.06192,41.80563],[9.06324,41.80787],[9.06572,41.81145],[9.06623,41.81356],[9.06818,41.81416],[9.06931,41.81571],[9.06847,41.81746],[9.06993,41.82037],[9.07298,41.82223],[9.07586,41.82381],[9.08061,41.82372],[9.0874,41.82274],[9.09027,41.82516],[9.09527,41.83014],[9.09743,41.83202],[9.09732,41.83278],[9.09869,41.8344],[9.10049,41.83533],[9.10159,41.83673],[9.10895,41.83885],[9.10823,41.83645],[9.10892,41.83431],[9.1119,41.83333],[9.11695,41.83183],[9.12029,41.83156],[9.12204,41.82983],[9.1268,41.8269],[9.12794,41.82646],[9.12915,41.82585],[9.12839,41.82508],[9.12842,41.82431],[9.12818,41.82332],[9.12757,41.82231],[9.1276,41.82066],[9.12672,41.8195],[9.12728,41.81654],[9.12373,41.81509],[9.12232,41.81397],[9.12196,41.81267],[9.11944,41.81147],[9.11746,41.80858],[9.11602,41.80798],[9.11663,41.80663],[9.11756,41.80518],[9.11542,41.80292],[9.11288,41.80205],[9.11031,41.80026],[9.10701,41.796],[9.10282,41.79361],[9.10168,41.79053],[9.09718,41.78279],[9.09559,41.77722],[9.09578,41.77406],[9.09705,41.77252],[9.0939,41.77155],[9.08384,41.76996],[9.07857,41.76584],[9.07625,41.76387],[9.07501,41.76187],[9.07274,41.76043],[9.07089,41.7589],[9.07051,41.75699],[9.06861,41.75583],[9.06807,41.75401],[9.06467,41.75437],[9.06249,41.75462],[9.06076,41.75265],[9.05807,41.75049],[9.05614,41.75004],[9.05474,41.74998],[9.05241,41.75317],[9.05233,41.75435],[9.05233,41.75539],[9.0522,41.756],[9.05069,41.75682],[9.04547,41.75626],[9.03935,41.75405],[9.0403,41.75158],[9.03888,41.74966],[9.03306,41.74341],[9.03204,41.73935],[9.02633,41.7315],[9.02297,41.72607],[9.01933,41.72351],[9.01343,41.72445],[9.0049,41.72379],[8.99866,41.72455],[8.99025,41.7225],[8.98878,41.73032],[8.9914,41.73132],[8.99236,41.73238],[8.99041,41.73454],[8.99196,41.73632],[8.99343,41.73673],[8.99439,41.73827],[8.98733,41.74352],[8.98782,41.74654],[8.9953,41.74768],[8.99669,41.74968],[8.99879,41.75088],[8.99741,41.75229],[8.99613,41.75728],[8.99726,41.75869]]]]},"properties":{"ID":"2023","id":"2023","NOM_MASSIF":"VALLE MALE","dept":"20"}},{"type":"Feature","id":3,"geometry":{"type":"MultiPolygon","coordinates":[[[[9.19033,41.68967],[9.21195,41.70569],[9.21346,41.69749],[9.22589,41.69162],[9.2346,41.68699],[9.24362,41.68304],[9.24046,41.66762],[9.23484,41.66349],[9.22356,41.65104],[9.21907,41.64628],[9.21327,41.64775],[9.20529,41.64375],[9.20057,41.64432],[9.1941,41.64332],[9.19317,41.63834],[9.1827,41.63701],[9.17811,41.63869],[9.1743,41.64395],[9.16968,41.64898],[9.16705,41.65417],[9.17095,41.66093],[9.16854,41.66442],[9.17177,41.67597],[9.1734,41.68006],[9.19031,41.68989],[9.19033,41.68967]]]]},"properties":{"ID":"2027","id":"2027","NOM_MASSIF":"OSPEDALE","dept":"20"}},{"type":"Feature","id":4,"geometry":{"type":"MultiPolygon","coordinates":[[[[9.22302,41.79451],[9.22229,41.79512],[9.22757,41.78866],[9.23007,41.77871],[9.23276,41.77772],[9.22896,41.77208],[9.22891,41.76425],[9.22965,41.75638],[9.2225,41.74171],[9.21922,41.73353],[9.22247,41.71936],[9.21974,41.71253],[9.21142,41.70548],[9.20535,41.70082],[9.19061,41.68941],[9.17599,41.69784],[9.17779,41.70723],[9.17883,41.71696],[9.17891,41.72143],[9.17622,41.72969],[9.17027,41.73732],[9.17358,41.74215],[9.17512,41.74541],[9.17245,41.75396],[9.17491,41.75829],[9.1766,41.76293],[9.17762,41.76875],[9.19003,41.77303],[9.205,41.77884],[9.21744,41.77976],[9.21993,41.78436],[9.22302,41.79451]]]]},"properties":{"ID":"2025","id":"2025","NOM_MASSIF":"ZONZA","dept":"20"}},{"type":"Feature","id":5,"geometry":{"type":"MultiPolygon","coordinates":[[[[9.15961,42.02658],[9.16119,42.02494],[9.17161,42.02739],[9.1757,42.02885],[9.18101,42.02951],[9.18212,42.03067],[9.18549,42.03027],[9.18783,42.03072],[9.18876,42.03149],[9.19361,42.02964],[9.19521,42.02808],[9.2033,42.02832],[9.20565,42.02892],[9.20787,42.03],[9.20947,42.02966],[9.21228,42.02837],[9.21603,42.0279],[9.22108,42.02759],[9.21932,42.01144],[9.21897,42.00875],[9.21888,42.00781],[9.21811,42.00406],[9.21761,42.00115],[9.21653,41.99571],[9.2162,41.99545],[9.21593,41.99525],[9.21553,41.99477],[9.2153,41.99433],[9.21522,41.99362],[9.2162,41.99269],[9.21646,41.99218],[9.21666,41.9919],[9.21822,41.99122],[9.21984,41.98982],[9.22024,41.98961],[9.21998,41.98836],[9.21986,41.98787],[9.21957,41.98744],[9.21902,41.98671],[9.21896,41.98626],[9.21938,41.9856],[9.21951,41.98523],[9.21992,41.98439],[9.2196,41.98383],[9.21952,41.98356],[9.21966,41.98319],[9.21971,41.98264],[9.21993,41.98231],[9.22069,41.98164],[9.22085,41.98131],[9.22113,41.98111],[9.22151,41.98082],[9.22167,41.98063],[9.22164,41.98022],[9.2214,41.9797],[9.22124,41.97876],[9.22102,41.97791],[9.22084,41.97728],[9.22062,41.97649],[9.22038,41.97578],[9.22043,41.97528],[9.22068,41.97473],[9.22116,41.97407],[9.22192,41.97343],[9.22309,41.97295],[9.22656,41.97207],[9.22642,41.9719],[9.22586,41.97112],[9.22516,41.97021],[9.22498,41.96968],[9.2245,41.96863],[9.22428,41.96823],[9.2237,41.96749],[9.22334,41.9668],[9.22327,41.96625],[9.22336,41.96593],[9.2235,41.96556],[9.22356,41.96511],[9.22367,41.96501],[9.22371,41.96469],[9.22349,41.96318],[9.22359,41.96258],[9.22374,41.96216],[9.22425,41.96141],[9.22497,41.96024],[9.22522,41.95964],[9.22515,41.95909],[9.22502,41.95893],[9.2249,41.9583],[9.225,41.95762],[9.22492,41.95695],[9.22475,41.9565],[9.22439,41.95589],[9.22365,41.9553],[9.2233,41.95488],[9.22319,41.95385],[9.2231,41.95357],[9.22304,41.95294],[9.22309,41.95277],[9.22318,41.9515],[9.22314,41.95045],[9.2228,41.94967],[9.22267,41.94945],[9.22257,41.94914],[9.22242,41.94883],[9.22231,41.94847],[9.22216,41.94821],[9.22183,41.94788],[9.2216,41.94744],[9.22157,41.94721],[9.22114,41.94665],[9.22106,41.94634],[9.22077,41.94595],[9.22057,41.94578],[9.21753,41.94393],[9.21625,41.94284],[9.21547,41.94215],[9.20787,41.93882],[9.19934,41.93146],[9.18563,41.94035],[9.18579,41.94343],[9.19017,41.94743],[9.19453,41.95449],[9.19607,41.9598],[9.19093,41.96339],[9.19199,41.96674],[9.19833,41.97659],[9.20249,41.98906],[9.20111,41.99584],[9.19467,42.00377],[9.18786,42.00667],[9.18629,42.00847],[9.1875,42.01148],[9.17407,42.01753],[9.16333,42.01575],[9.15036,42.01652],[9.15045,42.01688],[9.15031,42.0172],[9.15035,42.01756],[9.15042,42.01765],[9.15052,42.01818],[9.1506,42.01835],[9.15089,42.01861],[9.15111,42.01901],[9.15195,42.01962],[9.15216,42.01984],[9.15241,42.01997],[9.15314,42.02],[9.15347,42.02022],[9.15362,42.02048],[9.15396,42.02078],[9.15404,42.02091],[9.1544,42.02146],[9.15511,42.02193],[9.15552,42.02239],[9.15606,42.02277],[9.1562,42.02295],[9.15629,42.02339],[9.15606,42.0239],[9.15602,42.02413],[9.15619,42.02456],[9.1566,42.02509],[9.15782,42.02569],[9.15834,42.02597],[9.15912,42.02643],[9.15961,42.02658]]]]},"properties":{"ID":"2018","id":"2018","NOM_MASSIF":"SAINT ANTOINE","dept":"20"}},{"type":"Feature","id":6,"geometry":{"type":"MultiPolygon","coordinates":[[[[9.1824,42.14178],[9.18782,42.14304],[9.18982,42.14348],[9.19327,42.14512],[9.19578,42.14725],[9.19952,42.14814],[9.20139,42.14941],[9.20332,42.14961],[9.20443,42.1508],[9.20729,42.15265],[9.20777,42.15506],[9.21062,42.15684],[9.21338,42.15842],[9.21524,42.16032],[9.21683,42.16224],[9.21983,42.16274],[9.22297,42.1624],[9.22676,42.15884],[9.23066,42.15411],[9.2341,42.15305],[9.23431,42.15139],[9.23465,42.14974],[9.23561,42.14745],[9.23762,42.14431],[9.23896,42.14265],[9.24116,42.14187],[9.24313,42.1426],[9.24647,42.14198],[9.24858,42.14111],[9.2511,42.14122],[9.25128,42.13947],[9.25166,42.13669],[9.25427,42.1349],[9.25837,42.13078],[9.2597,42.12832],[9.26028,42.12739],[9.26414,42.12731],[9.26869,42.12671],[9.27729,42.12413],[9.27819,42.11847],[9.27843,42.11655],[9.28033,42.10971],[9.28702,42.10963],[9.29059,42.10761],[9.30836,42.10701],[9.308,42.10614],[9.30873,42.10506],[9.31091,42.10256],[9.31005,42.10108],[9.30831,42.10011],[9.30848,42.09815],[9.30783,42.09665],[9.30572,42.09565],[9.30472,42.09503],[9.30344,42.09497],[9.3001,42.09523],[9.29405,42.09567],[9.28918,42.09638],[9.2822,42.09453],[9.27947,42.09553],[9.27626,42.09895],[9.27258,42.09986],[9.26984,42.10131],[9.26865,42.10152],[9.26767,42.1017],[9.26435,42.103],[9.26078,42.10344],[9.25935,42.10208],[9.25641,42.10357],[9.25476,42.10328],[9.25334,42.1041],[9.25181,42.10397],[9.25163,42.10236],[9.25132,42.10161],[9.2494,42.10116],[9.24851,42.10152],[9.24778,42.10395],[9.24461,42.10409],[9.24449,42.10059],[9.23785,42.09206],[9.23871,42.07454],[9.23803,42.06776],[9.23063,42.05905],[9.22916,42.05128],[9.22675,42.03702],[9.22235,42.03023],[9.22114,42.02781],[9.21705,42.02764],[9.21245,42.02851],[9.21024,42.02979],[9.20713,42.02998],[9.20496,42.02879],[9.19977,42.02816],[9.19493,42.02827],[9.1924,42.03007],[9.18949,42.03141],[9.18842,42.03105],[9.18598,42.03041],[9.18225,42.03078],[9.18082,42.03007],[9.17714,42.02893],[9.17242,42.02767],[9.16835,42.02712],[9.16047,42.02707],[9.15836,42.02851],[9.15594,42.03131],[9.15358,42.03532],[9.15212,42.03603],[9.15219,42.03847],[9.15215,42.04052],[9.14935,42.04048],[9.14508,42.04227],[9.14371,42.04437],[9.14182,42.04565],[9.14192,42.04796],[9.13736,42.05057],[9.13681,42.05172],[9.1334,42.05186],[9.13096,42.05368],[9.13211,42.05754],[9.13421,42.05947],[9.131,42.06104],[9.12926,42.0648],[9.12793,42.06658],[9.13105,42.07079],[9.1319,42.07376],[9.13266,42.07525],[9.13274,42.07619],[9.13251,42.07822],[9.13392,42.08009],[9.13406,42.0848],[9.13472,42.08808],[9.13408,42.08947],[9.13462,42.08975],[9.13418,42.09077],[9.13613,42.09281],[9.13799,42.09426],[9.13741,42.09514],[9.13811,42.09596],[9.13934,42.09673],[9.14165,42.09833],[9.14435,42.09918],[9.14716,42.10049],[9.14975,42.10204],[9.1516,42.10401],[9.15099,42.10624],[9.15044,42.10907],[9.1509,42.11052],[9.15379,42.11086],[9.15573,42.11197],[9.15685,42.11442],[9.15917,42.11508],[9.16128,42.11839],[9.16541,42.12288],[9.1679,42.12523],[9.16854,42.12718],[9.16874,42.12852],[9.16985,42.12922],[9.17134,42.12999],[9.17214,42.1312],[9.17588,42.13213],[9.17827,42.13351],[9.17983,42.14033],[9.18127,42.14151],[9.1824,42.14178]]]]},"properties":{"ID":"2017","id":"2017","NOM_MASSIF":"GHISONI","dept":"20"}},{"type":"Feature","id":7,"geometry":{"type":"MultiPolygon","coordinates":[[[[9.30016,42.07511],[9.30293,42.07062],[9.30202,42.06822],[9.29583,42.06983],[9.2919,42.06816],[9.29383,42.06403],[9.29833,42.06065],[9.30153,42.05736],[9.29318,42.0542],[9.2919,42.05098],[9.28847,42.05154],[9.28485,42.04863],[9.28502,42.04585],[9.28086,42.04369],[9.29354,42.03355],[9.30332,42.02897],[9.29964,42.02312],[9.29592,42.01951],[9.29116,42.02084],[9.28542,42.0132],[9.27621,42.01013],[9.28585,42.00397],[9.28024,41.99963],[9.28051,41.99354],[9.26794,41.99433],[9.26125,41.9864],[9.26871,41.98384],[9.2724,41.97706],[9.28839,41.97157],[9.2948,41.97725],[9.30101,41.97218],[9.29977,41.96256],[9.30348,41.95642],[9.29447,41.94655],[9.28717,41.94784],[9.27963,41.94712],[9.26904,41.95055],[9.2487,41.93996],[9.24021,41.93492],[9.23131,41.93235],[9.21531,41.94147],[9.22192,41.94696],[9.22327,41.9637],[9.226,41.9717],[9.22012,41.97515],[9.2187,41.98411],[9.22006,41.99027],[9.21507,41.99369],[9.21874,42.00559],[9.22147,42.02868],[9.22675,42.03688],[9.22881,42.04942],[9.23062,42.05918],[9.23805,42.06777],[9.23861,42.07469],[9.25354,42.0722],[9.27302,42.07486],[9.27655,42.07725],[9.28027,42.07753],[9.30016,42.07511]]]]},"properties":{"ID":"2019","id":"2019","NOM_MASSIF":"FIUMORBO","dept":"20"}},{"type":"Feature","id":8,"geometry":{"type":"MultiPolygon","coordinates":[[[[9.21499,41.94128],[9.23123,41.93234],[9.23971,41.93476],[9.25038,41.9407],[9.26895,41.95037],[9.27978,41.94693],[9.28783,41.94797],[9.29486,41.94619],[9.29963,41.945],[9.30279,41.93788],[9.30174,41.92808],[9.30128,41.92426],[9.30625,41.92066],[9.31241,41.91472],[9.31521,41.91042],[9.3255,41.90857],[9.32508,41.90845],[9.32702,41.9031],[9.33335,41.9013],[9.33743,41.90071],[9.34246,41.89536],[9.33896,41.89297],[9.33851,41.88887],[9.34131,41.88467],[9.3345,41.87574],[9.34872,41.87625],[9.34718,41.87496],[9.33461,41.87088],[9.32781,41.87005],[9.32363,41.86601],[9.3211,41.86197],[9.32672,41.85609],[9.3375,41.85681],[9.343,41.85804],[9.34819,41.85408],[9.35467,41.85366],[9.35495,41.84986],[9.3515,41.84591],[9.34408,41.84253],[9.33923,41.84458],[9.33548,41.84013],[9.33292,41.84028],[9.3311,41.83849],[9.33183,41.83703],[9.32659,41.83389],[9.32069,41.8353],[9.3149,41.8332],[9.30843,41.8336],[9.3087,41.83813],[9.30344,41.83272],[9.30331,41.83356],[9.30443,41.8401],[9.29938,41.84284],[9.29652,41.84441],[9.28924,41.84348],[9.28802,41.84508],[9.27541,41.84101],[9.26883,41.84004],[9.26295,41.8442],[9.2483,41.84628],[9.24402,41.84969],[9.23764,41.84675],[9.22785,41.85537],[9.23734,41.87455],[9.23553,41.87934],[9.25168,41.89882],[9.25189,41.89932],[9.24862,41.90945],[9.24295,41.90908],[9.24279,41.91153],[9.23663,41.91327],[9.2366,41.91468],[9.23163,41.91616],[9.22813,41.9162],[9.22584,41.91479],[9.22212,41.91502],[9.21734,41.91392],[9.21079,41.91587],[9.19376,41.92417],[9.20432,41.93378],[9.21499,41.94128]],[[9.321,41.90754],[9.32066,41.90747],[9.32065,41.90744],[9.321,41.90754]]]]},"properties":{"ID":"2021","id":"2021","NOM_MASSIF":"TOVA-SOLARO-CHISA","dept":"20"}},{"type":"Feature","id":9,"geometry":{"type":"MultiPolygon","coordinates":[[[[9.23073,41.79312],[9.23016,41.79379],[9.2295,41.79461],[9.22915,41.79566],[9.22748,41.79754],[9.22528,41.79693],[9.22051,41.80016],[9.21891,41.79945],[9.21661,41.80035],[9.21511,41.80541],[9.21469,41.81063],[9.21737,41.81647],[9.21722,41.82528],[9.23112,41.83377],[9.23331,41.8391],[9.23413,41.8436],[9.23691,41.84652],[9.23917,41.84791],[9.24091,41.84889],[9.24463,41.85042],[9.24821,41.84668],[9.24872,41.8463],[9.25191,41.84628],[9.25457,41.84563],[9.25657,41.84528],[9.25772,41.84521],[9.26021,41.84528],[9.2616,41.84469],[9.26353,41.84421],[9.26569,41.84307],[9.26782,41.84103],[9.26874,41.83972],[9.27072,41.84064],[9.2727,41.84106],[9.27588,41.84133],[9.27864,41.84257],[9.28137,41.84308],[9.28242,41.84392],[9.28862,41.84502],[9.28931,41.84423],[9.28927,41.84322],[9.29086,41.84282],[9.2922,41.84319],[9.29321,41.84359],[9.29397,41.84361],[9.29462,41.84414],[9.29739,41.84453],[9.29781,41.8452],[9.299,41.84552],[9.30054,41.84468],[9.30111,41.84508],[9.30274,41.84442],[9.30312,41.84327],[9.30391,41.84283],[9.30415,41.84221],[9.30577,41.84237],[9.30653,41.84188],[9.30763,41.84208],[9.30846,41.84145],[9.3077,41.84083],[9.30913,41.83989],[9.30924,41.83839],[9.30796,41.83568],[9.30831,41.83291],[9.30945,41.83241],[9.30833,41.83185],[9.3076,41.83104],[9.3056,41.83145],[9.30483,41.8315],[9.30437,41.83121],[9.30423,41.8306],[9.30535,41.82944],[9.30697,41.82847],[9.30645,41.82775],[9.30505,41.8277],[9.30368,41.82696],[9.30372,41.82643],[9.30358,41.82593],[9.30074,41.82592],[9.29977,41.82536],[9.29919,41.82395],[9.29818,41.82394],[9.29761,41.82357],[9.29784,41.82249],[9.29745,41.82189],[9.29593,41.82104],[9.29484,41.82015],[9.294,41.81872],[9.28934,41.81708],[9.28372,41.81608],[9.28206,41.81475],[9.28062,41.81379],[9.27621,41.81346],[9.27577,41.81173],[9.275,41.81005],[9.27387,41.80849],[9.27328,41.80806],[9.27137,41.80729],[9.26978,41.80741],[9.26877,41.8069],[9.26735,41.80607],[9.26619,41.80553],[9.26497,41.80486],[9.26348,41.80402],[9.26052,41.80082],[9.2605,41.79913],[9.25929,41.79835],[9.25803,41.79767],[9.25652,41.79745],[9.25321,41.7944],[9.25179,41.79453],[9.25064,41.79298],[9.24899,41.79234],[9.24785,41.7906],[9.24702,41.79068],[9.24618,41.7905],[9.24536,41.79032],[9.24406,41.78973],[9.24321,41.78901],[9.24145,41.78869],[9.24042,41.78884],[9.23943,41.78876],[9.23882,41.78872],[9.23925,41.78921],[9.2397,41.7902],[9.23862,41.78997],[9.2373,41.78955],[9.23542,41.78951],[9.23503,41.79045],[9.23419,41.79087],[9.23273,41.79074],[9.2326,41.79131],[9.2317,41.79196],[9.23083,41.79198],[9.23073,41.79312]]]]},"properties":{"ID":"2024","id":"2024","NOM_MASSIF":"BAVELLA","dept":"20"}},{"type":"Feature","id":10,"geometry":{"type":"MultiPolygon","coordinates":[[[[9.46361,42.00984],[9.45929,42.01249],[9.45667,42.01407],[9.4602,42.02063],[9.46534,42.0262],[9.45466,42.03011],[9.45751,42.03916],[9.45909,42.04042],[9.45914,42.04156],[9.45967,42.04085],[9.46028,42.04089],[9.46203,42.03894],[9.46533,42.03732],[9.4697,42.03575],[9.47248,42.03558],[9.47483,42.03618],[9.47749,42.03764],[9.47959,42.03954],[9.48128,42.04107],[9.48269,42.04145],[9.48557,42.04012],[9.48535,42.03952],[9.48575,42.03902],[9.48599,42.03847],[9.48695,42.0382],[9.48745,42.03668],[9.46862,42.01408],[9.46375,42.0097],[9.4634,42.00993],[9.46361,42.00984]]]]},"properties":{"ID":"2120","id":"2120","NOM_MASSIF":"PINIA","dept":"20"}},{"type":"Feature","id":11,"geometry":{"type":"MultiPolygon","coordinates":[[[[9.38429,42.55981],[9.38335,42.55936],[9.38186,42.55865],[9.38201,42.55854],[9.38249,42.55839],[9.38262,42.55817],[9.3828,42.5576],[9.38311,42.55722],[9.38398,42.55694],[9.38448,42.55659],[9.38473,42.55677],[9.38499,42.55709],[9.38538,42.55728],[9.38568,42.55726],[9.38603,42.5575],[9.38646,42.55767],[9.38695,42.55751],[9.38716,42.55718],[9.38748,42.55693],[9.38777,42.55665],[9.38805,42.55637],[9.38817,42.55599],[9.38852,42.55574],[9.38852,42.55528],[9.3891,42.55502],[9.38909,42.55456],[9.3893,42.55423],[9.3896,42.55396],[9.38981,42.55363],[9.38981,42.55317],[9.39006,42.55283],[9.39036,42.55256],[9.39057,42.55223],[9.39057,42.55177],[9.39089,42.55152],[9.39101,42.55129],[9.3908,42.55092],[9.39046,42.55068],[9.39011,42.55044],[9.38978,42.55019],[9.38942,42.54996],[9.38939,42.54945],[9.3891,42.54916],[9.38872,42.54895],[9.38842,42.54897],[9.38775,42.549],[9.38744,42.54927],[9.38695,42.54942],[9.38639,42.54956],[9.38602,42.54934],[9.38569,42.54908],[9.38533,42.54886],[9.38512,42.5485],[9.38498,42.54808],[9.38463,42.54784],[9.3843,42.54759],[9.38424,42.5471],[9.38421,42.54659],[9.38385,42.54636],[9.38352,42.5461],[9.38342,42.54565],[9.38314,42.54535],[9.3828,42.54511],[9.38224,42.54505],[9.38157,42.54509],[9.3812,42.54488],[9.3808,42.54469],[9.3804,42.54449],[9.38026,42.54408],[9.37991,42.54384],[9.37928,42.54385],[9.37913,42.54343],[9.37892,42.54307],[9.37833,42.54305],[9.37796,42.54283],[9.37729,42.54287],[9.37663,42.54291],[9.37593,42.54294],[9.37561,42.54322],[9.37523,42.543],[9.37456,42.54304],[9.37419,42.54282],[9.37368,42.54273],[9.3731,42.54269],[9.37273,42.54247],[9.37235,42.54226],[9.37207,42.54196],[9.37171,42.54173],[9.37144,42.54143],[9.37134,42.54098],[9.37099,42.54055],[9.3704,42.54081],[9.37046,42.54131],[9.37018,42.54159],[9.36972,42.54175],[9.36929,42.54159],[9.36894,42.54135],[9.36888,42.54086],[9.36874,42.54044],[9.36822,42.54035],[9.36788,42.54011],[9.36783,42.53961],[9.36692,42.53967],[9.36636,42.54015],[9.36609,42.54044],[9.36602,42.54085],[9.36567,42.54109],[9.36532,42.54134],[9.365,42.54159],[9.3647,42.54187],[9.36478,42.54237],[9.36483,42.54287],[9.36491,42.54337],[9.36461,42.54365],[9.36432,42.54392],[9.36427,42.54435],[9.36412,42.54471],[9.36418,42.54521],[9.36423,42.5457],[9.36489,42.54616],[9.36523,42.5464],[9.36555,42.54666],[9.36588,42.54692],[9.36623,42.54716],[9.3666,42.54737],[9.36688,42.54767],[9.36739,42.54777],[9.3678,42.54757],[9.36807,42.54727],[9.36801,42.54678],[9.3683,42.5465],[9.36876,42.54633],[9.36943,42.54629],[9.3701,42.54625],[9.37037,42.54596],[9.37044,42.54554],[9.37079,42.54527],[9.37095,42.5457],[9.37101,42.54619],[9.37131,42.54617],[9.3718,42.54649],[9.37189,42.54675],[9.37199,42.54681],[9.37238,42.54701],[9.37276,42.54722],[9.37317,42.54741],[9.37354,42.54762],[9.37394,42.54782],[9.37428,42.54806],[9.37461,42.54832],[9.37493,42.54858],[9.37526,42.54883],[9.37527,42.54884],[9.373,42.54991],[9.37203,42.55114],[9.37107,42.55028],[9.37044,42.55052],[9.36855,42.54962],[9.36809,42.54954],[9.3678,42.5494],[9.36745,42.54925],[9.36716,42.54919],[9.36678,42.54914],[9.36668,42.54899],[9.36669,42.54872],[9.36654,42.54838],[9.36637,42.54815],[9.36604,42.54778],[9.36554,42.54795],[9.36507,42.54783],[9.3648,42.54774],[9.36444,42.54773],[9.36405,42.54765],[9.36386,42.54753],[9.36377,42.54732],[9.36382,42.5469],[9.36378,42.54668],[9.36349,42.54637],[9.36307,42.54602],[9.36278,42.54578],[9.36125,42.54527],[9.35808,42.54518],[9.35614,42.54476],[9.35532,42.5449],[9.35429,42.54509],[9.34871,42.54603],[9.34589,42.54562],[9.34268,42.54515],[9.34206,42.54428],[9.3411,42.54323],[9.33964,42.5431],[9.33793,42.54338],[9.33596,42.54446],[9.33374,42.54426],[9.33268,42.54318],[9.33091,42.54247],[9.3291,42.54229],[9.32763,42.54256],[9.32712,42.54288],[9.32652,42.54373],[9.32591,42.54413],[9.32518,42.54469],[9.32493,42.54519],[9.32514,42.54617],[9.32542,42.54689],[9.32517,42.54763],[9.32505,42.54763],[9.3248,42.54797],[9.32449,42.54825],[9.32456,42.54875],[9.32429,42.54904],[9.32434,42.54953],[9.32428,42.54994],[9.32413,42.55031],[9.3239,42.55063],[9.32391,42.55109],[9.32396,42.55158],[9.32402,42.55208],[9.32387,42.55244],[9.3238,42.55286],[9.32385,42.55335],[9.32388,42.55358],[9.32364,42.55418],[9.32371,42.55468],[9.32342,42.55496],[9.32347,42.55545],[9.32354,42.55595],[9.32324,42.55622],[9.32329,42.55674],[9.32355,42.55674],[9.32315,42.55722],[9.32362,42.55745],[9.32599,42.55679],[9.32891,42.55655],[9.33093,42.55687],[9.33234,42.55701],[9.33447,42.55739],[9.33681,42.55737],[9.33775,42.55727],[9.33906,42.5565],[9.34014,42.55632],[9.34086,42.55749],[9.33958,42.55809],[9.33812,42.55891],[9.33807,42.55979],[9.33999,42.56045],[9.34201,42.5607],[9.34399,42.56158],[9.34542,42.56274],[9.34656,42.56415],[9.34756,42.5646],[9.34844,42.56488],[9.34967,42.56477],[9.35076,42.56427],[9.35053,42.56259],[9.34887,42.56066],[9.34813,42.55886],[9.34822,42.55742],[9.34782,42.55645],[9.34777,42.556],[9.34825,42.55615],[9.34862,42.55636],[9.34897,42.5566],[9.3493,42.55686],[9.34981,42.55695],[9.34996,42.55737],[9.35029,42.55762],[9.35091,42.55762],[9.35124,42.55787],[9.35156,42.55813],[9.35214,42.55817],[9.35251,42.55838],[9.35301,42.55859],[9.35345,42.55874],[9.35408,42.55874],[9.35475,42.5587],[9.35529,42.55858],[9.35575,42.55841],[9.35614,42.5582],[9.35643,42.55792],[9.35711,42.55788],[9.35741,42.55762],[9.3579,42.55747],[9.35817,42.55717],[9.35878,42.5571],[9.35907,42.55682],[9.35934,42.55653],[9.35982,42.55638],[9.36016,42.55612],[9.36048,42.55587],[9.36076,42.55557],[9.36741,42.56096],[9.36737,42.56107],[9.36724,42.56141],[9.36678,42.56164],[9.36665,42.56194],[9.36622,42.56226],[9.36579,42.56243],[9.36547,42.56269],[9.36502,42.56302],[9.36443,42.56352],[9.36393,42.56383],[9.3633,42.56417],[9.36271,42.5645],[9.36208,42.56477],[9.36156,42.56507],[9.36115,42.56529],[9.36065,42.56552],[9.36,42.56593],[9.35941,42.5662],[9.3587,42.5665],[9.35984,42.56766],[9.36362,42.56773],[9.36424,42.56889],[9.36197,42.57278],[9.36541,42.57619],[9.36995,42.57896],[9.37329,42.58317],[9.37538,42.58478],[9.37625,42.58657],[9.37627,42.58865],[9.37715,42.59126],[9.37826,42.5917],[9.38054,42.58854],[9.38164,42.58898],[9.38275,42.59032],[9.38592,42.58916],[9.38549,42.58668],[9.38519,42.58485],[9.38713,42.58345],[9.38695,42.58272],[9.38636,42.5814],[9.3867,42.57998],[9.38885,42.58],[9.38891,42.58099],[9.39415,42.58155],[9.39481,42.57925],[9.39566,42.57853],[9.40103,42.5794],[9.40206,42.57897],[9.40178,42.5787],[9.40145,42.57836],[9.40121,42.57819],[9.40047,42.57789],[9.39978,42.57758],[9.39934,42.57741],[9.39898,42.5772],[9.39871,42.577],[9.39852,42.57685],[9.39784,42.57669],[9.39718,42.57656],[9.39656,42.57648],[9.39593,42.57636],[9.39551,42.57628],[9.39531,42.57593],[9.39507,42.57549],[9.3949,42.57519],[9.39463,42.57477],[9.39442,42.57426],[9.39411,42.57367],[9.39371,42.57287],[9.39349,42.57243],[9.39313,42.57181],[9.3929,42.57132],[9.39238,42.57099],[9.39179,42.57058],[9.39124,42.57033],[9.39107,42.57011],[9.3907,42.56986],[9.39026,42.56963],[9.38982,42.56941],[9.3892,42.56908],[9.38865,42.56882],[9.38823,42.56866],[9.38858,42.56845],[9.38986,42.56837],[9.39111,42.56793],[9.39203,42.56721],[9.39147,42.56618],[9.39122,42.56527],[9.39152,42.56485],[9.39282,42.56532],[9.39348,42.56499],[9.39397,42.56404],[9.39364,42.56281],[9.39297,42.56171],[9.39132,42.56122],[9.39,42.56097],[9.38869,42.56038],[9.38775,42.56003],[9.38688,42.55979],[9.38613,42.55936],[9.38566,42.55865],[9.38507,42.55872],[9.38483,42.55925],[9.38473,42.55973],[9.38429,42.55981]]]]},"properties":{"ID":"202","id":"202","NOM_MASSIF":"STELLA","dept":"20"}},{"type":"Feature","id":12,"geometry":{"type":"MultiPolygon","coordinates":[[[[9.17839,42.66068],[9.16116,42.73655],[9.16334,42.73681],[9.18724,42.73039],[9.20439,42.72958],[9.21141,42.73365],[9.2195,42.7358],[9.22227,42.73564],[9.23437,42.72316],[9.24564,42.72194],[9.2547,42.71898],[9.25748,42.71658],[9.25679,42.70541],[9.26421,42.70142],[9.27557,42.69403],[9.28102,42.68586],[9.28387,42.68177],[9.28889,42.67662],[9.29017,42.67449],[9.28501,42.67124],[9.26285,42.65591],[9.24302,42.66455],[9.23102,42.66357],[9.229,42.66836],[9.22081,42.66753],[9.2147,42.66956],[9.20923,42.6682],[9.2029,42.66577],[9.19821,42.65744],[9.19266,42.65758],[9.19406,42.66123],[9.18677,42.66409],[9.18205,42.66492],[9.17839,42.66068]]]]},"properties":{"ID":"2129","id":"2129","NOM_MASSIF":"AGRIATES EST","dept":"20"}},{"type":"Feature","id":13,"geometry":{"type":"MultiPolygon","coordinates":[[[[9.16116,42.73655],[9.17839,42.66068],[9.17714,42.65923],[9.16212,42.65841],[9.15356,42.66601],[9.14729,42.67141],[9.14466,42.67044],[9.12001,42.66476],[9.10924,42.66108],[9.10883,42.65718],[9.10444,42.65631],[9.10076,42.65502],[9.09918,42.65194],[9.07783,42.65353],[9.06678,42.65435],[9.05937,42.66093],[9.06105,42.66494],[9.05588,42.66879],[9.06,42.67192],[9.05662,42.67342],[9.0547,42.67446],[9.05408,42.67823],[9.05458,42.68063],[9.05367,42.68162],[9.05774,42.68661],[9.05725,42.69412],[9.05855,42.69684],[9.06579,42.69344],[9.07147,42.692],[9.07891,42.70017],[9.08259,42.70874],[9.08647,42.71431],[9.09594,42.71527],[9.10014,42.71671],[9.10598,42.72404],[9.11389,42.72695],[9.12393,42.73086],[9.14254,42.73427],[9.16116,42.73655]]]]},"properties":{"ID":"211","id":"211","NOM_MASSIF":"AGRIATES OUEST","dept":"20"}},{"type":"Feature","id":14,"geometry":{"type":"MultiPolygon","coordinates":[[[[9.14303,42.30927],[9.15073,42.30014],[9.14909,42.28984],[9.14896,42.27735],[9.14155,42.27588],[9.14098,42.27107],[9.13451,42.26747],[9.13344,42.26406],[9.13402,42.2604],[9.12017,42.2515],[9.11537,42.25265],[9.09895,42.23941],[9.08119,42.23592],[9.05881,42.2258],[9.03172,42.22927],[9.01106,42.22519],[9.00303,42.22725],[8.97378,42.23616],[8.95872,42.25007],[8.96958,42.26487],[8.97797,42.27004],[8.98532,42.2772],[8.99532,42.28318],[9.00856,42.28537],[9.01645,42.29181],[9.00596,42.32149],[9.02294,42.32568],[9.06075,42.31897],[9.06596,42.31989],[9.0786,42.32384],[9.09334,42.32319],[9.09291,42.32412],[9.09181,42.32554],[9.09222,42.32682],[9.09243,42.32816],[9.09253,42.32966],[9.09373,42.33022],[9.09368,42.33233],[9.09725,42.33435],[9.09812,42.33556],[9.11308,42.33758],[9.12126,42.33979],[9.12312,42.34068],[9.1275,42.34173],[9.13635,42.34186],[9.13874,42.34076],[9.14016,42.34116],[9.14103,42.34178],[9.14176,42.34337],[9.14274,42.3439],[9.14531,42.34395],[9.14589,42.34352],[9.14718,42.34321],[9.14723,42.34259],[9.14813,42.34302],[9.14866,42.34259],[9.14911,42.34204],[9.1492,42.34136],[9.14934,42.341],[9.14997,42.341],[9.14953,42.33904],[9.15007,42.33818],[9.15086,42.33821],[9.151,42.33736],[9.15108,42.33692],[9.1509,42.33638],[9.15161,42.33558],[9.15186,42.33474],[9.15276,42.33457],[9.15272,42.33369],[9.1524,42.33284],[9.15262,42.33231],[9.15225,42.33145],[9.15248,42.33093],[9.15211,42.3296],[9.15175,42.32835],[9.15079,42.32579],[9.15029,42.32559],[9.14992,42.32316],[9.14429,42.31476],[9.14303,42.30927]]]]},"properties":{"ID":"2010","id":"2010","NOM_MASSIF":"RESTONICA-TAVIGNANO","dept":"20"}},{"type":"Feature","id":15,"geometry":{"type":"MultiPolygon","coordinates":[[[[9.17165,42.1506],[9.17141,42.15082],[9.17013,42.15132],[9.17027,42.15204],[9.16949,42.15267],[9.16982,42.1535],[9.16951,42.15457],[9.16942,42.15594],[9.16901,42.15719],[9.1682,42.15761],[9.16785,42.15828],[9.16791,42.15941],[9.1685,42.1598],[9.16826,42.16045],[9.16879,42.16081],[9.16941,42.16093],[9.17042,42.16184],[9.17009,42.16276],[9.17,42.16357],[9.17069,42.16488],[9.17119,42.16561],[9.17131,42.1662],[9.1711,42.16702],[9.17126,42.16794],[9.17383,42.1687],[9.17546,42.17162],[9.17663,42.17292],[9.17573,42.17394],[9.175,42.17426],[9.17407,42.17404],[9.1731,42.17341],[9.17183,42.17347],[9.17015,42.1741],[9.16967,42.17492],[9.17005,42.17626],[9.17015,42.17696],[9.16963,42.1774],[9.16659,42.17737],[9.16636,42.17802],[9.16795,42.18015],[9.16749,42.18155],[9.16897,42.18252],[9.17018,42.18531],[9.16875,42.18613],[9.16685,42.1854],[9.16642,42.18574],[9.16754,42.19181],[9.16677,42.19205],[9.16565,42.19214],[9.16616,42.19306],[9.16866,42.19376],[9.16973,42.19548],[9.16973,42.19663],[9.17168,42.19813],[9.17223,42.19962],[9.17412,42.2029],[9.17421,42.20371],[9.17506,42.20446],[9.17552,42.20631],[9.17557,42.20801],[9.17631,42.21002],[9.17686,42.21189],[9.17641,42.21206],[9.17683,42.21199],[9.17762,42.21209],[9.17958,42.21185],[9.1826,42.21164],[9.18451,42.21229],[9.18511,42.21356],[9.18523,42.21524],[9.18714,42.21662],[9.18643,42.21825],[9.1873,42.22091],[9.18864,42.22182],[9.19005,42.22206],[9.191,42.22151],[9.1921,42.21999],[9.19433,42.21953],[9.19588,42.2202],[9.19858,42.22179],[9.19966,42.22165],[9.19813,42.21888],[9.19821,42.2179],[9.19957,42.21578],[9.20183,42.21382],[9.20281,42.2113],[9.20447,42.20932],[9.20603,42.20583],[9.20629,42.20446],[9.20717,42.2036],[9.20801,42.2024],[9.20788,42.20169],[9.20584,42.20156],[9.20582,42.20237],[9.20414,42.20255],[9.20358,42.20175],[9.20296,42.20165],[9.20292,42.20135],[9.20401,42.20128],[9.20486,42.20182],[9.20495,42.20123],[9.20446,42.20036],[9.20474,42.19986],[9.20467,42.199],[9.20636,42.19939],[9.20772,42.19823],[9.20936,42.19821],[9.20755,42.1947],[9.20932,42.19334],[9.21122,42.19268],[9.21288,42.19178],[9.21397,42.19179],[9.21619,42.18936],[9.21815,42.18954],[9.21926,42.1915],[9.22059,42.19287],[9.22302,42.1929],[9.22526,42.19394],[9.22704,42.19353],[9.22897,42.19419],[9.23028,42.19229],[9.22888,42.18988],[9.23156,42.18857],[9.2348,42.18677],[9.237,42.18753],[9.23833,42.18664],[9.2412,42.18354],[9.24544,42.18396],[9.24793,42.18422],[9.2478,42.18298],[9.24648,42.1826],[9.24184,42.18158],[9.24297,42.18087],[9.2431,42.17923],[9.24514,42.1784],[9.24533,42.17731],[9.2458,42.17507],[9.24489,42.17318],[9.24608,42.17123],[9.24435,42.16872],[9.24264,42.16759],[9.24458,42.16646],[9.24691,42.16631],[9.24822,42.16725],[9.25151,42.16777],[9.25849,42.16735],[9.26055,42.16651],[9.26163,42.16558],[9.26512,42.16589],[9.26559,42.16378],[9.26897,42.16254],[9.26974,42.16061],[9.26818,42.15531],[9.2679,42.15444],[9.27178,42.15355],[9.27108,42.15147],[9.27295,42.14964],[9.27231,42.14811],[9.2702,42.14808],[9.26753,42.14461],[9.26533,42.14403],[9.26688,42.14132],[9.26978,42.14166],[9.26918,42.14049],[9.26996,42.13958],[9.27146,42.14],[9.27324,42.13957],[9.27503,42.14051],[9.27534,42.13944],[9.27718,42.13878],[9.27772,42.13773],[9.27917,42.13799],[9.28072,42.1372],[9.28635,42.13738],[9.28869,42.13691],[9.29071,42.13717],[9.29176,42.13603],[9.29312,42.13413],[9.29311,42.13032],[9.29515,42.131],[9.2959,42.12948],[9.29819,42.13015],[9.30061,42.12821],[9.30203,42.12863],[9.30292,42.1268],[9.30179,42.1248],[9.30339,42.12333],[9.30533,42.12104],[9.30706,42.11967],[9.30751,42.11877],[9.30818,42.11662],[9.30575,42.11486],[9.30626,42.11403],[9.30902,42.11349],[9.31098,42.11336],[9.31054,42.11148],[9.30904,42.11148],[9.3093,42.11055],[9.30866,42.11021],[9.30729,42.10854],[9.3078,42.10817],[9.30844,42.1072],[9.30836,42.10701],[9.29059,42.10761],[9.28702,42.10963],[9.28033,42.10971],[9.27843,42.11655],[9.27819,42.11847],[9.27729,42.12413],[9.26869,42.12671],[9.26414,42.12731],[9.26028,42.12739],[9.2597,42.12832],[9.25837,42.13078],[9.25427,42.1349],[9.25166,42.13669],[9.25128,42.13947],[9.2511,42.14122],[9.24858,42.14111],[9.24647,42.14198],[9.24313,42.1426],[9.24116,42.14187],[9.23896,42.14265],[9.23762,42.14431],[9.23561,42.14745],[9.23465,42.14974],[9.23431,42.15139],[9.2341,42.15305],[9.23066,42.15411],[9.22676,42.15884],[9.22297,42.1624],[9.21983,42.16274],[9.21683,42.16224],[9.21524,42.16032],[9.21338,42.15842],[9.21062,42.15684],[9.20777,42.15506],[9.20729,42.15265],[9.20443,42.1508],[9.20332,42.14961],[9.20139,42.14941],[9.19952,42.14814],[9.19578,42.14725],[9.19327,42.14512],[9.18982,42.14348],[9.18509,42.14244],[9.18127,42.14151],[9.17983,42.14033],[9.17987,42.14048],[9.17842,42.14039],[9.17666,42.14147],[9.17445,42.14465],[9.17535,42.14959],[9.1749,42.15055],[9.17419,42.15072],[9.17273,42.15008],[9.17188,42.15049],[9.17165,42.1506]]]]},"properties":{"ID":"2015","id":"2015","NOM_MASSIF":"ROSPA SORBA","dept":"20"}},{"type":"Feature","id":16,"geometry":{"type":"MultiPolygon","coordinates":[[[[9.17126,42.16794],[9.1711,42.16702],[9.17131,42.1662],[9.17119,42.16561],[9.17069,42.16488],[9.17,42.16357],[9.17009,42.16276],[9.17042,42.16184],[9.16941,42.16093],[9.16879,42.16081],[9.16826,42.16045],[9.1685,42.1598],[9.16791,42.15941],[9.16785,42.15828],[9.1682,42.15761],[9.16901,42.15719],[9.16942,42.15594],[9.16951,42.15457],[9.16982,42.1535],[9.16949,42.15267],[9.17027,42.15204],[9.17013,42.15132],[9.17273,42.15008],[9.17419,42.15072],[9.1749,42.15055],[9.17535,42.14959],[9.17445,42.14465],[9.17666,42.14147],[9.17842,42.14039],[9.17987,42.14048],[9.17827,42.13351],[9.17588,42.13213],[9.17214,42.1312],[9.17134,42.12999],[9.16985,42.12922],[9.16874,42.12852],[9.16854,42.12718],[9.1679,42.12523],[9.16541,42.12288],[9.16128,42.11839],[9.15917,42.11508],[9.15685,42.11442],[9.15573,42.11197],[9.15379,42.11086],[9.1509,42.11052],[9.15044,42.10907],[9.15099,42.10624],[9.1516,42.10401],[9.14975,42.10204],[9.14716,42.10049],[9.14435,42.09918],[9.14165,42.09833],[9.13934,42.09673],[9.13811,42.09596],[9.13741,42.09514],[9.13799,42.09426],[9.13613,42.09281],[9.13402,42.0906],[9.13352,42.09062],[9.13196,42.09116],[9.13044,42.09282],[9.12987,42.09378],[9.12808,42.09515],[9.12682,42.09756],[9.12563,42.09825],[9.12458,42.10493],[9.12084,42.1068],[9.11408,42.10941],[9.11263,42.11064],[9.10809,42.11489],[9.10804,42.11498],[9.10335,42.11649],[9.10222,42.11631],[9.09857,42.11579],[9.09599,42.11533],[9.09397,42.11501],[9.08525,42.12298],[9.08383,42.12436],[9.08135,42.12626],[9.07909,42.12758],[9.07728,42.12881],[9.07687,42.12887],[9.0768,42.12891],[9.07113,42.12978],[9.07429,42.13208],[9.076,42.13449],[9.07682,42.13669],[9.0753,42.13876],[9.07433,42.14182],[9.07331,42.14256],[9.07322,42.14375],[9.06998,42.15005],[9.07135,42.15406],[9.07084,42.15447],[9.06947,42.15557],[9.06949,42.15565],[9.0723,42.15549],[9.08154,42.15508],[9.08307,42.15461],[9.0849,42.1553],[9.08845,42.15276],[9.10865,42.14582],[9.11134,42.14659],[9.11248,42.14698],[9.11459,42.14627],[9.11526,42.14517],[9.11808,42.14503],[9.12115,42.14481],[9.12174,42.14461],[9.12403,42.14388],[9.12559,42.14315],[9.12775,42.14293],[9.1285,42.14264],[9.13224,42.14238],[9.13242,42.14127],[9.13225,42.13967],[9.13254,42.13901],[9.13551,42.13892],[9.14216,42.14154],[9.14282,42.14035],[9.1429,42.13996],[9.14281,42.13908],[9.14421,42.13853],[9.14421,42.1385],[9.14423,42.1385],[9.14463,42.14245],[9.14435,42.14327],[9.14472,42.14451],[9.14569,42.14555],[9.14635,42.14611],[9.14664,42.14655],[9.14817,42.14723],[9.14952,42.14905],[9.14985,42.14924],[9.15141,42.14856],[9.15195,42.15017],[9.15255,42.15103],[9.15388,42.1515],[9.15453,42.15225],[9.15413,42.15343],[9.15337,42.1532],[9.15297,42.15325],[9.15273,42.15352],[9.1528,42.15396],[9.15305,42.15518],[9.15339,42.15555],[9.15388,42.15587],[9.15395,42.15615],[9.15326,42.15635],[9.15234,42.15633],[9.15248,42.15657],[9.15267,42.15707],[9.15246,42.1573],[9.15244,42.15763],[9.15206,42.15775],[9.15173,42.15756],[9.15139,42.15771],[9.15153,42.1593],[9.15152,42.16],[9.1521,42.16287],[9.15181,42.16457],[9.15126,42.16549],[9.14991,42.16598],[9.14925,42.16702],[9.14941,42.16763],[9.14991,42.16786],[9.15108,42.1685],[9.15226,42.16937],[9.15319,42.16989],[9.15444,42.16993],[9.15581,42.17018],[9.15616,42.17052],[9.15553,42.17186],[9.15523,42.17265],[9.15497,42.17334],[9.15463,42.17423],[9.15473,42.17478],[9.15538,42.17498],[9.15629,42.17518],[9.15669,42.17549],[9.15728,42.17623],[9.15717,42.17661],[9.15711,42.1769],[9.15736,42.1773],[9.15765,42.17765],[9.15835,42.17809],[9.15887,42.17852],[9.15849,42.17882],[9.15766,42.17885],[9.15639,42.17903],[9.15581,42.17933],[9.15519,42.17977],[9.15406,42.17997],[9.15345,42.1806],[9.15329,42.18125],[9.15334,42.18204],[9.15315,42.18301],[9.154,42.18346],[9.15485,42.18424],[9.15637,42.1852],[9.15652,42.18604],[9.15689,42.18695],[9.15793,42.18773],[9.15927,42.18981],[9.16016,42.1906],[9.16117,42.19139],[9.16119,42.19337],[9.16316,42.19262],[9.16565,42.19214],[9.16677,42.19205],[9.16754,42.19181],[9.16642,42.18574],[9.16685,42.1854],[9.16875,42.18613],[9.17018,42.18531],[9.16897,42.18252],[9.16749,42.18155],[9.16795,42.18015],[9.16636,42.17802],[9.16659,42.17737],[9.16963,42.1774],[9.17015,42.17696],[9.17005,42.17626],[9.16967,42.17492],[9.17015,42.1741],[9.17183,42.17347],[9.1731,42.17341],[9.17407,42.17404],[9.175,42.17426],[9.17573,42.17394],[9.17663,42.17292],[9.17546,42.17162],[9.17383,42.1687],[9.17126,42.16794]]]]},"properties":{"ID":"2016","id":"2016","NOM_MASSIF":"VIZZAVONA","dept":"20"}},{"type":"Feature","id":17,"geometry":{"type":"MultiPolygon","coordinates":[[[[9.15927,42.18981],[9.15793,42.18773],[9.15689,42.18695],[9.15652,42.18604],[9.15637,42.1852],[9.15485,42.18424],[9.154,42.18346],[9.15315,42.18301],[9.15334,42.18204],[9.15329,42.18125],[9.15345,42.1806],[9.15406,42.17997],[9.15519,42.17977],[9.15581,42.17933],[9.15639,42.17903],[9.15766,42.17885],[9.15849,42.17882],[9.15887,42.17852],[9.15835,42.17809],[9.15765,42.17765],[9.15736,42.1773],[9.15711,42.1769],[9.15717,42.17661],[9.15728,42.17623],[9.15669,42.17549],[9.15629,42.17518],[9.15538,42.17498],[9.15473,42.17478],[9.15463,42.17423],[9.15497,42.17334],[9.15523,42.17265],[9.15553,42.17186],[9.15616,42.17052],[9.15581,42.17018],[9.15444,42.16993],[9.15319,42.16989],[9.15226,42.16937],[9.15108,42.1685],[9.14991,42.16786],[9.14941,42.16763],[9.14925,42.16702],[9.14991,42.16598],[9.15126,42.16549],[9.15181,42.16457],[9.1521,42.16287],[9.15152,42.16],[9.15153,42.1593],[9.15139,42.15771],[9.15173,42.15756],[9.15206,42.15775],[9.15244,42.15763],[9.15246,42.1573],[9.15267,42.15707],[9.15248,42.15657],[9.15234,42.15633],[9.15326,42.15635],[9.15395,42.15615],[9.15388,42.15587],[9.15339,42.15555],[9.15305,42.15518],[9.1528,42.15396],[9.15273,42.15352],[9.15297,42.15325],[9.15337,42.1532],[9.15413,42.15343],[9.15452,42.15225],[9.15386,42.1515],[9.15253,42.15104],[9.15195,42.15017],[9.15141,42.14856],[9.14985,42.14924],[9.14952,42.14905],[9.14817,42.14723],[9.14664,42.14655],[9.14635,42.14611],[9.14569,42.14555],[9.14472,42.14451],[9.14435,42.14327],[9.14463,42.14245],[9.14423,42.1385],[9.14421,42.1385],[9.14421,42.13853],[9.14281,42.13908],[9.1429,42.13996],[9.14282,42.14035],[9.14216,42.14154],[9.13551,42.13892],[9.13254,42.13901],[9.13225,42.13967],[9.13242,42.14127],[9.13224,42.14238],[9.1285,42.14264],[9.12775,42.14293],[9.12559,42.14315],[9.12403,42.14388],[9.12174,42.14461],[9.12115,42.14481],[9.11808,42.14503],[9.11526,42.14517],[9.11459,42.14627],[9.11248,42.14698],[9.11134,42.14659],[9.10865,42.14582],[9.08845,42.15276],[9.0849,42.1553],[9.08307,42.15461],[9.08154,42.15508],[9.0723,42.15549],[9.06949,42.15565],[9.06947,42.15557],[9.07084,42.15447],[9.06967,42.15517],[9.06657,42.15884],[9.06598,42.16333],[9.0651,42.16645],[9.0611,42.16731],[9.05516,42.16851],[9.05132,42.16958],[9.04873,42.17238],[9.04835,42.17589],[9.04957,42.17741],[9.04777,42.179],[9.04787,42.1828],[9.04919,42.18526],[9.05058,42.18836],[9.04932,42.19224],[9.0489,42.19301],[9.05156,42.19407],[9.05462,42.19449],[9.0573,42.19433],[9.06058,42.19504],[9.06233,42.19583],[9.06524,42.19547],[9.06631,42.19461],[9.0704,42.19455],[9.07138,42.19529],[9.07284,42.1945],[9.07586,42.19388],[9.07952,42.19296],[9.0821,42.19212],[9.0833,42.19161],[9.08453,42.18981],[9.08499,42.18907],[9.08538,42.18863],[9.08565,42.1883],[9.08762,42.188],[9.08932,42.18758],[9.09015,42.18735],[9.09046,42.18734],[9.09144,42.18747],[9.09261,42.18753],[9.09441,42.18806],[9.09468,42.18818],[9.09497,42.18819],[9.09577,42.18812],[9.09725,42.18779],[9.09804,42.18779],[9.09895,42.18778],[9.0995,42.18775],[9.10132,42.18724],[9.10204,42.18711],[9.10342,42.18694],[9.10411,42.18666],[9.10474,42.18622],[9.10544,42.18609],[9.10949,42.1858],[9.11009,42.18567],[9.11114,42.18539],[9.11247,42.18527],[9.11269,42.18522],[9.1131,42.18491],[9.11332,42.18486],[9.11368,42.18483],[9.11475,42.18504],[9.1157,42.1848],[9.1161,42.18464],[9.11643,42.18436],[9.11757,42.1837],[9.11821,42.18343],[9.11893,42.18335],[9.11962,42.18303],[9.12018,42.183],[9.12133,42.18298],[9.12196,42.18263],[9.12284,42.18231],[9.12302,42.18235],[9.12341,42.18254],[9.12389,42.18302],[9.12435,42.18349],[9.1251,42.18429],[9.12592,42.18506],[9.12618,42.18532],[9.12672,42.18583],[9.12705,42.18602],[9.12891,42.18682],[9.12949,42.18724],[9.12963,42.18741],[9.12974,42.1878],[9.12988,42.18798],[9.13077,42.18833],[9.13114,42.18836],[9.13223,42.18834],[9.13356,42.18845],[9.13431,42.18866],[9.13527,42.18912],[9.1362,42.18932],[9.13757,42.18951],[9.13826,42.18971],[9.13867,42.18963],[9.13921,42.18945],[9.13986,42.18947],[9.14062,42.18955],[9.14149,42.18988],[9.14188,42.19012],[9.1435,42.19037],[9.14496,42.19097],[9.14558,42.19107],[9.14678,42.19109],[9.14782,42.19121],[9.14847,42.19148],[9.14874,42.19169],[9.14883,42.19201],[9.14895,42.19251],[9.14929,42.19283],[9.15102,42.19427],[9.15186,42.1948],[9.15257,42.19472],[9.15305,42.19465],[9.15516,42.19452],[9.15892,42.19439],[9.16119,42.19337],[9.16117,42.19139],[9.16016,42.1906],[9.15927,42.18981]]]]},"properties":{"ID":"2114","id":"2114","NOM_MASSIF":"MANGANELLU","dept":"20"}},{"type":"Feature","id":18,"geometry":{"type":"MultiPolygon","coordinates":[[[[9.04932,42.19224],[9.04871,42.19296],[9.04703,42.19774],[9.04649,42.20154],[9.04767,42.20262],[9.04546,42.20748],[9.04633,42.20852],[9.0462,42.21072],[9.04911,42.21156],[9.05061,42.21418],[9.05337,42.21681],[9.05786,42.21589],[9.06028,42.21245],[9.06494,42.20997],[9.0689,42.20755],[9.07141,42.20778],[9.07551,42.20978],[9.07756,42.21214],[9.0801,42.21408],[9.08439,42.21535],[9.08766,42.21495],[9.08917,42.21454],[9.09829,42.22543],[9.11924,42.22959],[9.12978,42.22343],[9.13785,42.22435],[9.14502,42.22181],[9.14821,42.21927],[9.15419,42.21783],[9.15958,42.21579],[9.16665,42.21364],[9.17348,42.21252],[9.17639,42.21205],[9.17646,42.21204],[9.17686,42.21189],[9.17631,42.21002],[9.17557,42.20801],[9.17552,42.20631],[9.17506,42.20446],[9.17421,42.20371],[9.17412,42.2029],[9.17223,42.19962],[9.17168,42.19813],[9.16973,42.19663],[9.16973,42.19548],[9.16866,42.19376],[9.16616,42.19306],[9.16565,42.19214],[9.16312,42.19263],[9.15892,42.19439],[9.15516,42.19452],[9.15305,42.19465],[9.15257,42.19472],[9.15186,42.1948],[9.15102,42.19427],[9.14929,42.19283],[9.14895,42.19251],[9.14883,42.19201],[9.14874,42.19169],[9.14847,42.19148],[9.14782,42.19121],[9.14678,42.19109],[9.14558,42.19107],[9.14496,42.19097],[9.1435,42.19037],[9.14188,42.19012],[9.14149,42.18988],[9.14062,42.18955],[9.13986,42.18947],[9.13921,42.18945],[9.13867,42.18963],[9.13826,42.18971],[9.13757,42.18951],[9.1362,42.18932],[9.13527,42.18912],[9.13431,42.18866],[9.13356,42.18845],[9.13223,42.18834],[9.13114,42.18836],[9.13077,42.18833],[9.12988,42.18798],[9.12974,42.1878],[9.12963,42.18741],[9.12949,42.18724],[9.12891,42.18682],[9.12705,42.18602],[9.12672,42.18583],[9.12618,42.18532],[9.12592,42.18506],[9.1251,42.18429],[9.12435,42.18349],[9.12389,42.18302],[9.12341,42.18254],[9.12302,42.18235],[9.12284,42.18231],[9.12196,42.18263],[9.12133,42.18298],[9.12018,42.183],[9.11962,42.18303],[9.11893,42.18335],[9.11821,42.18343],[9.11757,42.1837],[9.11643,42.18436],[9.1161,42.18464],[9.1157,42.1848],[9.11475,42.18504],[9.11368,42.18483],[9.11332,42.18486],[9.1131,42.18491],[9.11269,42.18522],[9.11247,42.18527],[9.11114,42.18539],[9.11009,42.18567],[9.10949,42.1858],[9.10544,42.18609],[9.10474,42.18622],[9.10411,42.18666],[9.10342,42.18694],[9.10204,42.18711],[9.10132,42.18724],[9.0995,42.18775],[9.09895,42.18778],[9.09804,42.18779],[9.09725,42.18779],[9.09577,42.18812],[9.09497,42.18819],[9.09468,42.18818],[9.09441,42.18806],[9.09261,42.18753],[9.09144,42.18747],[9.09046,42.18734],[9.09015,42.18735],[9.08932,42.18758],[9.08762,42.188],[9.08565,42.1883],[9.08538,42.18863],[9.08499,42.18907],[9.08453,42.18981],[9.0833,42.19161],[9.0821,42.19212],[9.07952,42.19296],[9.07586,42.19388],[9.07284,42.1945],[9.07138,42.19529],[9.0704,42.19455],[9.06631,42.19461],[9.06524,42.19547],[9.06233,42.19583],[9.06058,42.19504],[9.0573,42.19433],[9.05462,42.19449],[9.05156,42.19407],[9.0489,42.19301],[9.04932,42.19224]]]]},"properties":{"ID":"2113","id":"2113","NOM_MASSIF":"VERGHELLU","dept":"20"}},{"type":"Feature","id":19,"geometry":{"type":"MultiPolygon","coordinates":[[[[9.02951,42.18682],[9.02661,42.17833],[9.02698,42.17048],[9.02329,42.16594],[9.02951,42.16027],[9.03614,42.15485],[9.03576,42.15124],[9.0187,42.1528],[9.0079,42.15287],[9.01169,42.14706],[9.00549,42.14518],[8.99669,42.14541],[8.98392,42.14588],[8.98092,42.14018],[8.97565,42.13573],[8.96721,42.13539],[8.96353,42.13085],[8.95521,42.12798],[8.94267,42.12674],[8.94028,42.12297],[8.93234,42.1198],[8.91977,42.11828],[8.91584,42.11907],[8.91358,42.12423],[8.90593,42.12383],[8.89976,42.12223],[8.89175,42.12213],[8.88421,42.12675],[8.87568,42.12947],[8.87256,42.13413],[8.86645,42.13699],[8.86304,42.14277],[8.86461,42.15023],[8.86648,42.15291],[8.87536,42.15744],[8.8895,42.15859],[8.89962,42.16723],[8.89888,42.17174],[8.91137,42.17242],[8.92184,42.17294],[8.92741,42.16871],[8.94031,42.16936],[8.95185,42.16869],[8.95765,42.16669],[8.96411,42.16714],[8.96948,42.17242],[8.97951,42.17632],[8.99078,42.1807],[8.99883,42.18106],[9.02951,42.18682]]]]},"properties":{"ID":"2011","id":"2011","NOM_MASSIF":"LIBBIU","dept":"20"}},{"type":"Feature","id":20,"geometry":{"type":"MultiPolygon","coordinates":[[[[8.76548,42.30564],[8.76865,42.29736],[8.77005,42.29924],[8.78256,42.29993],[8.79845,42.30602],[8.80244,42.30971],[8.81854,42.3102],[8.83349,42.31494],[8.83754,42.31136],[8.84478,42.30368],[8.85062,42.29805],[8.85447,42.28861],[8.856,42.28405],[8.86847,42.28809],[8.87762,42.2912],[8.87961,42.28327],[8.8828,42.27916],[8.88108,42.27032],[8.87276,42.26745],[8.86954,42.26343],[8.86079,42.26421],[8.85582,42.25891],[8.84505,42.25561],[8.83548,42.25224],[8.82506,42.24836],[8.81337,42.25181],[8.80553,42.25365],[8.79018,42.25256],[8.79174,42.26002],[8.78778,42.26834],[8.77891,42.27192],[8.76369,42.2683],[8.75375,42.26914],[8.74526,42.2724],[8.74151,42.27513],[8.72062,42.2749],[8.71665,42.27931],[8.7216,42.28462],[8.73317,42.28789],[8.74212,42.28515],[8.748,42.28762],[8.73501,42.29421],[8.7418,42.29383],[8.7533,42.29235],[8.75754,42.29463],[8.77068,42.29753],[8.76548,42.30564]]]]},"properties":{"ID":"208","id":"208","NOM_MASSIF":"LONCA-AITONE-SERRIERA","dept":"20"}},{"type":"Feature","id":21,"geometry":{"type":"MultiPolygon","coordinates":[[[[8.86154,42.32935],[8.85836,42.33246],[8.87808,42.3416],[8.88155,42.34815],[8.90432,42.36853],[8.90605,42.37156],[8.91513,42.37487],[8.92903,42.37336],[8.93238,42.3449],[8.94537,42.32525],[8.96359,42.30634],[8.97223,42.30844],[8.98389,42.30325],[8.98495,42.2999],[8.99611,42.301],[9.01162,42.30544],[9.01648,42.29182],[9.00856,42.28537],[8.99519,42.28316],[8.98519,42.27717],[8.9771,42.2695],[8.96958,42.26487],[8.96385,42.26627],[8.95918,42.26395],[8.95278,42.26553],[8.93473,42.25891],[8.93257,42.25662],[8.92681,42.25489],[8.92309,42.25749],[8.91576,42.25499],[8.91225,42.25519],[8.9067,42.25342],[8.89302,42.26359],[8.88217,42.27201],[8.88557,42.28011],[8.88618,42.28408],[8.88353,42.28512],[8.87794,42.29045],[8.87397,42.29517],[8.8631,42.29667],[8.85938,42.30123],[8.86068,42.31139],[8.86188,42.32086],[8.86154,42.32935]]]]},"properties":{"ID":"209","id":"209","NOM_MASSIF":"VALDU-NIELLU ALBERTACCE","dept":"20"}},{"type":"Feature","id":22,"geometry":{"type":"MultiPolygon","coordinates":[[[[8.92353,42.45851],[8.92567,42.45782],[8.92692,42.45752],[8.92855,42.45751],[8.92966,42.45648],[8.9315,42.45576],[8.93368,42.456],[8.93597,42.45561],[8.93779,42.45537],[8.94035,42.45596],[8.94373,42.4561],[8.94485,42.45606],[8.94921,42.45627],[8.95002,42.45665],[8.95313,42.45714],[8.95436,42.45697],[8.9555,42.45657],[8.95671,42.45666],[8.95844,42.45578],[8.95984,42.45505],[8.96083,42.45452],[8.96279,42.45435],[8.9635,42.45449],[8.96541,42.45599],[8.96594,42.45708],[8.9669,42.45807],[8.96857,42.45986],[8.97024,42.46272],[8.97144,42.46325],[8.97446,42.46396],[8.97655,42.46399],[8.97887,42.46379],[8.98155,42.46405],[8.98364,42.46522],[8.98614,42.46579],[8.98843,42.46673],[8.9912,42.46583],[8.9931,42.46506],[8.99423,42.46461],[8.99583,42.46414],[8.99672,42.46386],[8.99801,42.46379],[8.99862,42.46452],[9.00224,42.46424],[9.00579,42.46396],[9.008,42.4639],[9.00924,42.46375],[9.01037,42.46341],[9.01161,42.46347],[9.01307,42.46374],[9.01481,42.46371],[9.01555,42.46334],[9.0175,42.46342],[9.01894,42.46308],[9.02155,42.46264],[9.02346,42.46258],[9.02601,42.46251],[9.02828,42.46177],[9.03024,42.46073],[9.03131,42.46012],[9.0323,42.45932],[9.033,42.45893],[9.03335,42.45822],[9.03349,42.45741],[9.03468,42.45657],[9.03591,42.45565],[9.03721,42.45445],[9.03866,42.45253],[9.03989,42.45245],[9.04172,42.44973],[9.0433,42.44742],[9.044,42.44607],[9.04437,42.44521],[9.04428,42.44256],[9.04455,42.44085],[9.04657,42.43804],[9.04716,42.43613],[9.047,42.43243],[9.04693,42.42897],[9.04715,42.42686],[9.04707,42.42339],[9.04785,42.42144],[9.04953,42.42079],[9.05008,42.41797],[9.05136,42.41555],[9.05205,42.41458],[9.05594,42.4128],[9.05682,42.41214],[9.05584,42.41047],[9.05521,42.40902],[9.05423,42.40755],[9.0532,42.40668],[9.05234,42.40663],[9.05144,42.40647],[9.05044,42.40584],[9.04932,42.40526],[9.04907,42.40414],[9.04843,42.40257],[9.04809,42.40215],[9.04843,42.40076],[9.04668,42.40042],[9.0452,42.40007],[9.04385,42.40011],[9.04284,42.39958],[9.04136,42.39908],[9.04051,42.39903],[9.03887,42.39899],[9.03754,42.39891],[9.03557,42.39859],[9.03382,42.39829],[9.03234,42.39846],[9.03099,42.39892],[9.02973,42.39945],[9.02854,42.3994],[9.02738,42.39957],[9.02635,42.39908],[9.02381,42.39867],[9.02295,42.39887],[9.022,42.39901],[9.02151,42.39909],[9.02,42.39869],[9.01873,42.3988],[9.01819,42.39844],[9.01666,42.39819],[9.01562,42.39773],[9.01415,42.39725],[9.01249,42.3963],[9.01102,42.39527],[9.01037,42.39498],[9.00868,42.39524],[9.00711,42.39529],[9.00613,42.39638],[9.00528,42.39694],[9.00451,42.39809],[9.00344,42.39875],[9.00255,42.39872],[9.00071,42.39903],[8.99953,42.39938],[8.99853,42.39931],[8.99797,42.39928],[8.99601,42.39973],[8.99472,42.40021],[8.99352,42.40078],[8.99264,42.40088],[8.99105,42.40075],[8.98975,42.40134],[8.98818,42.40189],[8.98852,42.40289],[8.9879,42.40155],[8.98653,42.40077],[8.98614,42.39995],[8.985,42.39866],[8.98377,42.39817],[8.98173,42.39708],[8.98043,42.39597],[8.97953,42.3947],[8.97938,42.39354],[8.97908,42.3925],[8.97849,42.39192],[8.97644,42.39184],[8.97333,42.39196],[8.97107,42.39188],[8.97003,42.39139],[8.96877,42.39054],[8.96662,42.38979],[8.96516,42.38919],[8.96402,42.38827],[8.96239,42.38754],[8.9605,42.38565],[8.95933,42.38485],[8.95743,42.38415],[8.95638,42.38365],[8.95495,42.38341],[8.95244,42.38322],[8.95109,42.38293],[8.94957,42.38173],[8.94804,42.38099],[8.94598,42.3798],[8.9444,42.37871],[8.94356,42.37815],[8.94164,42.37714],[8.93794,42.37627],[8.9368,42.37621],[8.93563,42.37564],[8.93477,42.37545],[8.93311,42.37472],[8.9323,42.37348],[8.93109,42.37313],[8.92977,42.37298],[8.92871,42.37364],[8.92705,42.37309],[8.92578,42.37305],[8.92392,42.37346],[8.92239,42.37388],[8.9201,42.37407],[8.91775,42.37413],[8.91629,42.37483],[8.91414,42.37592],[8.91343,42.37754],[8.9108,42.37769],[8.90926,42.37833],[8.90613,42.37856],[8.9049,42.37921],[8.90343,42.38055],[8.90302,42.38132],[8.90195,42.38205],[8.90104,42.38289],[8.90052,42.38359],[8.90077,42.38435],[8.90141,42.38515],[8.90167,42.38576],[8.90163,42.3871],[8.90125,42.38802],[8.90106,42.38834],[8.90144,42.38895],[8.90115,42.3894],[8.90105,42.39025],[8.90123,42.39099],[8.90165,42.39142],[8.90127,42.39244],[8.90083,42.39299],[8.9023,42.3938],[8.90359,42.39465],[8.90388,42.39528],[8.9047,42.3959],[8.9052,42.39681],[8.90509,42.39815],[8.9048,42.39881],[8.90534,42.39985],[8.90701,42.40067],[8.90823,42.40148],[8.90849,42.40172],[8.9088,42.40293],[8.90984,42.40421],[8.90991,42.40654],[8.91105,42.40838],[8.91074,42.41033],[8.91266,42.41142],[8.91443,42.41288],[8.91616,42.414],[8.9164,42.41549],[8.91644,42.41628],[8.91568,42.41669],[8.91635,42.41833],[8.91612,42.41964],[8.91618,42.42108],[8.91767,42.42236],[8.91837,42.424],[8.91902,42.42438],[8.92106,42.42605],[8.92087,42.42737],[8.92091,42.42775],[8.92161,42.42828],[8.92096,42.42956],[8.9204,42.43065],[8.91778,42.43189],[8.91678,42.43323],[8.91672,42.43367],[8.91688,42.43519],[8.91704,42.43623],[8.91707,42.43751],[8.91686,42.43814],[8.91725,42.43984],[8.91664,42.44157],[8.91691,42.44276],[8.91675,42.44341],[8.91527,42.44422],[8.91326,42.44524],[8.91253,42.44582],[8.91327,42.44642],[8.91342,42.44757],[8.91384,42.4486],[8.91395,42.44903],[8.91489,42.44989],[8.91567,42.45121],[8.9174,42.45418],[8.91781,42.45517],[8.91853,42.45627],[8.91878,42.4573],[8.91893,42.45823],[8.91912,42.45945],[8.92034,42.45908],[8.92353,42.45851]]]]},"properties":{"ID":"206","id":"206","NOM_MASSIF":"ASCO","dept":"20"}},{"type":"Feature","id":23,"geometry":{"type":"MultiPolygon","coordinates":[[[[8.98843,42.46673],[8.98614,42.46579],[8.98364,42.46522],[8.98155,42.46405],[8.97887,42.46379],[8.97655,42.46399],[8.97446,42.46396],[8.97144,42.46325],[8.97024,42.46272],[8.96857,42.45986],[8.9669,42.45807],[8.96594,42.45708],[8.96541,42.45599],[8.9635,42.45449],[8.96279,42.45435],[8.96083,42.45452],[8.95984,42.45505],[8.95844,42.45578],[8.95671,42.45666],[8.9555,42.45657],[8.95436,42.45697],[8.95313,42.45714],[8.95002,42.45665],[8.94921,42.45627],[8.94485,42.45606],[8.94373,42.4561],[8.94035,42.45596],[8.93779,42.45537],[8.93597,42.45561],[8.93368,42.456],[8.9315,42.45576],[8.92966,42.45648],[8.92855,42.45751],[8.92692,42.45752],[8.92567,42.45782],[8.92353,42.45851],[8.92353,42.45851],[8.92034,42.45908],[8.91857,42.4602],[8.91823,42.46124],[8.91795,42.46213],[8.91789,42.4622],[8.91783,42.46241],[8.91775,42.46277],[8.91785,42.46375],[8.91789,42.46405],[8.91802,42.46457],[8.91798,42.46463],[8.91791,42.46481],[8.91714,42.46562],[8.91666,42.46627],[8.9165,42.46683],[8.91642,42.46734],[8.91634,42.46762],[8.91613,42.46822],[8.91622,42.4686],[8.91605,42.46899],[8.9155,42.46982],[8.91453,42.47074],[8.91416,42.4711],[8.914,42.47146],[8.91407,42.47197],[8.9141,42.47207],[8.91432,42.47222],[8.91433,42.4722],[8.91477,42.47263],[8.91506,42.47287],[8.91562,42.47346],[8.91634,42.47382],[8.91683,42.47415],[8.91745,42.47453],[8.91752,42.47466],[8.91756,42.47516],[8.91771,42.47643],[8.91801,42.47698],[8.91866,42.47735],[8.91923,42.47759],[8.92025,42.47832],[8.92081,42.47889],[8.92117,42.4797],[8.92124,42.48003],[8.92121,42.48018],[8.92162,42.48075],[8.9219,42.4811],[8.92295,42.4823],[8.92356,42.48298],[8.92364,42.48326],[8.92309,42.4842],[8.92283,42.48488],[8.92267,42.48597],[8.92247,42.4863],[8.92189,42.4872],[8.9217,42.48772],[8.92149,42.48981],[8.92153,42.49037],[8.9213,42.49144],[8.92145,42.49188],[8.92161,42.49288],[8.92147,42.49315],[8.92113,42.4936],[8.92065,42.4946],[8.92033,42.49509],[8.92011,42.4953],[8.92007,42.49548],[8.91978,42.49638],[8.91954,42.49717],[8.91931,42.49752],[8.91887,42.49795],[8.92037,42.49922],[8.92145,42.50024],[8.92242,42.50108],[8.92319,42.50211],[8.92373,42.50315],[8.92411,42.50365],[8.92498,42.50414],[8.92608,42.5047],[8.92633,42.50501],[8.92664,42.50533],[8.92702,42.50566],[8.92787,42.50612],[8.92819,42.50666],[8.92872,42.50737],[8.92888,42.5077],[8.92928,42.50835],[8.92986,42.5091],[8.93035,42.50945],[8.93353,42.51078],[8.93424,42.51134],[8.93455,42.51151],[8.93598,42.51202],[8.93747,42.51245],[8.93772,42.51273],[8.93824,42.51352],[8.93871,42.51491],[8.93879,42.51527],[8.93917,42.51565],[8.93955,42.5159],[8.94,42.51575],[8.94066,42.51577],[8.94215,42.51597],[8.94291,42.51608],[8.94361,42.516],[8.94436,42.51585],[8.94512,42.51572],[8.94627,42.51577],[8.9474,42.51602],[8.94852,42.51593],[8.94943,42.51574],[8.9509,42.51569],[8.95212,42.51576],[8.95317,42.51565],[8.9548,42.5155],[8.9563,42.51574],[8.95704,42.51597],[8.9579,42.5165],[8.95928,42.51698],[8.95993,42.51742],[8.96099,42.51779],[8.96264,42.50745],[8.97799,42.50484],[8.98319,42.50719],[8.98899,42.50791],[8.99282,42.50795],[9.00345,42.50575],[9.00726,42.50567],[9.01089,42.48773],[8.98843,42.46673]]]]},"properties":{"ID":"214","id":"214","NOM_MASSIF":"TARTAGINE-MELAJA","dept":"20"}},{"type":"Feature","id":24,"geometry":{"type":"MultiPolygon","coordinates":[[[[8.91906,42.49818],[8.92366,42.48353],[8.9141,42.47109],[8.91903,42.4597],[8.91767,42.45562],[8.91284,42.44531],[8.91682,42.443],[8.91674,42.43329],[8.92165,42.428],[8.91936,42.42448],[8.91638,42.42033],[8.91662,42.41355],[8.91159,42.41088],[8.90051,42.41254],[8.88433,42.41294],[8.8745,42.41752],[8.8633,42.42058],[8.85141,42.4171],[8.84233,42.41795],[8.82849,42.42548],[8.8177,42.4275],[8.80289,42.4321],[8.79985,42.43958],[8.7985,42.45111],[8.79287,42.45594],[8.78048,42.45714],[8.77091,42.46235],[8.79971,42.48604],[8.83465,42.499],[8.85118,42.49495],[8.86351,42.49773],[8.90006,42.50069],[8.91906,42.49818]]]]},"properties":{"ID":"213","id":"213","NOM_MASSIF":"BONIFATO","dept":"20"}},{"type":"Feature","id":25,"geometry":{"type":"MultiPolygon","coordinates":[[[[8.66248,42.44131],[8.70621,42.44569],[8.71391,42.45703],[8.71918,42.46281],[8.73787,42.47739],[8.75077,42.4822],[8.75401,42.47474],[8.76003,42.45933],[8.77075,42.46115],[8.7809,42.45695],[8.79254,42.4556],[8.7977,42.45079],[8.80238,42.43215],[8.81786,42.42714],[8.82844,42.42498],[8.84131,42.41799],[8.85204,42.41671],[8.86345,42.42022],[8.87515,42.41747],[8.88447,42.41241],[8.9025,42.4119],[8.91128,42.41054],[8.90866,42.40323],[8.90542,42.39943],[8.90127,42.39292],[8.90118,42.38355],[8.90734,42.37679],[8.90671,42.37127],[8.89866,42.36342],[8.88155,42.34815],[8.87808,42.3416],[8.85321,42.33028],[8.83134,42.32093],[8.81937,42.31604],[8.80169,42.32226],[8.7892,42.3264],[8.77098,42.32486],[8.75796,42.33805],[8.73725,42.3394],[8.72673,42.34014],[8.71219,42.34962],[8.70658,42.34732],[8.68253,42.34833],[8.68193,42.35927],[8.66242,42.35877],[8.64858,42.36337],[8.63948,42.37358],[8.62772,42.37108],[8.61958,42.37155],[8.61732,42.3748],[8.60816,42.37267],[8.59746,42.36928],[8.57403,42.38146],[8.57632,42.38342],[8.5811,42.38195],[8.5847,42.38243],[8.58445,42.38489],[8.5886,42.38378],[8.59494,42.38171],[8.60055,42.38333],[8.60337,42.38578],[8.60937,42.38715],[8.60761,42.39333],[8.60291,42.39585],[8.60218,42.40003],[8.60511,42.40145],[8.61095,42.40301],[8.61115,42.40495],[8.60177,42.40804],[8.60248,42.40993],[8.60826,42.41135],[8.60543,42.41409],[8.60681,42.41627],[8.61126,42.41602],[8.62007,42.41727],[8.62236,42.42131],[8.63031,42.42068],[8.64443,42.4161],[8.6435,42.41389],[8.65143,42.41315],[8.6584,42.41935],[8.6629,42.42916],[8.66021,42.43535],[8.66248,42.44131]]]]},"properties":{"ID":"215","id":"215","NOM_MASSIF":"FANGO","dept":"20"}},{"type":"Feature","id":26,"geometry":{"type":"MultiPolygon","coordinates":[[[[8.70856,42.23127],[8.70259,42.23131],[8.69838,42.22866],[8.69544,42.22739],[8.69253,42.22806],[8.68944,42.22581],[8.6881,42.22299],[8.66791,42.2303],[8.66392,42.23239],[8.65608,42.23472],[8.65318,42.23802],[8.6525,42.23899],[8.65178,42.23984],[8.65089,42.24045],[8.64939,42.24115],[8.64876,42.24109],[8.64849,42.24098],[8.64777,42.24105],[8.6468,42.2411],[8.63146,42.24129],[8.63147,42.24128],[8.63123,42.24133],[8.63114,42.24166],[8.63077,42.24181],[8.63011,42.24205],[8.62998,42.24211],[8.62966,42.24204],[8.62936,42.24201],[8.62908,42.24205],[8.62891,42.24198],[8.62877,42.24202],[8.62858,42.24217],[8.62792,42.24287],[8.62761,42.24307],[8.62696,42.24316],[8.62679,42.24336],[8.62653,42.2434],[8.62653,42.24354],[8.62617,42.24374],[8.62556,42.24357],[8.62508,42.24319],[8.62463,42.24293],[8.62376,42.24287],[8.62287,42.24331],[8.62226,42.24397],[8.6215,42.24466],[8.62106,42.24476],[8.62034,42.24416],[8.62006,42.24384],[8.61945,42.24352],[8.61878,42.24339],[8.61887,42.24289],[8.61977,42.24183],[8.61887,42.24155],[8.61812,42.24116],[8.6177,42.24101],[8.6172,42.24094],[8.61688,42.24095],[8.61653,42.24082],[8.61583,42.24038],[8.61508,42.24044],[8.61465,42.24006],[8.6144,42.23948],[8.61416,42.23894],[8.61345,42.23911],[8.61262,42.23939],[8.61188,42.23961],[8.61134,42.23993],[8.61111,42.24033],[8.61085,42.24066],[8.61036,42.24072],[8.60954,42.24065],[8.60912,42.24063],[8.60836,42.24096],[8.60804,42.241],[8.60753,42.24091],[8.60684,42.24025],[8.60598,42.24032],[8.60469,42.24067],[8.60403,42.24086],[8.60335,42.24099],[8.60276,42.24134],[8.60254,42.24155],[8.60247,42.2418],[8.60198,42.24215],[8.60122,42.24221],[8.60122,42.24222],[8.60103,42.2425],[8.60084,42.24267],[8.60048,42.24268],[8.59939,42.24188],[8.5996,42.24141],[8.59918,42.24104],[8.59823,42.24073],[8.59761,42.24041],[8.5956,42.24012],[8.59532,42.23996],[8.59507,42.23976],[8.59484,42.23967],[8.59461,42.23984],[8.59443,42.24004],[8.59396,42.2401],[8.59325,42.24011],[8.59261,42.24005],[8.5915,42.23963],[8.5905,42.23942],[8.58866,42.23836],[8.58758,42.23816],[8.5852,42.23784],[8.58281,42.23765],[8.58284,42.23575],[8.58277,42.23415],[8.58337,42.23295],[8.58158,42.23229],[8.58208,42.23091],[8.58055,42.22999],[8.57931,42.22972],[8.57823,42.22923],[8.57774,42.22863],[8.57674,42.22844],[8.57531,42.22793],[8.57434,42.2279],[8.5738,42.22784],[8.57297,42.22815],[8.5727,42.22842],[8.57312,42.22879],[8.57275,42.22871],[8.57272,42.22883],[8.57288,42.22913],[8.57231,42.22875],[8.5722,42.22891],[8.57188,42.22895],[8.57177,42.22884],[8.57146,42.22905],[8.57106,42.22938],[8.57085,42.22933],[8.57052,42.22948],[8.57054,42.22973],[8.57069,42.22991],[8.57086,42.2301],[8.57049,42.22996],[8.57035,42.23005],[8.57037,42.23026],[8.57015,42.23047],[8.56996,42.2307],[8.5698,42.23077],[8.56946,42.23082],[8.56925,42.23078],[8.56899,42.23052],[8.56873,42.23037],[8.5685,42.23029],[8.56835,42.23048],[8.56839,42.23059],[8.56823,42.23056],[8.56791,42.23046],[8.56772,42.23015],[8.56755,42.23007],[8.56747,42.2302],[8.56724,42.23019],[8.56702,42.23012],[8.56687,42.23043],[8.56673,42.2304],[8.5668,42.23003],[8.56671,42.22998],[8.56634,42.22998],[8.56645,42.23024],[8.56628,42.23026],[8.56592,42.23003],[8.56556,42.22985],[8.56485,42.2297],[8.56517,42.23001],[8.5647,42.23007],[8.56509,42.23027],[8.56448,42.23025],[8.56436,42.23035],[8.56406,42.23036],[8.56379,42.23017],[8.56341,42.23014],[8.56296,42.23024],[8.56264,42.23033],[8.56235,42.23056],[8.56218,42.23042],[8.56221,42.2307],[8.56234,42.23093],[8.56197,42.23081],[8.56205,42.23097],[8.56197,42.23129],[8.56201,42.23184],[8.56193,42.23208],[8.5616,42.2318],[8.56139,42.23183],[8.56152,42.23208],[8.56124,42.23201],[8.56098,42.23219],[8.56077,42.23194],[8.56063,42.23212],[8.56051,42.23234],[8.56026,42.2324],[8.56002,42.2321],[8.56005,42.23153],[8.56003,42.23128],[8.5595,42.23132],[8.55917,42.23117],[8.55902,42.23102],[8.5591,42.23083],[8.55899,42.23055],[8.55864,42.23045],[8.55838,42.23036],[8.55795,42.23027],[8.55818,42.23006],[8.55801,42.22982],[8.55789,42.22964],[8.55762,42.22952],[8.55749,42.22944],[8.55734,42.22922],[8.55748,42.22887],[8.5577,42.22855],[8.5578,42.22832],[8.55767,42.22818],[8.55737,42.22828],[8.55718,42.22833],[8.55694,42.22833],[8.55704,42.22812],[8.557,42.2278],[8.55654,42.22819],[8.5566,42.22797],[8.55645,42.22783],[8.55623,42.2278],[8.55602,42.22778],[8.55574,42.22795],[8.55545,42.2278],[8.5554,42.22759],[8.55511,42.22745],[8.55494,42.22759],[8.55481,42.22777],[8.55471,42.22763],[8.55474,42.22725],[8.5546,42.22714],[8.55431,42.22709],[8.55411,42.22688],[8.55391,42.22679],[8.55397,42.22662],[8.55361,42.22662],[8.55321,42.22674],[8.55322,42.22704],[8.55335,42.22727],[8.55311,42.22747],[8.55286,42.22733],[8.5526,42.2274],[8.55247,42.22734],[8.55227,42.22725],[8.55211,42.22731],[8.55186,42.22733],[8.5517,42.22735],[8.55164,42.22754],[8.55173,42.22779],[8.55148,42.22779],[8.55139,42.22759],[8.55112,42.22758],[8.55098,42.2277],[8.55064,42.22772],[8.55061,42.22788],[8.55049,42.22795],[8.55026,42.22815],[8.54988,42.22817],[8.54937,42.22821],[8.54925,42.22834],[8.54939,42.22846],[8.54982,42.22864],[8.54912,42.22862],[8.54902,42.22877],[8.54863,42.22871],[8.54814,42.2287],[8.54787,42.22883],[8.54757,42.22904],[8.54761,42.22923],[8.5479,42.22932],[8.54762,42.22945],[8.5476,42.22975],[8.54822,42.22986],[8.54847,42.22997],[8.54799,42.23019],[8.54791,42.23044],[8.54855,42.23068],[8.54806,42.23075],[8.54816,42.23099],[8.54831,42.2312],[8.5488,42.23144],[8.54902,42.23164],[8.54914,42.23179],[8.54873,42.23181],[8.54771,42.23162],[8.54678,42.23162],[8.54651,42.23159],[8.5464,42.23159],[8.54639,42.23168],[8.54655,42.23177],[8.54646,42.23195],[8.54622,42.232],[8.54623,42.23217],[8.54595,42.23205],[8.54553,42.23208],[8.545,42.23211],[8.54469,42.2322],[8.54442,42.2322],[8.54429,42.23226],[8.54475,42.23254],[8.54461,42.23264],[8.54423,42.23269],[8.54411,42.23279],[8.54463,42.23293],[8.54542,42.23303],[8.54544,42.23321],[8.54528,42.23324],[8.54528,42.2334],[8.54524,42.23356],[8.54539,42.23387],[8.54497,42.23355],[8.54465,42.23361],[8.54452,42.23332],[8.54419,42.23322],[8.5439,42.23346],[8.54365,42.23331],[8.54329,42.23332],[8.54309,42.2335],[8.54324,42.2337],[8.54305,42.23379],[8.54254,42.23377],[8.54261,42.23407],[8.54268,42.23436],[8.54294,42.23447],[8.54355,42.23449],[8.54431,42.23507],[8.54432,42.23522],[8.544,42.23522],[8.54406,42.23538],[8.54387,42.2356],[8.5439,42.23577],[8.54441,42.23623],[8.54415,42.23643],[8.54375,42.23618],[8.54338,42.23588],[8.54305,42.23579],[8.54293,42.2357],[8.54268,42.23535],[8.54215,42.23505],[8.54167,42.23478],[8.54102,42.23466],[8.54067,42.23465],[8.54043,42.23476],[8.54012,42.23483],[8.54002,42.235],[8.54014,42.23514],[8.54018,42.23549],[8.54029,42.23558],[8.54037,42.23579],[8.54007,42.23582],[8.53957,42.23588],[8.53967,42.23707],[8.54002,42.23685],[8.54017,42.23692],[8.53988,42.23724],[8.53997,42.23738],[8.54045,42.23747],[8.54077,42.23735],[8.54126,42.23732],[8.54149,42.23714],[8.54136,42.23696],[8.54178,42.23695],[8.54193,42.23714],[8.5419,42.23726],[8.54166,42.23743],[8.54174,42.23785],[8.54235,42.23781],[8.54249,42.23811],[8.54279,42.23824],[8.54333,42.23811],[8.54387,42.23801],[8.54397,42.23833],[8.54364,42.23849],[8.54355,42.23877],[8.5439,42.23898],[8.54474,42.2391],[8.5451,42.23936],[8.54538,42.23963],[8.54601,42.23963],[8.54657,42.23969],[8.5467,42.24022],[8.54657,42.24057],[8.54728,42.24047],[8.54736,42.23997],[8.54706,42.23954],[8.54668,42.23903],[8.54699,42.23873],[8.54737,42.23874],[8.54791,42.23912],[8.54841,42.23899],[8.54839,42.23928],[8.54889,42.23952],[8.54881,42.23983],[8.5486,42.24018],[8.54891,42.2404],[8.54922,42.24036],[8.54966,42.24022],[8.54979,42.23994],[8.54932,42.23971],[8.54975,42.23972],[8.54972,42.23946],[8.55007,42.23942],[8.55022,42.23887],[8.55049,42.23891],[8.55096,42.23895],[8.55128,42.23892],[8.5514,42.23908],[8.55166,42.23911],[8.55168,42.23894],[8.55183,42.2388],[8.55191,42.23866],[8.5521,42.23862],[8.55205,42.23829],[8.55232,42.23836],[8.55251,42.2383],[8.5528,42.23838],[8.55284,42.2381],[8.5529,42.23791],[8.55322,42.23792],[8.55371,42.23737],[8.55399,42.23706],[8.55442,42.23713],[8.5551,42.23689],[8.55563,42.23639],[8.55586,42.236],[8.55626,42.23573],[8.55668,42.23563],[8.55714,42.23566],[8.55732,42.23573],[8.55731,42.23605],[8.55762,42.23612],[8.55777,42.23603],[8.55786,42.23563],[8.55819,42.23549],[8.55844,42.23549],[8.55892,42.23562],[8.55976,42.23601],[8.56078,42.2365],[8.56098,42.23683],[8.56149,42.2369],[8.56161,42.23718],[8.56109,42.23727],[8.56106,42.23742],[8.56189,42.23754],[8.56236,42.23751],[8.56247,42.23769],[8.56249,42.23798],[8.56248,42.23817],[8.56259,42.23833],[8.56301,42.23836],[8.56344,42.23818],[8.56365,42.23798],[8.56426,42.23784],[8.5649,42.23789],[8.56542,42.23798],[8.56579,42.23843],[8.56632,42.23866],[8.56657,42.23879],[8.56682,42.23888],[8.56727,42.23898],[8.56739,42.23885],[8.56808,42.23913],[8.56858,42.2393],[8.56917,42.23915],[8.56931,42.23898],[8.56985,42.23887],[8.57027,42.23878],[8.57078,42.23879],[8.57113,42.23869],[8.57161,42.23869],[8.57228,42.23866],[8.57279,42.23849],[8.57314,42.2383],[8.57332,42.2386],[8.57353,42.2389],[8.5737,42.23923],[8.57402,42.23957],[8.57405,42.23982],[8.57428,42.24],[8.5746,42.23998],[8.57479,42.23967],[8.57519,42.23984],[8.57566,42.23992],[8.57624,42.23999],[8.57629,42.24011],[8.57648,42.24044],[8.57672,42.2407],[8.57683,42.24087],[8.57693,42.2411],[8.57681,42.24138],[8.57699,42.24163],[8.57681,42.24173],[8.57667,42.24211],[8.57667,42.24231],[8.57637,42.24253],[8.57639,42.24285],[8.57638,42.24307],[8.57631,42.24316],[8.57614,42.24317],[8.5758,42.24322],[8.57567,42.24354],[8.57583,42.24391],[8.57621,42.24395],[8.5766,42.24403],[8.57687,42.24376],[8.57709,42.24344],[8.57707,42.24332],[8.57705,42.24311],[8.57729,42.24289],[8.57821,42.24301],[8.57849,42.2432],[8.57822,42.24367],[8.57838,42.2439],[8.57832,42.24414],[8.57921,42.24409],[8.57949,42.244],[8.58002,42.24404],[8.58004,42.2442],[8.5799,42.24463],[8.5797,42.24487],[8.57974,42.24513],[8.58014,42.2453],[8.58067,42.24498],[8.58096,42.24446],[8.58081,42.24399],[8.58108,42.244],[8.58152,42.24417],[8.58206,42.244],[8.58241,42.24378],[8.58243,42.24353],[8.58234,42.24299],[8.58257,42.24298],[8.58285,42.24275],[8.58369,42.24287],[8.5834,42.24356],[8.58383,42.24374],[8.58404,42.2441],[8.58452,42.24426],[8.5855,42.24366],[8.58582,42.24369],[8.58615,42.24404],[8.58695,42.24415],[8.58723,42.24411],[8.58758,42.24429],[8.58775,42.2445],[8.58872,42.24446],[8.58891,42.24434],[8.58957,42.24434],[8.5904,42.24436],[8.59213,42.24473],[8.59324,42.24521],[8.59417,42.24579],[8.59399,42.24611],[8.59439,42.24683],[8.5946,42.24674],[8.59454,42.24718],[8.59504,42.24714],[8.59528,42.24685],[8.5955,42.24691],[8.59535,42.24722],[8.59572,42.24707],[8.59581,42.24693],[8.59614,42.24695],[8.59654,42.24728],[8.59768,42.2476],[8.598,42.24787],[8.59801,42.24833],[8.59827,42.24798],[8.59895,42.2481],[8.59862,42.2485],[8.59934,42.2481],[8.59958,42.24826],[8.59967,42.248],[8.60012,42.24832],[8.59987,42.24872],[8.60042,42.24856],[8.60056,42.24838],[8.60111,42.24847],[8.60093,42.24893],[8.60137,42.24876],[8.60166,42.24883],[8.6015,42.24913],[8.60187,42.24905],[8.60182,42.24921],[8.60218,42.24908],[8.6025,42.24912],[8.60254,42.24894],[8.60275,42.24922],[8.60297,42.249],[8.6037,42.24912],[8.6039,42.24901],[8.60388,42.24928],[8.60497,42.2493],[8.60542,42.24923],[8.60573,42.24948],[8.60542,42.24973],[8.60582,42.24964],[8.6059,42.24977],[8.60625,42.24981],[8.60648,42.24973],[8.60694,42.25003],[8.60741,42.25025],[8.60797,42.2503],[8.60863,42.25072],[8.60906,42.25085],[8.60972,42.25046],[8.61087,42.25143],[8.61018,42.25161],[8.61,42.2518],[8.61023,42.25196],[8.60974,42.25197],[8.60952,42.2522],[8.6096,42.25253],[8.6095,42.25283],[8.60938,42.25265],[8.60917,42.2529],[8.60866,42.25303],[8.60857,42.25332],[8.60904,42.25323],[8.60946,42.25333],[8.60983,42.25362],[8.61035,42.25357],[8.61045,42.25333],[8.61037,42.25313],[8.61086,42.25321],[8.61107,42.253],[8.61137,42.25295],[8.61127,42.25279],[8.61161,42.25254],[8.61159,42.25273],[8.61171,42.25289],[8.61204,42.25249],[8.61246,42.25282],[8.61284,42.25245],[8.61304,42.25274],[8.61345,42.25231],[8.61383,42.25246],[8.61383,42.25206],[8.6139,42.2518],[8.61415,42.25181],[8.6143,42.25168],[8.6147,42.2517],[8.61504,42.25186],[8.61517,42.25166],[8.61555,42.25191],[8.61581,42.25169],[8.61605,42.25195],[8.6171,42.25176],[8.61679,42.25206],[8.61737,42.25213],[8.61811,42.25208],[8.61827,42.25221],[8.61833,42.25237],[8.61806,42.25252],[8.61796,42.25274],[8.61752,42.25273],[8.61751,42.25305],[8.61734,42.25307],[8.61711,42.25329],[8.61709,42.25341],[8.61671,42.25343],[8.61664,42.25373],[8.61636,42.25352],[8.61606,42.25354],[8.61587,42.25387],[8.616,42.25437],[8.61577,42.2546],[8.61562,42.25499],[8.61637,42.25455],[8.61657,42.25465],[8.61666,42.25495],[8.61697,42.25494],[8.61667,42.25514],[8.61667,42.25517],[8.61669,42.25544],[8.61735,42.25549],[8.61765,42.2552],[8.61878,42.25475],[8.61899,42.25502],[8.61943,42.25474],[8.61953,42.2544],[8.62019,42.25462],[8.62015,42.25439],[8.62078,42.2543],[8.62083,42.25472],[8.62106,42.25491],[8.62139,42.25466],[8.6214,42.25432],[8.62177,42.25429],[8.62237,42.25385],[8.62268,42.25331],[8.62311,42.25327],[8.62357,42.25298],[8.6236,42.25266],[8.62403,42.25226],[8.62446,42.25225],[8.62508,42.25181],[8.62554,42.25105],[8.62509,42.25181],[8.62526,42.25173],[8.62557,42.25176],[8.62599,42.25156],[8.62636,42.25158],[8.62712,42.2519],[8.62707,42.25213],[8.62709,42.25239],[8.62747,42.25251],[8.62766,42.25264],[8.6281,42.25271],[8.62838,42.25256],[8.62887,42.25258],[8.62918,42.25265],[8.62919,42.25273],[8.62937,42.25273],[8.62961,42.25253],[8.63003,42.25251],[8.63009,42.25246],[8.63064,42.25248],[8.6311,42.25231],[8.63152,42.25229],[8.63159,42.25243],[8.63163,42.25265],[8.63157,42.2527],[8.6316,42.25297],[8.63178,42.25296],[8.63194,42.25272],[8.63316,42.25288],[8.63348,42.253],[8.63399,42.25275],[8.63411,42.25268],[8.63436,42.25267],[8.63473,42.25271],[8.63491,42.2527],[8.63504,42.25278],[8.63559,42.25275],[8.6359,42.25287],[8.6361,42.25298],[8.63646,42.25302],[8.63679,42.25328],[8.63704,42.25334],[8.63746,42.25328],[8.6384,42.25305],[8.63936,42.25299],[8.63962,42.25307],[8.63969,42.2532],[8.63973,42.25351],[8.63951,42.25375],[8.63954,42.25398],[8.63978,42.25401],[8.64039,42.25406],[8.64066,42.25432],[8.64068,42.25458],[8.6407,42.25481],[8.64048,42.25504],[8.64051,42.25522],[8.64075,42.25521],[8.64111,42.25515],[8.64123,42.25524],[8.64154,42.25531],[8.64138,42.25545],[8.64146,42.25559],[8.6417,42.25557],[8.64191,42.25588],[8.64181,42.25678],[8.64183,42.25691],[8.64259,42.25719],[8.64334,42.25742],[8.6439,42.25757],[8.64457,42.25754],[8.64561,42.25741],[8.64699,42.25749],[8.64794,42.25776],[8.64937,42.25767],[8.65004,42.25792],[8.65033,42.25816],[8.65028,42.25823],[8.65076,42.25862],[8.65131,42.25845],[8.65246,42.25847],[8.65358,42.2586],[8.6539,42.25881],[8.65402,42.25879],[8.65439,42.25867],[8.65543,42.25866],[8.65586,42.25872],[8.65627,42.25874],[8.65667,42.25892],[8.657,42.25938],[8.65712,42.25947],[8.65764,42.25949],[8.65805,42.2596],[8.65893,42.25969],[8.65986,42.25952],[8.66033,42.25924],[8.66102,42.25901],[8.66258,42.2589],[8.66565,42.25933],[8.66595,42.25948],[8.66621,42.25966],[8.66654,42.25981],[8.6669,42.2598],[8.66722,42.26003],[8.66741,42.26005],[8.66759,42.26034],[8.6681,42.2602],[8.6684,42.26039],[8.66891,42.26038],[8.66946,42.26072],[8.67,42.2608],[8.6702,42.26098],[8.67007,42.26124],[8.67037,42.26141],[8.67082,42.26139],[8.67069,42.26164],[8.67083,42.26176],[8.6714,42.26195],[8.67154,42.26227],[8.67167,42.26244],[8.67206,42.26223],[8.67226,42.26223],[8.67225,42.26247],[8.67254,42.26272],[8.67308,42.263],[8.67364,42.26303],[8.67396,42.26324],[8.67457,42.26326],[8.67508,42.26306],[8.67554,42.26307],[8.67577,42.26319],[8.67578,42.26267],[8.67595,42.26235],[8.67651,42.26203],[8.67736,42.26198],[8.67798,42.26211],[8.67835,42.26198],[8.67916,42.2622],[8.68006,42.2618],[8.68251,42.26071],[8.6831,42.26075],[8.68367,42.26097],[8.68544,42.26096],[8.68603,42.26088],[8.68663,42.26078],[8.68703,42.26059],[8.68769,42.26068],[8.6886,42.2599],[8.68899,42.25994],[8.68922,42.26011],[8.68938,42.26046],[8.69054,42.26097],[8.69674,42.25538],[8.7089,42.25018],[8.71782,42.25122],[8.72212,42.25243],[8.7245,42.2522],[8.72453,42.25161],[8.72472,42.25103],[8.72413,42.24992],[8.72422,42.2497],[8.72473,42.24955],[8.72515,42.24958],[8.72555,42.2497],[8.72602,42.24962],[8.72676,42.24917],[8.72719,42.24905],[8.72796,42.2492],[8.72899,42.24889],[8.72889,42.24861],[8.72659,42.2437],[8.72881,42.23999],[8.72243,42.2398],[8.7185,42.23763],[8.71581,42.23613],[8.70856,42.23127]]]]},"properties":{"ID":"207","id":"207","NOM_MASSIF":"PIANA","dept":"20"}},{"type":"Feature","id":27,"geometry":{"type":"MultiPolygon","coordinates":[[[[8.89776,42.06056],[8.88666,42.06145],[8.88643,42.0636],[8.88786,42.06637],[8.8897,42.06769],[8.89102,42.06815],[8.89547,42.07128],[8.89657,42.07233],[8.89924,42.07207],[8.90096,42.07154],[8.90204,42.07238],[8.90372,42.07282],[8.90494,42.07354],[8.90666,42.07381],[8.9077,42.07354],[8.90974,42.074],[8.91124,42.07487],[8.91252,42.0748],[8.91386,42.07477],[8.91487,42.07487],[8.91549,42.07537],[8.91663,42.07536],[8.91891,42.07554],[8.92089,42.07674],[8.9237,42.07786],[8.92612,42.08063],[8.92849,42.0816],[8.92932,42.08272],[8.93124,42.08345],[8.93377,42.08585],[8.93591,42.08609],[8.93776,42.0853],[8.93885,42.08561],[8.93962,42.08619],[8.94122,42.08658],[8.94218,42.08764],[8.9437,42.08792],[8.94448,42.08919],[8.9463,42.08956],[8.94878,42.08953],[8.95212,42.09156],[8.95444,42.09206],[8.9565,42.09279],[8.95706,42.0956],[8.95656,42.09684],[8.95698,42.09819],[8.95591,42.10085],[8.95748,42.10081],[8.95917,42.10013],[8.96011,42.10023],[8.96196,42.09949],[8.96644,42.10098],[8.97065,42.10253],[8.97191,42.10241],[8.97382,42.10288],[8.97523,42.10417],[8.97618,42.10443],[8.97749,42.10611],[8.97789,42.10851],[8.97949,42.10953],[8.9805,42.11106],[8.98249,42.11169],[8.98691,42.11397],[8.99253,42.11343],[8.99656,42.11393],[8.99811,42.1138],[9.00002,42.11294],[9.0021,42.11319],[9.00336,42.1129],[9.00594,42.10431],[9.01076,42.10038],[9.0069,42.09446],[9.007,42.08776],[8.99722,42.08312],[8.99735,42.07535],[8.9916,42.07243],[8.98012,42.07574],[8.97457,42.07482],[8.96673,42.07359],[8.96374,42.06793],[8.95493,42.06785],[8.94527,42.0712],[8.93924,42.07099],[8.93356,42.06632],[8.92461,42.06514],[8.9198,42.06486],[8.91274,42.0583],[8.90161,42.0592],[8.89776,42.06056]]]]},"properties":{"ID":"2012","id":"2012","NOM_MASSIF":"VERO-TAVERA -UCCIANI","dept":"20"}},{"type":"Feature","id":28,"geometry":{"type":"MultiPolygon","coordinates":[[[[8.77748,41.81393],[8.79225,41.81421],[8.80371,41.80937],[8.81313,41.80799],[8.82448,41.80595],[8.83,41.80144],[8.82157,41.79299],[8.80977,41.78667],[8.79931,41.78167],[8.78523,41.78024],[8.77899,41.77752],[8.77001,41.77942],[8.76099,41.78468],[8.7536,41.79041],[8.75263,41.80052],[8.75797,41.80609],[8.76343,41.80494],[8.77383,41.80938],[8.7762,41.81317],[8.77748,41.81393]]]]},"properties":{"ID":"2022","id":"2022","NOM_MASSIF":"COTI-CHIAVARI","dept":"20"}}]}