{"type":"FeatureCollection","features":[{"type":"Feature","id":0,"geometry":{"type":"MultiPolygon","coordinates":[[[[6.43742,43.79216],[6.43775,43.79228],[6.43703,43.79191],[6.43653,43.79183],[6.43622,43.79197],[6.43567,43.79204],[6.43489,43.79238],[6.4344,43.79245],[6.43439,43.79236],[6.4336,43.79185],[6.43284,43.79161],[6.43173,43.79165],[6.43124,43.7918],[6.43069,43.7919],[6.42985,43.79144],[6.42779,43.79048],[6.42653,43.79025],[6.4259,43.79001],[6.42508,43.78981],[6.42352,43.78973],[6.42298,43.79003],[6.42204,43.79014],[6.4215,43.79044],[6.42059,43.79064],[6.41948,43.79082],[6.41801,43.79119],[6.41633,43.7912],[6.4148,43.79157],[6.41443,43.79159],[6.41418,43.79061],[6.41295,43.77813],[6.41236,43.77671],[6.41215,43.77559],[6.41101,43.77427],[6.41105,43.77387],[6.4109,43.77274],[6.41063,43.77231],[6.41009,43.77188],[6.41026,43.7716],[6.41164,43.76988],[6.41338,43.76721],[6.41342,43.76594],[6.41369,43.76453],[6.4137,43.76282],[6.41348,43.76036],[6.41335,43.76023],[6.40941,43.75893],[6.40886,43.75835],[6.40743,43.75742],[6.40665,43.75682],[6.40756,43.75557],[6.40681,43.75208],[6.40655,43.75186],[6.40612,43.75187],[6.40539,43.75222],[6.40388,43.75273],[6.40296,43.75284],[6.40264,43.75277],[6.40165,43.75203],[6.40115,43.75192],[6.40087,43.75143],[6.4004,43.75095],[6.40001,43.75075],[6.39917,43.75014],[6.39875,43.74962],[6.39818,43.74936],[6.39738,43.74863],[6.39611,43.74823],[6.39559,43.74788],[6.39537,43.74748],[6.39504,43.74717],[6.39442,43.74626],[6.39399,43.74532],[6.39366,43.74507],[6.39352,43.74485],[6.39313,43.7445],[6.39279,43.74415],[6.39264,43.7437],[6.39203,43.74314],[6.39145,43.7419],[6.39128,43.74115],[6.39054,43.74026],[6.39033,43.74002],[6.39026,43.73996],[6.39013,43.73982],[6.38954,43.73931],[6.38887,43.73866],[6.3881,43.73828],[6.38697,43.73809],[6.38638,43.73771],[6.38592,43.73733],[6.38528,43.73703],[6.38506,43.73654],[6.38478,43.7361],[6.38451,43.73576],[6.38411,43.73541],[6.38354,43.73443],[6.38221,43.73482],[6.38172,43.73499],[6.38,43.73524],[6.37999,43.73524],[6.37959,43.73548],[6.37937,43.73603],[6.37939,43.7363],[6.37974,43.737],[6.37986,43.73768],[6.37972,43.73811],[6.37971,43.73831],[6.37957,43.73861],[6.37956,43.73868],[6.37953,43.73871],[6.37934,43.73913],[6.37888,43.73954],[6.37873,43.73972],[6.37886,43.73979],[6.37946,43.73999],[6.37951,43.74002],[6.38004,43.74041],[6.38006,43.74068],[6.38012,43.74073],[6.38021,43.74113],[6.37905,43.74221],[6.37859,43.74276],[6.37849,43.74682],[6.3786,43.74768],[6.37843,43.74881],[6.37821,43.74913],[6.3787,43.74996],[6.3787,43.74996],[6.37871,43.74997],[6.37871,43.74999],[6.37888,43.75069],[6.37873,43.75142],[6.37901,43.75271],[6.379,43.7532],[6.37906,43.75334],[6.37912,43.75415],[6.37928,43.75486],[6.37943,43.75607],[6.37928,43.75762],[6.37925,43.75772],[6.37916,43.75856],[6.37898,43.75889],[6.37918,43.75911],[6.37954,43.75967],[6.3796,43.75995],[6.37969,43.76007],[6.37972,43.76046],[6.37991,43.76128],[6.37986,43.76153],[6.37989,43.76173],[6.38029,43.76397],[6.38081,43.76538],[6.3811,43.76601],[6.38115,43.76628],[6.38118,43.76638],[6.38125,43.76687],[6.3813,43.76713],[6.38156,43.76789],[6.38202,43.76848],[6.3821,43.76857],[6.38226,43.76876],[6.38325,43.76941],[6.38366,43.76985],[6.38412,43.77104],[6.3845,43.77131],[6.38519,43.77138],[6.38588,43.77153],[6.38633,43.77178],[6.38718,43.77215],[6.38751,43.77255],[6.38852,43.77355],[6.38856,43.77432],[6.38884,43.77485],[6.38979,43.77589],[6.38989,43.77638],[6.38993,43.77655],[6.39014,43.77708],[6.39052,43.7774],[6.39116,43.77769],[6.39136,43.77796],[6.39136,43.778],[6.39136,43.778],[6.39152,43.77858],[6.39099,43.77905],[6.391,43.77911],[6.39129,43.77963],[6.39174,43.77996],[6.39225,43.78094],[6.39264,43.78124],[6.39274,43.78169],[6.39257,43.78202],[6.39253,43.78229],[6.39274,43.78268],[6.39276,43.78313],[6.39294,43.78389],[6.39322,43.78433],[6.39353,43.78513],[6.39393,43.78565],[6.39499,43.78644],[6.39553,43.78704],[6.39568,43.78769],[6.39599,43.78855],[6.39599,43.78857],[6.39626,43.78877],[6.39634,43.78908],[6.39608,43.78909],[6.3963,43.78931],[6.39688,43.78965],[6.39989,43.79004],[6.40066,43.79046],[6.40122,43.79044],[6.40157,43.79006],[6.40155,43.78984],[6.40168,43.78975],[6.40211,43.78969],[6.40401,43.79021],[6.40573,43.78992],[6.40665,43.78966],[6.4069,43.7897],[6.40716,43.78995],[6.40762,43.79112],[6.40816,43.79173],[6.40953,43.79258],[6.41003,43.79374],[6.41023,43.79391],[6.41142,43.7949],[6.4117,43.79538],[6.4126,43.7958],[6.41308,43.79569],[6.41309,43.79569],[6.41352,43.79563],[6.41456,43.79537],[6.41516,43.79508],[6.416,43.79442],[6.41623,43.79419],[6.41677,43.79394],[6.4172,43.79384],[6.41782,43.79381],[6.41824,43.7937],[6.41891,43.79341],[6.41986,43.79292],[6.42231,43.7914],[6.42243,43.79122],[6.42355,43.7905],[6.42419,43.79048],[6.42488,43.79059],[6.42754,43.7913],[6.42892,43.79148],[6.4302,43.79206],[6.43149,43.79178],[6.43211,43.79177],[6.43255,43.79184],[6.43301,43.79214],[6.4332,43.79227],[6.43321,43.79228],[6.43366,43.79261],[6.43453,43.79267],[6.43612,43.79225],[6.43667,43.79219],[6.43742,43.79216]]]]},"properties":{"ID":"41","id":"41","NOM_MASSIF":"ROUGON","dept":"04"}},{"type":"Feature","id":1,"geometry":{"type":"MultiPolygon","coordinates":[[[[6.55176,43.85819],[6.5521,43.85849],[6.55257,43.85868],[6.55228,43.85848],[6.552,43.858],[6.55119,43.85708],[6.54969,43.85614],[6.54913,43.85526],[6.54893,43.85504],[6.54725,43.85244],[6.54665,43.85103],[6.54588,43.8498],[6.54555,43.84945],[6.54418,43.84878],[6.54411,43.84855],[6.54429,43.84841],[6.54503,43.84833],[6.54641,43.84856],[6.54978,43.84843],[6.55097,43.84857],[6.55463,43.84937],[6.55547,43.84976],[6.55747,43.84981],[6.55797,43.84826],[6.55789,43.84705],[6.55723,43.84293],[6.55692,43.84226],[6.55647,43.84193],[6.55627,43.84175],[6.55484,43.84094],[6.55295,43.8407],[6.55194,43.84043],[6.55097,43.83997],[6.55024,43.83931],[6.54982,43.83866],[6.54979,43.83807],[6.54992,43.83735],[6.55037,43.83674],[6.5504,43.83629],[6.54798,43.83637],[6.54729,43.83623],[6.54639,43.83576],[6.54556,43.83562],[6.54473,43.83528],[6.54373,43.83527],[6.54377,43.83491],[6.54358,43.83482],[6.54259,43.83419],[6.542,43.83367],[6.54121,43.83321],[6.54082,43.83282],[6.53755,43.83064],[6.53659,43.83021],[6.53477,43.82907],[6.53114,43.82628],[6.53036,43.82534],[6.53071,43.82487],[6.5317,43.82442],[6.53182,43.82419],[6.53175,43.82377],[6.53242,43.82367],[6.53378,43.82307],[6.53655,43.82236],[6.53738,43.82194],[6.53846,43.82155],[6.54109,43.82077],[6.54261,43.82022],[6.54297,43.82003],[6.54375,43.81968],[6.54405,43.81962],[6.54769,43.82007],[6.55252,43.82048],[6.55458,43.82055],[6.55842,43.82035],[6.55993,43.82076],[6.5612,43.82078],[6.56176,43.82117],[6.56173,43.82149],[6.56207,43.82139],[6.56211,43.82106],[6.56185,43.82073],[6.56192,43.82044],[6.56168,43.82021],[6.56212,43.8199],[6.56176,43.81963],[6.56228,43.81935],[6.56321,43.81779],[6.56358,43.81745],[6.56533,43.81689],[6.56673,43.81591],[6.56877,43.81429],[6.57102,43.81255],[6.57184,43.81186],[6.57133,43.8115],[6.57169,43.81094],[6.57243,43.8095],[6.5721,43.80932],[6.57161,43.80882],[6.57173,43.80819],[6.57204,43.80791],[6.57232,43.80754],[6.57299,43.80729],[6.57352,43.8069],[6.57475,43.80488],[6.57511,43.80468],[6.57558,43.8043],[6.57574,43.80412],[6.57741,43.80288],[6.57819,43.80253],[6.57906,43.80161],[6.57988,43.80094],[6.58079,43.80055],[6.58126,43.80025],[6.5813,43.79994],[6.58096,43.7987],[6.58118,43.79815],[6.58091,43.79784],[6.58063,43.7974],[6.58021,43.79687],[6.57951,43.79655],[6.5788,43.79611],[6.57867,43.79607],[6.57825,43.79546],[6.57764,43.79494],[6.5765,43.79449],[6.57519,43.79377],[6.57362,43.79248],[6.57308,43.79183],[6.57238,43.79157],[6.57157,43.79152],[6.56957,43.79155],[6.56841,43.79114],[6.56817,43.7912],[6.56795,43.79152],[6.56752,43.79153],[6.5672,43.79141],[6.5654,43.78981],[6.56417,43.78814],[6.56377,43.78779],[6.56289,43.78684],[6.56237,43.7866],[6.56143,43.78636],[6.56066,43.78607],[6.56032,43.78572],[6.56023,43.78527],[6.55995,43.78483],[6.5589,43.7842],[6.55796,43.78397],[6.55659,43.78401],[6.55586,43.78421],[6.55524,43.78424],[6.55486,43.78412],[6.55453,43.78377],[6.5542,43.78356],[6.55407,43.78343],[6.55375,43.78335],[6.55271,43.78276],[6.55145,43.78164],[6.54987,43.78034],[6.54979,43.78003],[6.54994,43.77966],[6.55024,43.77934],[6.55023,43.7792],[6.55035,43.77885],[6.5496,43.77858],[6.5498,43.77838],[6.54931,43.77783],[6.54968,43.77747],[6.54983,43.77728],[6.54861,43.77735],[6.54816,43.77682],[6.54729,43.77682],[6.54652,43.77618],[6.54652,43.77555],[6.54568,43.7753],[6.54484,43.77534],[6.54409,43.77554],[6.54215,43.7755],[6.54153,43.77574],[6.54206,43.77599],[6.54226,43.77686],[6.54193,43.77727],[6.54215,43.77799],[6.5418,43.77799],[6.54176,43.77831],[6.542,43.77853],[6.5421,43.77892],[6.54266,43.77911],[6.54286,43.77966],[6.54329,43.77994],[6.54342,43.78035],[6.54381,43.78041],[6.54407,43.7807],[6.54438,43.78082],[6.54447,43.78143],[6.54484,43.78192],[6.54538,43.78209],[6.54597,43.78237],[6.54671,43.78307],[6.54673,43.78361],[6.54664,43.78397],[6.54635,43.78421],[6.54606,43.78462],[6.5461,43.78498],[6.54601,43.78557],[6.54564,43.78558],[6.54509,43.78575],[6.54456,43.78626],[6.54382,43.78629],[6.5437,43.78643],[6.54336,43.78775],[6.54337,43.79058],[6.54313,43.79141],[6.54241,43.79188],[6.54054,43.7937],[6.54031,43.79385],[6.53919,43.79479],[6.53832,43.79573],[6.53728,43.79675],[6.53571,43.79749],[6.53489,43.79811],[6.53381,43.7996],[6.53316,43.80011],[6.531,43.80131],[6.53025,43.80197],[6.52986,43.8028],[6.52762,43.80451],[6.52642,43.80518],[6.52476,43.80637],[6.52107,43.80781],[6.51809,43.80873],[6.51728,43.80876],[6.51742,43.80813],[6.51739,43.80678],[6.5164,43.80609],[6.5152,43.80496],[6.51258,43.80285],[6.51136,43.80249],[6.5111,43.80228],[6.51096,43.80192],[6.50944,43.80072],[6.5086,43.80047],[6.50748,43.80038],[6.50762,43.79966],[6.50577,43.79985],[6.50514,43.79979],[6.50306,43.79855],[6.50134,43.79799],[6.50037,43.79744],[6.49869,43.7966],[6.49779,43.79605],[6.49705,43.79531],[6.49614,43.79476],[6.49589,43.79472],[6.49537,43.79456],[6.49375,43.79349],[6.49319,43.79347],[6.49227,43.79364],[6.49109,43.79363],[6.48911,43.79312],[6.48841,43.79284],[6.48769,43.79223],[6.4869,43.79171],[6.48552,43.79141],[6.48282,43.79105],[6.48208,43.79107],[6.48178,43.79136],[6.48081,43.7927],[6.48069,43.79275],[6.47993,43.79251],[6.47974,43.79252],[6.47916,43.79299],[6.47895,43.79367],[6.47833,43.79442],[6.47806,43.79497],[6.47764,43.79543],[6.47743,43.79584],[6.47678,43.79643],[6.47672,43.7965],[6.47491,43.79815],[6.47473,43.7982],[6.47459,43.79802],[6.47329,43.79703],[6.47245,43.79684],[6.47127,43.79679],[6.47078,43.79699],[6.46986,43.79873],[6.46961,43.7988],[6.46929,43.79867],[6.46836,43.79789],[6.46755,43.79787],[6.46731,43.79797],[6.46682,43.79799],[6.46648,43.79764],[6.46623,43.79756],[6.46597,43.79734],[6.46594,43.79703],[6.46579,43.79672],[6.46498,43.79666],[6.46427,43.79614],[6.46405,43.79588],[6.46342,43.79568],[6.46334,43.79536],[6.46307,43.79501],[6.46255,43.79486],[6.46202,43.79442],[6.46145,43.79423],[6.46093,43.79379],[6.46047,43.79366],[6.46018,43.79381],[6.45981,43.79387],[6.45949,43.7937],[6.45873,43.79355],[6.45827,43.7933],[6.45683,43.79313],[6.45654,43.79341],[6.45623,43.79346],[6.45604,43.79328],[6.45572,43.79326],[6.45538,43.79358],[6.45483,43.79364],[6.45413,43.79345],[6.45363,43.79347],[6.45302,43.79376],[6.4519,43.79385],[6.45171,43.79381],[6.45079,43.79389],[6.4506,43.7938],[6.4504,43.79358],[6.4502,43.79349],[6.44996,43.79365],[6.44935,43.79371],[6.44928,43.79362],[6.44902,43.79345],[6.44803,43.79358],[6.44731,43.79401],[6.44584,43.79411],[6.44529,43.7945],[6.44503,43.79513],[6.44468,43.79551],[6.44425,43.79638],[6.44352,43.79667],[6.44278,43.79678],[6.44221,43.79663],[6.44171,43.79664],[6.44081,43.79718],[6.4402,43.79724],[6.43947,43.79759],[6.43881,43.79775],[6.43909,43.80008],[6.43889,43.80044],[6.43902,43.80098],[6.43876,43.80171],[6.43855,43.80212],[6.43835,43.80285],[6.43831,43.80329],[6.43831,43.80331],[6.43833,43.80338],[6.43852,43.80365],[6.4389,43.80388],[6.44103,43.80379],[6.44147,43.80391],[6.44149,43.80414],[6.4413,43.80449],[6.44116,43.80498],[6.4412,43.8055],[6.4411,43.80582],[6.44098,43.80586],[6.44098,43.80586],[6.44044,43.80616],[6.4399,43.8064],[6.43904,43.80657],[6.43868,43.80681],[6.43858,43.80725],[6.43863,43.80801],[6.43874,43.80856],[6.43848,43.80929],[6.43826,43.80966],[6.43719,43.81063],[6.4371,43.81105],[6.43687,43.81124],[6.43687,43.81124],[6.43683,43.8116],[6.43707,43.81227],[6.43797,43.81269],[6.43849,43.81312],[6.43846,43.81348],[6.43846,43.81348],[6.43846,43.8136],[6.43843,43.81493],[6.43847,43.81551],[6.43811,43.81579],[6.43764,43.81604],[6.43709,43.81628],[6.43686,43.81651],[6.43689,43.81696],[6.43705,43.81759],[6.43697,43.81818],[6.43644,43.81856],[6.43548,43.81909],[6.43482,43.81943],[6.43441,43.8198],[6.43398,43.82005],[6.43314,43.82044],[6.43247,43.82064],[6.43212,43.82092],[6.43226,43.82115],[6.43276,43.82117],[6.43331,43.82106],[6.43352,43.82132],[6.43374,43.8219],[6.43353,43.82245],[6.43288,43.82288],[6.43191,43.82332],[6.43114,43.82384],[6.4308,43.82435],[6.43083,43.82484],[6.43107,43.82551],[6.43097,43.82583],[6.4311,43.82587],[6.43126,43.82645],[6.43115,43.82686],[6.43072,43.82683],[6.42989,43.82659],[6.42865,43.82655],[6.42809,43.82665],[6.4278,43.82684],[6.42749,43.8269],[6.42687,43.82696],[6.42652,43.82725],[6.42648,43.82752],[6.42714,43.82813],[6.4281,43.8287],[6.42992,43.82979],[6.43006,43.82996],[6.43064,43.83025],[6.43084,43.83048],[6.43123,43.83069],[6.4323,43.83083],[6.43399,43.8309],[6.43592,43.83178],[6.43679,43.83283],[6.43799,43.83305],[6.43862,43.83316],[6.43949,43.83314],[6.44079,43.83296],[6.44134,43.83275],[6.44199,43.83224],[6.44253,43.83114],[6.44288,43.83076],[6.44318,43.83057],[6.44373,43.83041],[6.44443,43.83061],[6.44504,43.83131],[6.44548,43.83157],[6.44701,43.83192],[6.44826,43.83196],[6.44953,43.83151],[6.44989,43.83136],[6.45065,43.83157],[6.45128,43.83163],[6.45222,43.83088],[6.45268,43.83014],[6.45297,43.8299],[6.4534,43.8298],[6.45433,43.82981],[6.45505,43.83032],[6.45523,43.83022],[6.45657,43.82972],[6.45824,43.82881],[6.45866,43.82848],[6.45883,43.82816],[6.45883,43.82735],[6.45905,43.82703],[6.45954,43.82678],[6.45997,43.82676],[6.46065,43.82678],[6.46191,43.82701],[6.46261,43.82721],[6.46313,43.82746],[6.46386,43.82816],[6.46443,43.82832],[6.46512,43.82833],[6.46657,43.82783],[6.46767,43.82729],[6.46822,43.82727],[6.46866,43.82725],[6.46929,43.82742],[6.46948,43.8275],[6.47045,43.82791],[6.47133,43.82798],[6.47185,43.82803],[6.47201,43.82803],[6.47283,43.82818],[6.47384,43.82843],[6.47565,43.82888],[6.47622,43.82902],[6.47672,43.82931],[6.47751,43.82933],[6.47771,43.82941],[6.47803,43.82958],[6.47843,43.83001],[6.479,43.83017],[6.47957,43.83028],[6.48226,43.83118],[6.48291,43.8317],[6.48318,43.83205],[6.48341,43.83267],[6.48344,43.83307],[6.48329,43.83353],[6.48335,43.83366],[6.48367,43.83383],[6.48437,43.83403],[6.48513,43.83405],[6.4855,43.83395],[6.48691,43.83367],[6.48769,43.83337],[6.48881,43.83251],[6.48912,43.83246],[6.48961,43.83244],[6.49,43.8326],[6.49105,43.83338],[6.49157,43.83368],[6.49233,43.83383],[6.49294,43.83363],[6.49374,43.8336],[6.49438,43.83384],[6.49549,43.83462],[6.49591,43.83514],[6.49677,43.83588],[6.49704,43.83613],[6.49783,43.83673],[6.49853,43.83703],[6.49892,43.83728],[6.49914,43.83768],[6.49932,43.8384],[6.50017,43.83908],[6.50154,43.83985],[6.50225,43.84045],[6.50283,43.84074],[6.50305,43.84119],[6.50338,43.84145],[6.50408,43.84169],[6.50562,43.84222],[6.50588,43.84239],[6.50832,43.84342],[6.50851,43.84356],[6.51139,43.84462],[6.51306,43.84533],[6.51414,43.84565],[6.51496,43.8458],[6.51637,43.84561],[6.51822,43.84519],[6.51835,43.84518],[6.52064,43.84428],[6.52196,43.8436],[6.52276,43.84326],[6.5238,43.84304],[6.5251,43.84304],[6.52542,43.84307],[6.52663,43.84348],[6.52763,43.84362],[6.52789,43.8437],[6.52887,43.84443],[6.52977,43.84471],[6.5309,43.84494],[6.5311,43.84502],[6.53341,43.84526],[6.53452,43.84508],[6.53496,43.84511],[6.53572,43.84535],[6.53611,43.84551],[6.53719,43.84584],[6.53823,43.84643],[6.54,43.84686],[6.54051,43.84702],[6.54112,43.84686],[6.54199,43.84688],[6.54269,43.84703],[6.54348,43.84768],[6.5435,43.84786],[6.54314,43.84814],[6.54316,43.8482],[6.54322,43.84836],[6.54432,43.84895],[6.54516,43.84938],[6.54545,43.84986],[6.54559,43.85017],[6.54569,43.85066],[6.54591,43.85106],[6.54637,43.85162],[6.54671,43.85197],[6.54817,43.85399],[6.5484,43.85457],[6.54867,43.85492],[6.54928,43.85561],[6.5497,43.85614],[6.55014,43.85648],[6.55073,43.85687],[6.55113,43.85722],[6.5514,43.85757],[6.55176,43.85819]]]]},"properties":{"ID":"44","id":"44","NOM_MASSIF":"CASTELLANE","dept":"04"}},{"type":"Feature","id":2,"geometry":{"type":"MultiPolygon","coordinates":[[[[5.84307,43.73513],[5.84378,43.73519],[5.84403,43.73527],[5.8441,43.7354],[5.84412,43.73572],[5.84469,43.73621],[5.84604,43.73673],[5.8462,43.73694],[5.84625,43.73701],[5.84637,43.73713],[5.84705,43.73779],[5.84811,43.73809],[5.84861,43.73823],[5.8514,43.73901],[5.85196,43.73914],[5.85279,43.73955],[5.85368,43.74001],[5.85441,43.74067],[5.85597,43.7417],[5.85679,43.74199],[5.85717,43.74207],[5.85835,43.74203],[5.85961,43.74232],[5.86279,43.74356],[5.86356,43.74408],[5.86396,43.74448],[5.86512,43.74516],[5.86601,43.74553],[5.8669,43.74587],[5.86724,43.7463],[5.86998,43.74757],[5.87068,43.74777],[5.87111,43.74776],[5.87222,43.74754],[5.87271,43.74748],[5.87338,43.74729],[5.87386,43.74701],[5.87423,43.74699],[5.87506,43.74733],[5.87622,43.7481],[5.87663,43.74858],[5.87723,43.74938],[5.87789,43.75003],[5.87953,43.75137],[5.88024,43.7518],[5.88139,43.75227],[5.88204,43.75238],[5.88245,43.75246],[5.88276,43.75249],[5.8849,43.75287],[5.88817,43.75363],[5.89122,43.75366],[5.89214,43.75356],[5.89345,43.75342],[5.89481,43.75342],[5.89512,43.75342],[5.89593,43.75343],[5.89802,43.75301],[5.89931,43.75288],[5.90478,43.75374],[5.90532,43.75377],[5.90296,43.75343],[5.90289,43.75334],[5.90319,43.75212],[5.90352,43.75143],[5.9044,43.74853],[5.90451,43.74821],[5.90489,43.74648],[5.905,43.74486],[5.9044,43.74231],[5.9045,43.74172],[5.90519,43.7408],[5.90536,43.74002],[5.90538,43.73994],[5.90565,43.73943],[5.90546,43.73836],[5.90498,43.73743],[5.90378,43.73611],[5.90327,43.73576],[5.90306,43.73542],[5.90295,43.73461],[5.90167,43.73419],[5.9016,43.73401],[5.90153,43.73289],[5.90121,43.73258],[5.90014,43.73226],[5.89907,43.73203],[5.89773,43.73157],[5.89567,43.73046],[5.89341,43.72896],[5.89321,43.72874],[5.89129,43.72749],[5.89007,43.72694],[5.88848,43.72641],[5.88675,43.72561],[5.88455,43.72391],[5.88318,43.72387],[5.88051,43.72395],[5.8782,43.7238],[5.87719,43.72348],[5.87626,43.72337],[5.87555,43.72316],[5.87493,43.72318],[5.87461,43.72292],[5.87353,43.72255],[5.87222,43.72241],[5.8713,43.72258],[5.87016,43.72343],[5.86924,43.72363],[5.86798,43.72421],[5.86693,43.72425],[5.86617,43.724],[5.86566,43.72375],[5.86489,43.72354],[5.86422,43.72361],[5.86336,43.72391],[5.86225,43.72412],[5.86113,43.72411],[5.85975,43.72379],[5.85862,43.72343],[5.85811,43.72331],[5.85725,43.72342],[5.85676,43.72357],[5.8562,43.72358],[5.85557,43.72334],[5.85453,43.7226],[5.85239,43.72001],[5.8514,43.71919],[5.85026,43.7186],[5.84904,43.71818],[5.8491,43.71908],[5.84955,43.71938],[5.84958,43.71974],[5.84947,43.72006],[5.84881,43.72044],[5.84873,43.72117],[5.84836,43.72235],[5.84843,43.72262],[5.84814,43.72375],[5.84797,43.72407],[5.84783,43.72479],[5.84771,43.72488],[5.84736,43.72548],[5.84682,43.72573],[5.84634,43.72606],[5.8461,43.7262],[5.84574,43.72648],[5.84552,43.72675],[5.84549,43.72734],[5.84571,43.72774],[5.84573,43.72819],[5.84465,43.72994],[5.84417,43.73125],[5.84355,43.73353],[5.84323,43.73439],[5.84307,43.73513]]]]},"properties":{"ID":"45","id":"45","NOM_MASSIF":"GREOUX-LES-BAINS","dept":"04"}},{"type":"Feature","id":3,"geometry":{"type":"MultiPolygon","coordinates":[[[[5.94283,43.73589],[5.94303,43.73582],[5.94358,43.73571],[5.94648,43.73534],[5.94759,43.73513],[5.94882,43.735],[5.95087,43.73498],[5.95634,43.73512],[5.95742,43.73549],[5.9623,43.73691],[5.96311,43.73693],[5.96414,43.73659],[5.96516,43.73597],[5.96567,43.73532],[5.96584,43.73487],[5.96595,43.73455],[5.96588,43.73355],[5.96565,43.73284],[5.96537,43.73226],[5.9653,43.73222],[5.96482,43.73143],[5.9646,43.73094],[5.96443,43.73027],[5.96444,43.72824],[5.96454,43.72571],[5.96458,43.72539],[5.96458,43.7254],[5.96427,43.72546],[5.96332,43.72512],[5.96268,43.72479],[5.96105,43.7224],[5.96041,43.7222],[5.9597,43.72182],[5.95905,43.7212],[5.95876,43.72072],[5.95782,43.71962],[5.95742,43.71901],[5.95723,43.71892],[5.95645,43.7194],[5.95373,43.72065],[5.95282,43.72081],[5.95152,43.72122],[5.95086,43.72155],[5.94711,43.7233],[5.94676,43.72354],[5.94616,43.72383],[5.94502,43.72449],[5.94457,43.72537],[5.94211,43.7267],[5.94048,43.72733],[5.94036,43.72752],[5.93965,43.72822],[5.93862,43.7296],[5.938,43.73057],[5.93801,43.73206],[5.93824,43.73268],[5.93883,43.7333],[5.94283,43.73589]]]]},"properties":{"ID":"42","id":"42","NOM_MASSIF":"ESPARRON-DE-VERDON","dept":"04"}},{"type":"Feature","id":4,"geometry":{"type":"MultiPolygon","coordinates":[[[[6.08325,43.73595],[6.08311,43.73637],[6.08331,43.73965],[6.08338,43.73995],[6.08351,43.74086],[6.08349,43.74136],[6.08331,43.74344],[6.08324,43.74439],[6.08418,43.74453],[6.08536,43.74454],[6.08593,43.74452],[6.08685,43.74444],[6.0876,43.74442],[6.08779,43.74446],[6.08865,43.74439],[6.0891,43.74425],[6.09053,43.74379],[6.09398,43.74317],[6.09534,43.74313],[6.09578,43.74316],[6.09604,43.74329],[6.09618,43.7436],[6.09646,43.74404],[6.09679,43.7443],[6.09755,43.74454],[6.0988,43.74473],[6.09994,43.745],[6.10087,43.74497],[6.10393,43.74446],[6.10427,43.74459],[6.10483,43.7448],[6.10571,43.74508],[6.10666,43.74532],[6.10735,43.74543],[6.1085,43.74571],[6.10889,43.74576],[6.10906,43.74578],[6.11086,43.74577],[6.1133,43.74609],[6.11455,43.74619],[6.11553,43.74593],[6.11588,43.74562],[6.11528,43.74598],[6.11474,43.74614],[6.11343,43.74608],[6.11243,43.74589],[6.11104,43.74567],[6.10875,43.74574],[6.10747,43.7452],[6.10683,43.74478],[6.10673,43.74446],[6.10696,43.74401],[6.10706,43.74351],[6.1065,43.74258],[6.10632,43.7416],[6.10554,43.74092],[6.10526,43.74025],[6.10448,43.74005],[6.1044,43.73962],[6.10444,43.73922],[6.10464,43.73902],[6.10412,43.73838],[6.10361,43.73722],[6.10287,43.73634],[6.10013,43.73427],[6.09794,43.733],[6.0974,43.73238],[6.09676,43.73123],[6.09641,43.73043],[6.09607,43.73009],[6.0953,43.72962],[6.09469,43.72991],[6.09384,43.73016],[6.0928,43.73019],[6.09228,43.73003],[6.09106,43.72935],[6.09062,43.72914],[6.0903,43.72897],[6.08957,43.72935],[6.08874,43.73006],[6.08824,43.73098],[6.08839,43.73223],[6.08828,43.7326],[6.08774,43.73293],[6.08661,43.73312],[6.08635,43.73318],[6.08591,43.73353],[6.08478,43.73515],[6.08418,43.73561],[6.08362,43.73577],[6.08327,43.73591],[6.08325,43.73595]]]]},"properties":{"ID":"43","id":"43","NOM_MASSIF":"MONTAGNAC-MONTPEZAT","dept":"04"}},{"type":"Feature","id":5,"geometry":{"type":"MultiPolygon","coordinates":[[[[5.98543,43.71395],[5.98586,43.71372],[5.98645,43.7133],[5.98692,43.71283],[5.98768,43.71218],[5.98798,43.71203],[5.98952,43.71166],[5.99064,43.71155],[5.99162,43.71147],[5.99303,43.7112],[5.99334,43.71118],[5.99521,43.71139],[5.99621,43.71146],[5.99732,43.71142],[5.99832,43.71125],[5.99988,43.71048],[6.00058,43.70987],[6.00202,43.70879],[6.00254,43.70832],[6.00296,43.70812],[6.00428,43.70827],[6.00535,43.70855],[6.00641,43.70869],[6.00713,43.70826],[6.00741,43.70785],[6.0075,43.70712],[6.00747,43.70474],[6.00746,43.70447],[6.00757,43.70429],[6.00822,43.70382],[6.00878,43.70366],[6.01124,43.7034],[6.01198,43.70324],[6.01295,43.70284],[6.01415,43.70231],[6.01445,43.70194],[6.01463,43.70184],[6.01598,43.70163],[6.01642,43.7017],[6.0184,43.70168],[6.01976,43.70154],[6.02025,43.70157],[6.0215,43.70172],[6.02259,43.70218],[6.02309,43.70229],[6.02377,43.70227],[6.02427,43.70217],[6.02516,43.7015],[6.02532,43.701],[6.02551,43.7001],[6.02553,43.69947],[6.02573,43.6986],[6.02584,43.69842],[6.02636,43.69782],[6.02731,43.69716],[6.02827,43.69658],[6.02942,43.69596],[6.02977,43.69563],[6.03004,43.69504],[6.0305,43.69448],[6.03116,43.6941],[6.03219,43.6938],[6.03306,43.69377],[6.03377,43.69398],[6.03445,43.69404],[6.03489,43.69416],[6.03602,43.6943],[6.03874,43.69521],[6.03925,43.69533],[6.04013,43.69552],[6.04127,43.69589],[6.04178,43.69618],[6.04223,43.69639],[6.0429,43.69659],[6.044,43.69678],[6.04511,43.6968],[6.04542,43.69683],[6.04794,43.69739],[6.04956,43.69751],[6.05063,43.69774],[6.05132,43.69786],[6.05227,43.69824],[6.05292,43.69871],[6.05317,43.69878],[6.05337,43.69883],[6.05402,43.6993],[6.05647,43.70016],[6.05655,43.70008],[6.05401,43.69916],[6.0535,43.69887],[6.05324,43.69875],[6.05226,43.69811],[6.05176,43.69789],[6.05156,43.69771],[6.04813,43.69729],[6.04585,43.69677],[6.04485,43.69659],[6.04125,43.69575],[6.03791,43.69465],[6.03613,43.69416],[6.03513,43.69407],[6.03458,43.69314],[6.03455,43.69264],[6.03528,43.69149],[6.03571,43.68931],[6.0358,43.68796],[6.03797,43.68172],[6.03903,43.67893],[6.03946,43.67874],[6.03945,43.67865],[6.03378,43.67631],[6.03295,43.6758],[6.03189,43.67484],[6.02966,43.67302],[6.02914,43.67255],[6.02785,43.67173],[6.02708,43.67135],[6.02199,43.66841],[6.02174,43.66828],[6.02062,43.66931],[6.02012,43.67004],[6.01954,43.6707],[6.01875,43.67126],[6.0181,43.67156],[6.01707,43.67207],[6.01631,43.67264],[6.01453,43.67306],[6.01356,43.67355],[6.01289,43.6737],[6.01161,43.67415],[6.01146,43.67452],[6.01134,43.67551],[6.01144,43.67641],[6.01142,43.67708],[6.01102,43.67755],[6.01053,43.6776],[6.0098,43.6779],[6.00928,43.67837],[6.00904,43.67851],[6.00802,43.67931],[6.00797,43.67954],[6.00813,43.68012],[6.00792,43.68274],[6.00772,43.68352],[6.00727,43.68429],[6.00683,43.68521],[6.00659,43.68535],[6.00625,43.68577],[6.00633,43.68636],[6.00631,43.68681],[6.00574,43.68763],[6.00501,43.68779],[6.00422,43.68809],[6.00315,43.68875],[6.00273,43.68926],[6.002,43.68941],[6.0017,43.68961],[6.00133,43.68962],[6.00078,43.68968],[6.00048,43.68991],[6.00038,43.69027],[6.00052,43.69041],[6.00066,43.69081],[6.00054,43.69095],[5.99931,43.69108],[5.99729,43.69164],[5.996,43.69191],[5.99516,43.69217],[5.99402,43.69283],[5.9926,43.694],[5.99139,43.69453],[5.99011,43.69484],[5.98794,43.69506],[5.98777,43.69542],[5.98764,43.69615],[5.9869,43.69837],[5.98614,43.70007],[5.98566,43.70125],[5.98562,43.70383],[5.9855,43.70595],[5.98527,43.70627],[5.98478,43.70736],[5.98437,43.70868],[5.98443,43.7098],[5.98473,43.71152],[5.9846,43.71233],[5.98476,43.71305],[5.9853,43.71374],[5.98543,43.71395]]]]},"properties":{"ID":"46","id":"46","NOM_MASSIF":"QUINSON","dept":"04"}}]}