{"type":"FeatureCollection","features":[{"type":"Feature","id":0,"geometry":{"type":"MultiPolygon","coordinates":[[[[7.30784,43.68831],[7.30754,43.68742],[7.30597,43.68588],[7.30532,43.68542],[7.3048,43.68516],[7.30402,43.68483],[7.29721,43.68614],[7.29403,43.68946],[7.29398,43.68955],[7.29331,43.69061],[7.29303,43.6908],[7.28953,43.69241],[7.28517,43.69432],[7.27685,43.69436],[7.27252,43.6945],[7.26529,43.69436],[7.26243,43.69426],[7.25985,43.69388],[7.25702,43.69332],[7.25528,43.69297],[7.25382,43.69263],[7.24794,43.69105],[7.24382,43.68938],[7.24189,43.68848],[7.24065,43.68777],[7.23794,43.68599],[7.23279,43.68148],[7.23252,43.68114],[7.23141,43.67965],[7.23064,43.67855],[7.23047,43.67806],[7.22922,43.67127],[7.22972,43.66746],[7.22588,43.66226],[7.22224,43.65911],[7.21826,43.6556],[7.21435,43.65337],[7.21158,43.64984],[7.20949,43.64774],[7.20646,43.64564],[7.2057,43.64554],[7.20125,43.6451],[7.20072,43.64521],[7.19937,43.64626],[7.19908,43.64663],[7.19899,43.64705],[7.19921,43.64739],[7.20035,43.65341],[7.19942,43.6546],[7.19925,43.65484],[7.19902,43.65511],[7.19827,43.65612],[7.19755,43.65671],[7.19674,43.65718],[7.19454,43.65792],[7.19305,43.65794],[7.18723,43.65752],[7.18655,43.65745],[7.18346,43.6568],[7.17923,43.65592],[7.17824,43.65605],[7.17811,43.65597],[7.17566,43.65557],[7.17429,43.65558],[7.17367,43.6557],[7.17289,43.65596],[7.1722,43.65658],[7.17178,43.65678],[7.17095,43.65713],[7.16965,43.65733],[7.16767,43.6574],[7.16634,43.65701],[7.16148,43.65536],[7.16103,43.65521],[7.16001,43.6548],[7.15785,43.65385],[7.15606,43.6528],[7.15312,43.65063],[7.14903,43.64727],[7.14681,43.64517],[7.14622,43.64407],[7.14623,43.64249],[7.14631,43.64199],[7.14617,43.64182],[7.14549,43.64185],[7.14524,43.64249],[7.14471,43.64301],[7.1413,43.64565],[7.1355,43.64962],[7.13012,43.65368],[7.12863,43.66014],[7.12719,43.66133],[7.12413,43.66407],[7.12355,43.66477],[7.12212,43.66785],[7.12077,43.67039],[7.1206,43.67058],[7.12079,43.67248],[7.12349,43.67314],[7.12374,43.67329],[7.12402,43.67364],[7.12492,43.6736],[7.12793,43.67361],[7.13126,43.67414],[7.13285,43.6747],[7.13261,43.67548],[7.13201,43.67732],[7.1318,43.67922],[7.13259,43.68215],[7.13295,43.68278],[7.134,43.68431],[7.13721,43.68714],[7.14101,43.691],[7.14297,43.69159],[7.14322,43.69162],[7.1436,43.69161],[7.14301,43.69285],[7.14272,43.69308],[7.14116,43.69455],[7.14033,43.69586],[7.14013,43.69692],[7.14024,43.69812],[7.14048,43.69904],[7.14112,43.69947],[7.14192,43.70006],[7.14166,43.70075],[7.14164,43.70115],[7.14269,43.7046],[7.14342,43.70794],[7.14292,43.71151],[7.14294,43.71358],[7.1436,43.71708],[7.14592,43.72106],[7.14713,43.72469],[7.14597,43.72573],[7.14448,43.72646],[7.14424,43.72656],[7.14282,43.72586],[7.14214,43.72521],[7.14137,43.72411],[7.14128,43.72299],[7.14056,43.72217],[7.1382,43.72412],[7.13721,43.72574],[7.13712,43.72629],[7.13706,43.73241],[7.13692,43.73374],[7.13578,43.73422],[7.13561,43.73445],[7.13438,43.73617],[7.13441,43.73653],[7.13477,43.73721],[7.13568,43.73842],[7.13403,43.74422],[7.13287,43.74562],[7.13069,43.74829],[7.12973,43.74956],[7.12938,43.75046],[7.12922,43.75091],[7.12903,43.75236],[7.12899,43.75264],[7.12799,43.7533],[7.1274,43.7537],[7.12478,43.75516],[7.11848,43.75813],[7.11682,43.76144],[7.11255,43.76712],[7.11062,43.77259],[7.11038,43.77632],[7.11091,43.77923],[7.11098,43.77941],[7.1116,43.77969],[7.11208,43.7799],[7.11446,43.78113],[7.11773,43.78273],[7.12149,43.7832],[7.12406,43.78413],[7.1258,43.78487],[7.12749,43.78583],[7.12868,43.78674],[7.12957,43.78813],[7.13013,43.78919],[7.13107,43.79024],[7.13135,43.79059],[7.13167,43.79061],[7.13223,43.79046],[7.13267,43.79058],[7.13299,43.79083],[7.13324,43.79064],[7.13433,43.78956],[7.13458,43.78896],[7.13978,43.78372],[7.14333,43.78156],[7.14361,43.78141],[7.14498,43.78361],[7.14856,43.78787],[7.15212,43.78943],[7.15328,43.79002],[7.15716,43.79346],[7.15796,43.79464],[7.15857,43.79538],[7.15977,43.7964],[7.16168,43.79717],[7.16393,43.79758],[7.16745,43.79753],[7.17124,43.79818],[7.17481,43.79912],[7.17571,43.79935],[7.18187,43.80098],[7.18413,43.80119],[7.1857,43.80145],[7.1869,43.80166],[7.18988,43.80243],[7.19461,43.80518],[7.19216,43.80744],[7.19081,43.80872],[7.18923,43.81023],[7.18816,43.81135],[7.18698,43.81263],[7.18624,43.81371],[7.18584,43.81572],[7.18512,43.82107],[7.18497,43.82241],[7.18756,43.82386],[7.18898,43.82799],[7.19079,43.83316],[7.19108,43.83354],[7.19127,43.83447],[7.19154,43.83556],[7.19177,43.83635],[7.19261,43.83816],[7.19381,43.84141],[7.19441,43.8434],[7.19485,43.84424],[7.19559,43.84566],[7.19599,43.84677],[7.196,43.84758],[7.19589,43.8479],[7.19584,43.84943],[7.19679,43.8494],[7.20099,43.84925],[7.20426,43.84808],[7.20471,43.8459],[7.20493,43.84485],[7.20608,43.83974],[7.21206,43.83615],[7.21875,43.83165],[7.22031,43.82931],[7.21988,43.82653],[7.21844,43.82508],[7.218,43.82346],[7.21842,43.81999],[7.21872,43.81779],[7.21871,43.81757],[7.21909,43.81769],[7.22093,43.81824],[7.22291,43.81875],[7.22562,43.81945],[7.22739,43.82026],[7.22883,43.8217],[7.23297,43.82631],[7.2376,43.82917],[7.23908,43.82982],[7.24185,43.83054],[7.24264,43.83065],[7.24368,43.83014],[7.25085,43.82758],[7.25302,43.82741],[7.2532,43.82731],[7.25562,43.82278],[7.25613,43.82136],[7.25619,43.81987],[7.25794,43.82061],[7.25915,43.82096],[7.26455,43.82231],[7.26474,43.82234],[7.26657,43.82244],[7.26702,43.82225],[7.26814,43.82335],[7.27647,43.8251],[7.27429,43.83073],[7.27388,43.83642],[7.27331,43.84206],[7.27264,43.84374],[7.27247,43.8451],[7.27249,43.84697],[7.27272,43.84746],[7.27469,43.84769],[7.28001,43.84692],[7.28858,43.84475],[7.29044,43.84453],[7.29165,43.84412],[7.29542,43.84233],[7.29571,43.84201],[7.29663,43.84187],[7.29775,43.84187],[7.29864,43.84214],[7.30028,43.84303],[7.30239,43.84446],[7.30347,43.84532],[7.30428,43.84619],[7.30435,43.84632],[7.30447,43.84631],[7.30568,43.84581],[7.30761,43.84276],[7.30878,43.84011],[7.3094,43.83911],[7.3127,43.83657],[7.31735,43.83104],[7.31774,43.82994],[7.31819,43.82925],[7.31917,43.82817],[7.32089,43.82666],[7.32213,43.82574],[7.32339,43.82511],[7.32476,43.82448],[7.33098,43.8233],[7.33889,43.82429],[7.3429,43.82307],[7.34714,43.81724],[7.34996,43.81393],[7.35012,43.8136],[7.35049,43.81349],[7.35128,43.81305],[7.35179,43.81257],[7.35273,43.81163],[7.35338,43.81097],[7.35406,43.81072],[7.35621,43.81026],[7.35664,43.8102],[7.35667,43.81002],[7.35652,43.80903],[7.35891,43.80839],[7.36218,43.80941],[7.36346,43.80985],[7.36539,43.81053],[7.36681,43.81129],[7.36728,43.81172],[7.36844,43.81288],[7.36836,43.81415],[7.368,43.81506],[7.36663,43.81661],[7.3675,43.8188],[7.36951,43.82121],[7.36984,43.82143],[7.36972,43.82216],[7.36976,43.82261],[7.37016,43.823],[7.37587,43.82561],[7.38075,43.82816],[7.38346,43.82938],[7.38718,43.8306],[7.39015,43.83171],[7.39301,43.83316],[7.39446,43.83493],[7.39592,43.83804],[7.39606,43.83893],[7.39611,43.84023],[7.39588,43.84273],[7.39533,43.84365],[7.39416,43.8451],[7.39379,43.84516],[7.39334,43.845],[7.3926,43.84441],[7.39195,43.84412],[7.39113,43.84403],[7.38858,43.84405],[7.38551,43.84598],[7.38522,43.84636],[7.38521,43.84699],[7.38559,43.85004],[7.38553,43.85067],[7.3858,43.85108],[7.388,43.8526],[7.38871,43.85294],[7.38905,43.85303],[7.3914,43.85276],[7.3923,43.85249],[7.39284,43.85175],[7.39318,43.8513],[7.39357,43.85102],[7.39474,43.85053],[7.39628,43.85038],[7.39766,43.85054],[7.39877,43.85112],[7.39997,43.85202],[7.40122,43.85296],[7.40278,43.85433],[7.4029,43.85437],[7.40389,43.85418],[7.40532,43.85421],[7.40653,43.85403],[7.40775,43.85384],[7.40836,43.85372],[7.40872,43.85226],[7.40923,43.84974],[7.40972,43.84738],[7.41021,43.84637],[7.41127,43.84496],[7.41139,43.84497],[7.41651,43.84618],[7.42499,43.84819],[7.42945,43.84768],[7.43439,43.84655],[7.43642,43.84552],[7.43789,43.84437],[7.43879,43.84329],[7.43914,43.84282],[7.4393,43.84263],[7.43994,43.84153],[7.44202,43.83809],[7.44265,43.83743],[7.44657,43.83294],[7.44761,43.82774],[7.44757,43.82738],[7.44856,43.82715],[7.45226,43.82604],[7.45358,43.82556],[7.45618,43.82445],[7.45889,43.82356],[7.4597,43.82331],[7.46232,43.82334],[7.46303,43.82338],[7.46598,43.82426],[7.46716,43.82479],[7.46729,43.82478],[7.46806,43.82474],[7.46861,43.82494],[7.47061,43.82576],[7.47206,43.82592],[7.47607,43.82628],[7.48155,43.82553],[7.48332,43.82364],[7.48405,43.8234],[7.48417,43.82339],[7.48425,43.82361],[7.48439,43.82374],[7.48489,43.8238],[7.48585,43.82412],[7.48665,43.82462],[7.48666,43.82476],[7.4864,43.8269],[7.48574,43.83185],[7.48486,43.83399],[7.48347,43.83685],[7.48245,43.83866],[7.48156,43.84072],[7.47913,43.84652],[7.47914,43.84729],[7.48094,43.84788],[7.48683,43.84991],[7.48798,43.85013],[7.49243,43.85034],[7.49664,43.85087],[7.49667,43.84978],[7.4986,43.84618],[7.5035,43.84362],[7.50705,43.84006],[7.50952,43.83468],[7.50981,43.83385],[7.51015,43.83213],[7.51025,43.8282],[7.51035,43.82652],[7.51136,43.82381],[7.51166,43.82348],[7.51321,43.82138],[7.51431,43.81913],[7.51417,43.8167],[7.51438,43.8148],[7.51465,43.81425],[7.51576,43.81207],[7.51779,43.80675],[7.51795,43.80503],[7.5183,43.8033],[7.5184,43.80302],[7.51872,43.8025],[7.51896,43.80237],[7.52031,43.80136],[7.52071,43.80098],[7.52373,43.79782],[7.52564,43.79538],[7.52648,43.79422],[7.52921,43.7899],[7.53016,43.78805],[7.53005,43.7867],[7.5296,43.78506],[7.52806,43.78459],[7.52178,43.78427],[7.51972,43.7838],[7.5179,43.78235],[7.52175,43.7829],[7.52206,43.78288],[7.52218,43.78278],[7.52132,43.7822],[7.52018,43.78188],[7.51653,43.7815],[7.5118,43.78112],[7.51016,43.78059],[7.50861,43.77921],[7.50832,43.77873],[7.50834,43.77818],[7.50929,43.77549],[7.5094,43.77535],[7.51003,43.77545],[7.51093,43.77577],[7.51207,43.77667],[7.51225,43.77666],[7.51267,43.77641],[7.51118,43.77507],[7.51047,43.77484],[7.50805,43.77418],[7.5058,43.77397],[7.50526,43.77423],[7.50488,43.77419],[7.50203,43.77356],[7.50067,43.77299],[7.49744,43.7716],[7.49404,43.76982],[7.49299,43.76919],[7.49021,43.7672],[7.48911,43.76595],[7.48867,43.76528],[7.48828,43.76502],[7.48825,43.76466],[7.48719,43.76323],[7.48689,43.76333],[7.48645,43.76331],[7.4856,43.76276],[7.48497,43.76202],[7.48289,43.75882],[7.48211,43.7571],[7.48209,43.75688],[7.48482,43.75469],[7.487,43.75318],[7.48735,43.75289],[7.48776,43.75242],[7.48789,43.75187],[7.48809,43.75002],[7.48778,43.74956],[7.4873,43.74925],[7.48683,43.749],[7.48652,43.74901],[7.48219,43.74925],[7.48182,43.74927],[7.48084,43.74946],[7.47881,43.74994],[7.47592,43.7508],[7.47537,43.75098],[7.47447,43.75141],[7.47301,43.7523],[7.47115,43.75388],[7.46907,43.75571],[7.46659,43.75744],[7.46423,43.75857],[7.45973,43.76004],[7.45541,43.75903],[7.4514,43.7566],[7.4496,43.75451],[7.44662,43.75186],[7.44424,43.75047],[7.44195,43.75076],[7.4382,43.75132],[7.43772,43.75158],[7.43735,43.75164],[7.43723,43.7516],[7.43234,43.74902],[7.42834,43.74512],[7.42794,43.74413],[7.42766,43.74369],[7.42678,43.74287],[7.42548,43.74167],[7.42451,43.74086],[7.41927,43.73893],[7.41608,43.73693],[7.41422,43.73572],[7.41259,43.73465],[7.41227,43.73439],[7.41273,43.73374],[7.41313,43.73294],[7.41304,43.73192],[7.41283,43.73172],[7.41262,43.73155],[7.411,43.72847],[7.41301,43.72644],[7.41324,43.72477],[7.40889,43.72108],[7.40646,43.71963],[7.39794,43.71891],[7.39248,43.71992],[7.38382,43.72251],[7.38327,43.72258],[7.38262,43.72229],[7.37874,43.72045],[7.37506,43.71753],[7.37462,43.71742],[7.37272,43.71778],[7.36935,43.71937],[7.36542,43.72121],[7.36349,43.72179],[7.36073,43.72228],[7.35998,43.72226],[7.35852,43.72187],[7.35735,43.72139],[7.35587,43.72073],[7.3531,43.71901],[7.35116,43.71625],[7.3513,43.71579],[7.35119,43.71521],[7.35065,43.71478],[7.34861,43.71407],[7.3483,43.71407],[7.34723,43.7139],[7.34494,43.71341],[7.3445,43.71334],[7.34345,43.71338],[7.34272,43.71356],[7.34196,43.71337],[7.33811,43.71196],[7.3376,43.71172],[7.33611,43.71033],[7.33534,43.70853],[7.33214,43.70403],[7.33144,43.70381],[7.33027,43.70288],[7.3298,43.70247],[7.32963,43.7021],[7.32961,43.70191],[7.32975,43.7015],[7.33053,43.69929],[7.33159,43.6966],[7.33265,43.69583],[7.33325,43.69477],[7.33364,43.69358],[7.33388,43.68961],[7.33415,43.68923],[7.33483,43.68848],[7.33537,43.68828],[7.33617,43.6881],[7.34204,43.68705],[7.34659,43.68629],[7.34904,43.68562],[7.3431,43.68324],[7.3398,43.68398],[7.33759,43.68574],[7.33466,43.68436],[7.33475,43.6824],[7.33511,43.68057],[7.33545,43.67885],[7.33534,43.67821],[7.33383,43.67577],[7.3333,43.67534],[7.3322,43.67484],[7.3313,43.67452],[7.33087,43.6745],[7.32789,43.67446],[7.32585,43.67485],[7.32457,43.67644],[7.32435,43.67677],[7.32397,43.6789],[7.32429,43.68059],[7.32354,43.68439],[7.32192,43.68705],[7.32195,43.68985],[7.32281,43.69247],[7.32478,43.69389],[7.32613,43.69518],[7.32642,43.69557],[7.32647,43.69615],[7.32534,43.70016],[7.32473,43.70059],[7.32429,43.70073],[7.32058,43.70441],[7.31868,43.70555],[7.3179,43.7059],[7.31552,43.70642],[7.31472,43.70653],[7.31409,43.70639],[7.31336,43.70597],[7.31295,43.70549],[7.31247,43.70375],[7.30786,43.69878],[7.30877,43.6926],[7.30875,43.69237],[7.30877,43.69187],[7.30784,43.68831]]]]},"properties":{"ID":"61","id":"61","NOM_MASSIF":"LITTORAL EST","dept":"06"}},{"type":"Feature","id":1,"geometry":{"type":"MultiPolygon","coordinates":[[[[7.07919,43.99058],[7.07914,43.98905],[7.0789,43.98618],[7.07874,43.98561],[7.07564,43.97969],[7.07417,43.97854],[7.07272,43.97742],[7.06995,43.97569],[7.06689,43.97374],[7.0646,43.97181],[7.06251,43.97004],[7.06244,43.96991],[7.06204,43.96881],[7.06191,43.96787],[7.062,43.96669],[7.06243,43.96506],[7.06205,43.96279],[7.06185,43.96164],[7.06151,43.96054],[7.06053,43.95831],[7.05908,43.95604],[7.05577,43.95291],[7.05534,43.94932],[7.05597,43.94732],[7.05577,43.94724],[7.05502,43.94714],[7.04995,43.94713],[7.04692,43.9473],[7.03951,43.94901],[7.03488,43.95188],[7.02818,43.95538],[7.02211,43.9572],[7.02077,43.95833],[7.01837,43.96042],[7.01156,43.96017],[7.0093,43.95926],[7.00818,43.95863],[7.00627,43.9574],[7.00626,43.95731],[7.0064,43.95658],[7.00671,43.95497],[7.00631,43.95389],[7.00598,43.95354],[7.00417,43.95237],[7.00174,43.952],[6.99935,43.95187],[6.99816,43.95183],[6.99748,43.95186],[6.99725,43.95209],[6.99613,43.95367],[6.99609,43.95394],[6.99638,43.95452],[6.99648,43.95505],[6.99602,43.95544],[6.99352,43.95706],[6.99334,43.95717],[6.99402,43.95785],[6.99483,43.95846],[7.00095,43.96233],[7.00879,43.96631],[7.00944,43.96661],[7.0104,43.96769],[7.0106,43.96809],[7.01066,43.96867],[7.01017,43.96982],[7.0095,43.97137],[7.00823,43.9726],[7.00728,43.97323],[7.00644,43.9752],[7.00538,43.97777],[7.00534,43.97799],[7.00645,43.97863],[7.00741,43.97894],[7.01116,43.9797],[7.01111,43.97984],[7.00984,43.98209],[7.00816,43.98527],[7.00561,43.99022],[7.00433,43.99202],[7.00139,43.99281],[7.00127,43.9929],[7.00158,43.99681],[7.00198,43.99964],[7.00229,44.00354],[7.00141,44.00349],[7.00052,44.00321],[6.99946,44.00258],[6.99865,44.00261],[6.99744,44.00293],[6.99435,44.00423],[6.99297,44.00492],[6.99083,44.00644],[6.98419,44.01018],[6.98292,44.01127],[6.9824,44.01189],[6.98197,44.01524],[6.9819,44.01598],[6.98197,44.01687],[6.98199,44.01777],[6.98165,44.01918],[6.98065,44.02059],[6.97911,44.02261],[6.97858,44.02304],[6.97642,44.02646],[6.97598,44.03212],[6.9778,44.03537],[6.97834,44.03585],[6.97843,44.03625],[6.97842,44.0386],[6.97784,44.03907],[6.97657,44.03962],[6.97638,44.03963],[6.97587,44.03951],[6.97054,44.04002],[6.9661,44.03995],[6.96372,44.03937],[6.95964,44.03915],[6.95521,44.03902],[6.95067,44.03846],[6.95003,44.03835],[6.94975,44.03854],[6.94865,44.03903],[6.94473,44.04077],[6.94324,44.04092],[6.94253,44.04055],[6.94228,44.04055],[6.94029,44.04068],[6.94011,44.04087],[6.94014,44.04118],[6.94002,44.04123],[6.9333,44.0438],[6.93054,44.04353],[6.92843,44.04332],[6.92625,44.04311],[6.92369,44.04335],[6.9173,44.04404],[6.91633,44.04435],[6.91414,44.0452],[6.91384,44.0454],[6.9133,44.0461],[6.91295,44.04674],[6.91276,44.04675],[6.91243,44.04645],[6.91217,44.04564],[6.91201,44.04349],[6.91201,44.04272],[6.91252,44.03993],[6.91279,44.03899],[6.91294,44.03867],[6.91168,44.03669],[6.90822,44.03485],[6.90529,44.0333],[6.90387,44.03272],[6.9038,44.03268],[6.90355,44.03264],[6.89458,44.03301],[6.89195,44.03365],[6.89084,44.03388],[6.88984,44.03387],[6.8867,44.03373],[6.88178,44.03126],[6.87666,44.02908],[6.87577,44.02885],[6.87485,44.02902],[6.87323,44.02985],[6.87213,44.03061],[6.87091,44.03147],[6.86691,44.0346],[6.86584,44.03626],[6.86315,44.03867],[6.85845,44.04102],[6.85777,44.04105],[6.85816,44.03963],[6.85901,44.03771],[6.8593,44.03725],[6.85952,44.03711],[6.86033,44.03702],[6.86133,44.03685],[6.86287,44.03652],[6.86342,44.03524],[6.86339,44.03402],[6.86306,44.03259],[6.86272,44.03139],[6.86099,44.03087],[6.85983,44.03034],[6.85928,44.0299],[6.8571,44.02652],[6.8568,44.0258],[6.85665,44.02388],[6.8576,44.02246],[6.85676,44.02045],[6.85469,44.01879],[6.85143,44.0173],[6.84712,44.01358],[6.8395,44.01184],[6.83563,44.01119],[6.83573,44.01078],[6.83603,44.01068],[6.83639,44.01044],[6.83871,44.00823],[6.83982,44.00706],[6.8412,44.00303],[6.84072,44.0011],[6.84068,43.99458],[6.84017,43.99267],[6.83956,43.99058],[6.839,43.99008],[6.83873,43.9897],[6.836,43.9906],[6.83328,43.99138],[6.82844,43.99315],[6.82153,43.99636],[6.81455,43.99857],[6.80855,44.00115],[6.80318,44.00352],[6.79974,44.00467],[6.79798,44.00533],[6.79585,44.00702],[6.79564,44.00739],[6.79556,44.00812],[6.79212,44.01795],[6.78928,44.02257],[6.78351,44.02216],[6.78283,44.02218],[6.7762,44.0238],[6.77571,44.02404],[6.772,44.02586],[6.77083,44.0265],[6.77017,44.02687],[6.76905,44.02763],[6.76672,44.02926],[6.76469,44.03037],[6.76238,44.03151],[6.75932,44.03302],[6.75609,44.0358],[6.75498,44.0367],[6.75195,44.03844],[6.7458,44.04269],[6.74569,44.04283],[6.74571,44.04324],[6.74557,44.04871],[6.74716,44.05516],[6.74788,44.05716],[6.748,44.05806],[6.74761,44.06466],[6.74763,44.06479],[6.7504,44.06804],[6.75202,44.07156],[6.75339,44.07498],[6.75493,44.07803],[6.75529,44.07861],[6.75648,44.07959],[6.75575,44.07966],[6.75513,44.07978],[6.75402,44.08023],[6.75314,44.0808],[6.75237,44.08145],[6.7494,44.08522],[6.74931,44.08563],[6.7494,44.08612],[6.74982,44.08661],[6.74952,44.08675],[6.74762,44.08804],[6.74575,44.08987],[6.74484,44.09104],[6.74353,44.09357],[6.74294,44.09589],[6.74071,44.09863],[6.7403,44.0991],[6.7366,44.10226],[6.73091,44.10604],[6.72492,44.11071],[6.72466,44.11096],[6.72419,44.11139],[6.72245,44.11308],[6.72147,44.1142],[6.72027,44.11564],[6.71999,44.11615],[6.71918,44.11794],[6.71909,44.1183],[6.71901,44.11893],[6.7186,44.1194],[6.71675,44.12051],[6.71494,44.12063],[6.71148,44.1213],[6.71075,44.12164],[6.70852,44.12358],[6.70759,44.12447],[6.70721,44.12516],[6.70708,44.12584],[6.70525,44.13222],[6.70451,44.1345],[6.70431,44.13595],[6.70427,44.13888],[6.70427,44.1396],[6.7045,44.14032],[6.7049,44.14061],[6.70567,44.1409],[6.706,44.14282],[6.7055,44.14447],[6.70307,44.14629],[6.69972,44.14829],[6.69918,44.14863],[6.69804,44.14939],[6.69807,44.14993],[6.69825,44.15232],[6.69841,44.15353],[6.69588,44.15925],[6.69197,44.16233],[6.69028,44.16388],[6.68823,44.16581],[6.68713,44.16716],[6.6867,44.16812],[6.68654,44.16925],[6.69246,44.17243],[6.69714,44.17458],[6.69935,44.17566],[6.70029,44.17648],[6.70111,44.17749],[6.70123,44.17754],[6.70124,44.17767],[6.70198,44.18088],[6.70276,44.18292],[6.70289,44.18378],[6.70281,44.18441],[6.70079,44.18629],[6.69881,44.18803],[6.69846,44.18845],[6.69808,44.18982],[6.69837,44.19048],[6.69912,44.19136],[6.70082,44.193],[6.70523,44.19765],[6.70544,44.19878],[6.70683,44.20149],[6.71084,44.20323],[6.71528,44.20515],[6.71714,44.20846],[6.71834,44.21071],[6.71748,44.21336],[6.71663,44.21461],[6.71616,44.21504],[6.71567,44.21514],[6.71459,44.21587],[6.71438,44.21641],[6.71408,44.21823],[6.7142,44.21827],[6.71682,44.21952],[6.71819,44.22136],[6.72193,44.22439],[6.72467,44.22598],[6.72502,44.22628],[6.72576,44.2304],[6.725,44.23191],[6.72436,44.23275],[6.72388,44.23295],[6.72351,44.23556],[6.72374,44.2385],[6.72495,44.24157],[6.72485,44.2465],[6.72454,44.2478],[6.72418,44.24947],[6.72611,44.25126],[6.72717,44.25198],[6.72809,44.25252],[6.72828,44.25256],[6.72847,44.25251],[6.72853,44.25242],[6.72996,44.25147],[6.73027,44.25141],[6.73071,44.25148],[6.73528,44.2523],[6.73739,44.25279],[6.73823,44.25317],[6.73863,44.25353],[6.73906,44.25418],[6.73929,44.25557],[6.73965,44.2561],[6.74137,44.25824],[6.74229,44.25879],[6.74862,44.26041],[6.75133,44.26054],[6.75266,44.25996],[6.75327,44.2598],[6.75403,44.25986],[6.75499,44.26015],[6.75909,44.26206],[6.75894,44.26338],[6.75844,44.26511],[6.75783,44.2704],[6.75833,44.27436],[6.75867,44.27497],[6.75992,44.27649],[6.76127,44.27765],[6.76293,44.27904],[6.76451,44.27902],[6.77312,44.27783],[6.77732,44.27681],[6.77799,44.27656],[6.78513,44.27403],[6.78937,44.27269],[6.79034,44.27234],[6.78988,44.2747],[6.78846,44.27894],[6.78833,44.2822],[6.78818,44.2836],[6.78655,44.28795],[6.78635,44.2885],[6.78649,44.28948],[6.787,44.29028],[6.78984,44.2939],[6.79334,44.29672],[6.7954,44.29778],[6.79613,44.29831],[6.7962,44.29848],[6.79598,44.30237],[6.79503,44.30614],[6.79466,44.3071],[6.79456,44.30823],[6.7947,44.31183],[6.79478,44.31287],[6.79534,44.31442],[6.79609,44.31611],[6.79683,44.3167],[6.79715,44.31678],[6.80363,44.32027],[6.80528,44.32243],[6.80632,44.32476],[6.80689,44.32661],[6.80786,44.32899],[6.8083,44.32973],[6.80892,44.33052],[6.81187,44.33221],[6.81339,44.33233],[6.81462,44.33205],[6.81601,44.33205],[6.82017,44.33216],[6.8224,44.33265],[6.82304,44.33308],[6.82878,44.33728],[6.83328,44.34106],[6.83969,44.34617],[6.84027,44.34646],[6.84328,44.34648],[6.8477,44.34599],[6.85332,44.34456],[6.85486,44.34346],[6.8559,44.34296],[6.85615,44.34295],[6.85865,44.34376],[6.85962,44.34417],[6.86231,44.34641],[6.86296,44.34656],[6.86303,44.34665],[6.8659,44.34841],[6.86783,44.34957],[6.86857,44.35012],[6.87153,44.35271],[6.87154,44.3528],[6.87385,44.35334],[6.87513,44.35374],[6.87753,44.35474],[6.87824,44.35515],[6.88018,44.35647],[6.88252,44.35836],[6.88331,44.35887],[6.88456,44.35964],[6.886,44.36039],[6.88743,44.36105],[6.88793,44.36094],[6.89126,44.36018],[6.89419,44.35943],[6.89637,44.35885],[6.90394,44.35836],[6.9097,44.35565],[6.91455,44.35343],[6.91562,44.35335],[6.91827,44.35293],[6.92188,44.35148],[6.92257,44.35073],[6.92241,44.34826],[6.92267,44.34153],[6.92416,44.34007],[6.92538,44.33836],[6.92581,44.33752],[6.92654,44.33556],[6.92647,44.33475],[6.93184,44.33059],[6.9393,44.32593],[6.94467,44.32162],[6.94933,44.31979],[6.95295,44.31756],[6.95796,44.31329],[6.95925,44.31212],[6.95982,44.3116],[6.96053,44.31085],[6.96068,44.31035],[6.96072,44.30864],[6.96064,44.30832],[6.95839,44.30244],[6.95653,44.29864],[6.95591,44.29756],[6.95586,44.29706],[6.95686,44.29608],[6.95814,44.29485],[6.95946,44.29413],[6.9597,44.29406],[6.96195,44.29367],[6.96378,44.29391],[6.96539,44.29469],[6.96802,44.29513],[6.97022,44.29441],[6.97052,44.29421],[6.97127,44.29347],[6.97152,44.29174],[6.97142,44.29133],[6.97075,44.28997],[6.97046,44.28948],[6.9696,44.2888],[6.96943,44.2884],[6.96901,44.28706],[6.96899,44.28679],[6.96944,44.28592],[6.97012,44.28518],[6.97188,44.28362],[6.97252,44.28381],[6.97469,44.28495],[6.97553,44.28527],[6.97915,44.28666],[6.98054,44.28678],[6.98135,44.28675],[6.98183,44.28641],[6.98681,44.28427],[6.99004,44.28315],[6.99345,44.28089],[6.99611,44.2749],[6.99589,44.27052],[6.99557,44.26976],[6.99552,44.26905],[6.99597,44.26659],[6.99673,44.26372],[6.99827,44.25946],[6.99843,44.25883],[6.99824,44.25811],[6.99774,44.25667],[6.99706,44.2551],[6.99691,44.25479],[6.99688,44.25362],[6.99713,44.252],[6.99822,44.24932],[6.99845,44.24881],[6.99998,44.2464],[7.00298,44.24269],[7.00514,44.23985],[7.00613,44.23859],[7.00805,44.23643],[7.01525,44.23286],[7.01676,44.23221],[7.01926,44.2322],[7.01927,44.23229],[7.02153,44.23395],[7.02193,44.23416],[7.02251,44.23426],[7.0233,44.23415],[7.0236,44.23401],[7.02676,44.23236],[7.02851,44.231],[7.02942,44.22985],[7.03095,44.22789],[7.031,44.22761],[7.03273,44.22569],[7.03302,44.22541],[7.03379,44.22502],[7.03822,44.22375],[7.03884,44.22373],[7.03975,44.22414],[7.04235,44.22534],[7.04405,44.22608],[7.04495,44.22645],[7.05029,44.22822],[7.05119,44.22849],[7.05582,44.22934],[7.05663,44.22927],[7.05787,44.22885],[7.05858,44.22842],[7.06188,44.22823],[7.06531,44.22876],[7.06649,44.23093],[7.06817,44.23225],[7.06901,44.23263],[7.07022,44.23298],[7.07104,44.23295],[7.07415,44.23251],[7.07603,44.23222],[7.07922,44.23162],[7.08751,44.22829],[7.08948,44.22587],[7.09038,44.22386],[7.0929,44.22198],[7.0956,44.221],[7.10423,44.21927],[7.11223,44.21733],[7.11988,44.21347],[7.12402,44.21167],[7.12825,44.20933],[7.13413,44.20553],[7.14105,44.201],[7.14311,44.20024],[7.1436,44.20012],[7.14475,44.2003],[7.14851,44.20105],[7.15353,44.20336],[7.15974,44.20621],[7.16315,44.20628],[7.16634,44.2053],[7.172,44.20168],[7.17766,44.19725],[7.17791,44.19723],[7.17957,44.1977],[7.18305,44.199],[7.18427,44.20003],[7.18708,44.19943],[7.18891,44.1978],[7.19152,44.19287],[7.19341,44.18851],[7.19335,44.18765],[7.19361,44.1871],[7.19435,44.18699],[7.19965,44.18667],[7.20191,44.18584],[7.20339,44.18479],[7.20371,44.18428],[7.20405,44.18364],[7.20463,44.1824],[7.20476,44.18163],[7.20759,44.17792],[7.21084,44.17654],[7.21386,44.17502],[7.21431,44.17445],[7.21496,44.17287],[7.21565,44.17174],[7.21887,44.16895],[7.22273,44.16873],[7.22894,44.16878],[7.23247,44.17129],[7.23307,44.17185],[7.23339,44.17255],[7.23704,44.17433],[7.2409,44.17336],[7.2418,44.17282],[7.24351,44.17157],[7.24367,44.17116],[7.24336,44.16825],[7.24505,44.16478],[7.24819,44.15907],[7.24857,44.15852],[7.25169,44.15608],[7.2529,44.15567],[7.25382,44.15545],[7.25682,44.15359],[7.25987,44.15131],[7.26086,44.14982],[7.26262,44.14817],[7.26278,44.14803],[7.26341,44.14801],[7.26379,44.14808],[7.26684,44.14794],[7.27016,44.14775],[7.27178,44.14764],[7.2725,44.14738],[7.27685,44.14402],[7.27955,44.14181],[7.28032,44.14118],[7.28136,44.14087],[7.28242,44.14083],[7.28313,44.14106],[7.2851,44.14215],[7.28568,44.14253],[7.28922,44.14402],[7.29322,44.14508],[7.30282,44.1449],[7.30944,44.14583],[7.31706,44.14334],[7.32441,44.14372],[7.33318,44.1441],[7.33735,44.14497],[7.34042,44.14565],[7.34227,44.14566],[7.3442,44.14516],[7.34467,44.14474],[7.3455,44.14354],[7.34565,44.14317],[7.34611,44.14101],[7.34642,44.13888],[7.34735,44.13574],[7.34812,44.13376],[7.34865,44.1327],[7.3495,44.13172],[7.35034,44.13037],[7.35122,44.1289],[7.35301,44.12564],[7.35604,44.12086],[7.35847,44.11816],[7.36142,44.11637],[7.36786,44.1164],[7.36935,44.11688],[7.3711,44.1176],[7.37399,44.11901],[7.38129,44.12198],[7.38537,44.12351],[7.38589,44.12367],[7.38628,44.12378],[7.3886,44.12468],[7.38893,44.12479],[7.39219,44.12488],[7.39401,44.1243],[7.39589,44.12369],[7.39693,44.12318],[7.39957,44.12126],[7.40267,44.11937],[7.40507,44.11822],[7.40617,44.11791],[7.40661,44.11793],[7.40726,44.11822],[7.40793,44.11863],[7.41165,44.11836],[7.41562,44.1178],[7.41812,44.11489],[7.4221,44.11246],[7.42357,44.11208],[7.42475,44.11193],[7.42526,44.11201],[7.42622,44.11241],[7.42695,44.11288],[7.42703,44.11377],[7.4268,44.11756],[7.42812,44.12215],[7.42993,44.1278],[7.43303,44.12877],[7.43715,44.12883],[7.44618,44.12897],[7.44823,44.12884],[7.45352,44.12763],[7.4576,44.12638],[7.45876,44.12598],[7.45997,44.12569],[7.46068,44.12579],[7.46243,44.12657],[7.46401,44.1274],[7.46618,44.12915],[7.46757,44.13008],[7.46829,44.13056],[7.47101,44.13233],[7.47226,44.13299],[7.47367,44.13342],[7.47431,44.13352],[7.47543,44.13343],[7.47732,44.13285],[7.47832,44.13284],[7.48149,44.13338],[7.48389,44.13418],[7.48772,44.13576],[7.49223,44.13866],[7.49519,44.14106],[7.4984,44.14204],[7.50574,44.14365],[7.50837,44.1429],[7.51062,44.14216],[7.51227,44.14087],[7.51412,44.13926],[7.51663,44.13846],[7.52019,44.13768],[7.52131,44.13762],[7.52273,44.13792],[7.52655,44.13955],[7.52709,44.13993],[7.52822,44.14184],[7.52978,44.14491],[7.53313,44.14592],[7.53636,44.14641],[7.53822,44.14551],[7.53927,44.14532],[7.54044,44.14519],[7.54219,44.1451],[7.54319,44.1451],[7.54641,44.1457],[7.55083,44.14633],[7.55184,44.14647],[7.5526,44.14653],[7.55504,44.14666],[7.5568,44.14692],[7.55832,44.14748],[7.5629,44.14984],[7.56541,44.15122],[7.56575,44.15156],[7.57128,44.15259],[7.57714,44.15289],[7.58262,44.15179],[7.58383,44.15141],[7.59203,44.15121],[7.59636,44.15129],[7.60082,44.15094],[7.60844,44.1499],[7.61456,44.14967],[7.61822,44.15035],[7.62129,44.1513],[7.62485,44.15539],[7.62727,44.15869],[7.6277,44.15949],[7.6279,44.1602],[7.62789,44.16069],[7.6272,44.16222],[7.62687,44.16341],[7.627,44.16403],[7.62732,44.1642],[7.62782,44.16417],[7.62795,44.16421],[7.62931,44.16723],[7.63006,44.17024],[7.63021,44.17055],[7.63309,44.17407],[7.63404,44.17498],[7.63568,44.17639],[7.63662,44.1771],[7.63732,44.17726],[7.64226,44.17775],[7.64506,44.1779],[7.64898,44.1774],[7.65538,44.17736],[7.66052,44.17681],[7.66115,44.17669],[7.66576,44.1758],[7.66917,44.17551],[7.67245,44.17702],[7.67278,44.17719],[7.67391,44.17713],[7.6759,44.177],[7.67783,44.17682],[7.67936,44.17642],[7.68315,44.17499],[7.68459,44.17402],[7.68462,44.1737],[7.68399,44.17153],[7.68151,44.16695],[7.67667,44.16185],[7.67543,44.16137],[7.67298,44.15995],[7.67215,44.15918],[7.67179,44.15839],[7.67099,44.1545],[7.67085,44.15374],[7.67098,44.15306],[7.67296,44.15138],[7.67569,44.14968],[7.678,44.14747],[7.67853,44.14589],[7.67718,44.14334],[7.67665,44.14214],[7.67639,44.14143],[7.67489,44.13948],[7.67391,44.1383],[7.67266,44.13764],[7.66967,44.13566],[7.6675,44.13387],[7.66715,44.13343],[7.66656,44.13112],[7.6666,44.13076],[7.66787,44.12961],[7.66858,44.12913],[7.67153,44.12369],[7.67452,44.11798],[7.67451,44.11789],[7.67488,44.11778],[7.67656,44.11708],[7.68076,44.11442],[7.68741,44.11043],[7.68796,44.11009],[7.68942,44.10894],[7.68999,44.10837],[7.69378,44.10391],[7.69639,44.09991],[7.69604,44.09911],[7.69616,44.09848],[7.69662,44.09774],[7.69816,44.09635],[7.70115,44.0943],[7.70383,44.09311],[7.70582,44.09235],[7.70781,44.09148],[7.70876,44.09085],[7.71196,44.08826],[7.71326,44.08676],[7.71574,44.08276],[7.71595,44.07851],[7.71564,44.0778],[7.71471,44.07664],[7.71321,44.07319],[7.71392,44.07078],[7.71411,44.06786],[7.71417,44.06642],[7.71408,44.06543],[7.71287,44.06288],[7.71117,44.06025],[7.70995,44.05929],[7.70754,44.05724],[7.70609,44.05559],[7.70508,44.05418],[7.70402,44.05251],[7.70386,44.05211],[7.70321,44.05039],[7.70359,44.04767],[7.70358,44.04686],[7.70278,44.04429],[7.70195,44.04274],[7.70003,44.04079],[7.69558,44.04033],[7.68981,44.03947],[7.68422,44.0368],[7.67769,44.033],[7.67611,44.03204],[7.66855,44.03068],[7.66499,44.03067],[7.66269,44.02892],[7.66225,44.02822],[7.66201,44.02738],[7.66195,44.02684],[7.66181,44.02455],[7.66183,44.01791],[7.66192,44.0175],[7.66254,44.01531],[7.66284,44.01458],[7.66301,44.01434],[7.66429,44.01235],[7.66702,44.00684],[7.66773,44.00487],[7.6702,43.99847],[7.6674,43.99569],[7.66348,43.98988],[7.6589,43.98526],[7.65584,43.98099],[7.65558,43.97744],[7.65547,43.97676],[7.65525,43.97655],[7.65269,43.97484],[7.64859,43.97411],[7.64622,43.97406],[7.64464,43.97389],[7.64275,43.9733],[7.64202,43.9729],[7.64101,43.97235],[7.63506,43.96793],[7.63339,43.96665],[7.63276,43.96529],[7.63221,43.96473],[7.63135,43.96423],[7.62862,43.963],[7.62287,43.96079],[7.61691,43.95844],[7.61241,43.95609],[7.61019,43.95514],[7.60673,43.95609],[7.60409,43.9569],[7.59685,43.95653],[7.59057,43.95493],[7.58343,43.95212],[7.5782,43.94969],[7.57439,43.94766],[7.5719,43.94714],[7.57184,43.94715],[7.57199,43.94741],[7.57169,43.9476],[7.57153,43.94764],[7.57018,43.94778],[7.56471,43.95066],[7.5612,43.95281],[7.55842,43.9548],[7.55319,43.95719],[7.54932,43.95926],[7.54676,43.96064],[7.5446,43.96169],[7.54351,43.96211],[7.54285,43.96235],[7.53568,43.96347],[7.52981,43.96398],[7.52884,43.96421],[7.52574,43.96503],[7.52274,43.96584],[7.51786,43.96789],[7.51185,43.97202],[7.50817,43.9785],[7.50532,43.983],[7.50386,43.98347],[7.50293,43.98356],[7.49823,43.98371],[7.49191,43.98401],[7.49036,43.98409],[7.48883,43.98448],[7.48473,43.98551],[7.48402,43.98582],[7.48344,43.98638],[7.47794,43.98938],[7.47437,43.99126],[7.47291,43.99172],[7.47174,43.992],[7.47035,43.99181],[7.4696,43.9917],[7.46884,43.99168],[7.46841,43.99175],[7.46624,43.99266],[7.46,43.99611],[7.45378,43.99822],[7.44587,43.9984],[7.44391,43.99808],[7.44167,43.99823],[7.43898,43.99889],[7.43812,43.99911],[7.43686,43.99962],[7.43615,44.00005],[7.43396,44.00087],[7.43347,44.00098],[7.42958,43.99994],[7.42812,43.99974],[7.42702,43.99924],[7.42582,43.99849],[7.42561,43.99814],[7.4254,43.99711],[7.42676,43.99691],[7.42797,43.99654],[7.42917,43.99595],[7.43067,43.99512],[7.43258,43.99341],[7.43356,43.99242],[7.43457,43.99099],[7.43527,43.98945],[7.43612,43.98732],[7.43845,43.98394],[7.4402,43.98247],[7.44141,43.98142],[7.44175,43.981],[7.44216,43.97986],[7.44239,43.97895],[7.44047,43.97386],[7.4453,43.96916],[7.44645,43.96581],[7.44809,43.96063],[7.44899,43.95844],[7.45196,43.95486],[7.45471,43.95241],[7.45717,43.94753],[7.45658,43.94368],[7.4559,43.9415],[7.45456,43.93898],[7.45217,43.93661],[7.45106,43.93518],[7.45039,43.93404],[7.45039,43.93404],[7.44992,43.93369],[7.44594,43.9318],[7.44513,43.93142],[7.43976,43.92978],[7.43972,43.92977],[7.43516,43.92913],[7.43114,43.92817],[7.42795,43.92599],[7.42673,43.92518],[7.42219,43.92323],[7.41631,43.92025],[7.41243,43.91805],[7.40831,43.91238],[7.40792,43.90906],[7.40793,43.90553],[7.40738,43.9045],[7.40628,43.90355],[7.40573,43.90346],[7.40507,43.90348],[7.40412,43.90368],[7.40314,43.90454],[7.40152,43.90601],[7.40125,43.9066],[7.40077,43.90786],[7.40042,43.90885],[7.39927,43.90958],[7.39932,43.91018],[7.39902,43.91146],[7.39876,43.9121],[7.39531,43.91438],[7.39126,43.91733],[7.3909,43.9177],[7.38885,43.92141],[7.38838,43.92237],[7.38836,43.92291],[7.38858,43.92336],[7.38967,43.9278],[7.39005,43.93254],[7.38738,43.93455],[7.3822,43.93644],[7.38008,43.93708],[7.3788,43.93741],[7.3757,43.93821],[7.37166,43.93905],[7.37021,43.93942],[7.36981,43.93961],[7.36869,43.93986],[7.36553,43.94061],[7.35805,43.94344],[7.35217,43.94431],[7.34788,43.9449],[7.3452,43.94602],[7.34126,43.94821],[7.34078,43.94847],[7.33708,43.9488],[7.33371,43.94891],[7.32754,43.9481],[7.32435,43.94656],[7.32175,43.94463],[7.31859,43.94144],[7.31574,43.93996],[7.31257,43.94009],[7.31233,43.94024],[7.31144,43.94125],[7.31097,43.94192],[7.30899,43.94354],[7.30639,43.94379],[7.30565,43.94383],[7.3045,43.9436],[7.30411,43.94336],[7.30261,43.94193],[7.30253,43.94166],[7.29915,43.94014],[7.29327,43.94143],[7.29303,43.9415],[7.29232,43.94202],[7.29112,43.94252],[7.2902,43.94278],[7.28708,43.94351],[7.28607,43.94341],[7.28552,43.94285],[7.28493,43.94247],[7.28343,43.94159],[7.28321,43.94168],[7.27994,43.94317],[7.27803,43.94409],[7.27475,43.94607],[7.2707,43.95049],[7.2685,43.95306],[7.2678,43.95457],[7.26729,43.95601],[7.26616,43.96014],[7.26475,43.96468],[7.26162,43.97196],[7.26129,43.97963],[7.26064,43.98517],[7.25928,43.98888],[7.25645,43.99186],[7.25314,43.99383],[7.24876,43.99694],[7.24603,43.99943],[7.24421,44.00239],[7.24453,44.00396],[7.24507,44.00496],[7.24527,44.00533],[7.24582,44.00598],[7.24716,44.00624],[7.24793,44.00652],[7.24858,44.00708],[7.24902,44.00773],[7.24977,44.00996],[7.25005,44.01692],[7.24954,44.01685],[7.24758,44.01686],[7.24669,44.01705],[7.24327,44.0179],[7.24085,44.01845],[7.23803,44.01759],[7.23436,44.01625],[7.23391,44.01613],[7.23369,44.01722],[7.23283,44.01889],[7.2325,44.01949],[7.23084,44.02208],[7.23055,44.02241],[7.22896,44.02352],[7.22623,44.02526],[7.22522,44.02575],[7.22021,44.02809],[7.21317,44.03294],[7.21231,44.03374],[7.21159,44.03481],[7.21059,44.03648],[7.20986,44.03827],[7.20968,44.03904],[7.20876,44.03999],[7.20782,44.04083],[7.2077,44.04093],[7.20754,44.04121],[7.20747,44.04184],[7.20761,44.04273],[7.20748,44.04436],[7.20704,44.04654],[7.20461,44.04652],[7.20298,44.04655],[7.20022,44.04697],[7.19897,44.04732],[7.19425,44.04845],[7.18876,44.04918],[7.18415,44.04941],[7.17357,44.04868],[7.16382,44.04992],[7.1627,44.05074],[7.16146,44.05126],[7.16069,44.05158],[7.15826,44.05232],[7.1555,44.05293],[7.15488,44.053],[7.15469,44.05288],[7.15197,44.04949],[7.14948,44.04733],[7.14901,44.04698],[7.14737,44.04593],[7.14677,44.04555],[7.14567,44.04509],[7.14529,44.04493],[7.1371,44.04413],[7.12867,44.04364],[7.12775,44.04378],[7.12738,44.0446],[7.12756,44.04509],[7.12789,44.04535],[7.12814,44.04538],[7.12842,44.04586],[7.1284,44.04752],[7.12761,44.04962],[7.12688,44.05007],[7.12182,44.05305],[7.11758,44.05714],[7.11697,44.05881],[7.11396,44.06414],[7.11385,44.06424],[7.11305,44.0645],[7.11288,44.06469],[7.1118,44.06764],[7.11022,44.06972],[7.10989,44.07014],[7.1091,44.07048],[7.10846,44.07051],[7.10727,44.07042],[7.1055,44.07023],[7.09684,44.06899],[7.09243,44.06594],[7.09094,44.06479],[7.09048,44.0645],[7.08864,44.06412],[7.08655,44.06376],[7.0854,44.06358],[7.08312,44.06624],[7.0832,44.06967],[7.08334,44.07074],[7.08302,44.07067],[7.08264,44.07061],[7.07722,44.06969],[7.07296,44.06915],[7.07224,44.06926],[7.07063,44.06956],[7.07021,44.06972],[7.06895,44.07035],[7.06823,44.07097],[7.06779,44.07161],[7.06743,44.07185],[7.06622,44.07213],[7.06534,44.0714],[7.0587,44.06735],[7.0538,44.06476],[7.04863,44.06091],[7.04766,44.0606],[7.04826,44.05958],[7.05029,44.05823],[7.05285,44.05687],[7.05403,44.05592],[7.0543,44.05523],[7.05485,44.05344],[7.05485,44.05286],[7.05438,44.05238],[7.05322,44.0518],[7.05255,44.05133],[7.05105,44.04985],[7.05077,44.04932],[7.05073,44.04887],[7.05131,44.0466],[7.05283,44.0446],[7.05352,44.04399],[7.0539,44.04388],[7.05539,44.04378],[7.05587,44.04357],[7.05799,44.04195],[7.05875,44.04124],[7.05937,44.0405],[7.05921,44.03798],[7.058,44.03221],[7.05775,44.03104],[7.05518,44.02672],[7.0529,44.02278],[7.05267,44.02221],[7.05397,44.02111],[7.05528,44.02038],[7.05674,44.01915],[7.05933,44.01677],[7.06073,44.01502],[7.06097,44.01429],[7.06145,44.01312],[7.06182,44.01227],[7.06347,44.01031],[7.06482,44.00894],[7.06769,44.00692],[7.06985,44.00572],[7.07095,44.00531],[7.07099,44.00436],[7.07067,44.00352],[7.07012,44.00287],[7.07073,44.0027],[7.0719,44.00176],[7.07252,44.00091],[7.07378,43.99798],[7.07937,43.99428],[7.07977,43.99395],[7.07925,43.99361],[7.07878,43.99321],[7.07859,43.99228],[7.0786,43.99169],[7.07893,43.99113],[7.07919,43.99058]]]]},"properties":{"ID":"63","id":"63","NOM_MASSIF":"HAUT PAYS","dept":"06"}},{"type":"Feature","id":2,"geometry":{"type":"MultiPolygon","coordinates":[[[[7.27331,43.84206],[7.27388,43.83642],[7.27429,43.83073],[7.27647,43.8251],[7.26814,43.82335],[7.26702,43.82225],[7.26657,43.82244],[7.26474,43.82234],[7.26455,43.82231],[7.25915,43.82096],[7.25794,43.82061],[7.25619,43.81987],[7.25613,43.82136],[7.25562,43.82278],[7.2532,43.82731],[7.25302,43.82741],[7.25085,43.82758],[7.24368,43.83014],[7.24264,43.83065],[7.24185,43.83054],[7.23908,43.82982],[7.2376,43.82917],[7.23297,43.82631],[7.22883,43.8217],[7.22739,43.82026],[7.22562,43.81945],[7.22291,43.81875],[7.22093,43.81824],[7.21909,43.81769],[7.21871,43.81757],[7.21872,43.81779],[7.21842,43.81999],[7.218,43.82346],[7.21844,43.82508],[7.21988,43.82653],[7.22031,43.82931],[7.21875,43.83165],[7.21206,43.83615],[7.20608,43.83974],[7.20493,43.84485],[7.20471,43.8459],[7.20426,43.84808],[7.20099,43.84925],[7.19679,43.8494],[7.19584,43.84943],[7.19609,43.85027],[7.19659,43.85481],[7.19532,43.85622],[7.19508,43.85695],[7.19508,43.85771],[7.19534,43.85855],[7.19586,43.8594],[7.19687,43.86014],[7.19719,43.86047],[7.19771,43.86377],[7.19808,43.86633],[7.19805,43.86809],[7.19771,43.86932],[7.19484,43.87205],[7.1922,43.87634],[7.19187,43.87684],[7.19137,43.87723],[7.19088,43.87761],[7.18921,43.8783],[7.18871,43.8787],[7.18829,43.87935],[7.18916,43.88048],[7.18958,43.88184],[7.18982,43.88269],[7.19004,43.88384],[7.18997,43.88515],[7.1897,43.88589],[7.18928,43.88668],[7.18792,43.88946],[7.18784,43.89345],[7.18797,43.89422],[7.18851,43.89469],[7.19039,43.89727],[7.18927,43.89818],[7.18811,43.89984],[7.188,43.90007],[7.18825,43.9007],[7.19098,43.90288],[7.19323,43.90368],[7.19585,43.90461],[7.1956,43.90683],[7.19534,43.90742],[7.19505,43.90775],[7.1935,43.9094],[7.18567,43.91126],[7.18484,43.9117],[7.18482,43.91224],[7.18505,43.9126],[7.18718,43.91447],[7.18936,43.91661],[7.19006,43.91833],[7.19002,43.91874],[7.18969,43.91911],[7.1875,43.92339],[7.18775,43.92485],[7.18776,43.92521],[7.18752,43.92624],[7.18683,43.92721],[7.18629,43.92748],[7.1814,43.92999],[7.17487,43.93362],[7.167,43.93738],[7.16357,43.93902],[7.16104,43.9408],[7.16078,43.94562],[7.15933,43.95089],[7.15835,43.95426],[7.15805,43.95513],[7.15742,43.95588],[7.15511,43.95797],[7.15202,43.9631],[7.15192,43.96337],[7.15146,43.96389],[7.15128,43.96408],[7.14908,43.96699],[7.14661,43.97103],[7.14604,43.97169],[7.14531,43.97203],[7.1442,43.97217],[7.14302,43.97223],[7.14189,43.97214],[7.14071,43.97232],[7.14037,43.97252],[7.14003,43.97298],[7.13795,43.97591],[7.13845,43.97895],[7.13837,43.98184],[7.13642,43.98365],[7.13534,43.98615],[7.13579,43.99148],[7.13617,43.99708],[7.13664,44.00301],[7.13624,44.00535],[7.13523,44.00711],[7.13448,44.00811],[7.13156,44.01334],[7.13147,44.01383],[7.13134,44.01407],[7.13134,44.0189],[7.13223,44.02475],[7.13219,44.02529],[7.13078,44.03037],[7.12763,44.0373],[7.12773,44.04351],[7.12775,44.04378],[7.12867,44.04364],[7.1371,44.04413],[7.14529,44.04493],[7.14567,44.04509],[7.14677,44.04555],[7.14737,44.04593],[7.14901,44.04698],[7.14948,44.04733],[7.15197,44.04949],[7.15469,44.05288],[7.15488,44.053],[7.1555,44.05293],[7.15826,44.05232],[7.16069,44.05158],[7.16146,44.05126],[7.1627,44.05074],[7.16382,44.04992],[7.17357,44.04868],[7.18415,44.04941],[7.18876,44.04918],[7.19425,44.04845],[7.19897,44.04732],[7.20022,44.04697],[7.20298,44.04655],[7.20461,44.04652],[7.20704,44.04654],[7.20748,44.04436],[7.20761,44.04273],[7.20747,44.04184],[7.20754,44.04121],[7.2077,44.04093],[7.20782,44.04083],[7.20876,44.03999],[7.20968,44.03904],[7.20986,44.03827],[7.21059,44.03648],[7.21159,44.03481],[7.21231,44.03374],[7.21317,44.03294],[7.22021,44.02809],[7.22522,44.02575],[7.22623,44.02526],[7.22896,44.02352],[7.23055,44.02241],[7.23084,44.02208],[7.2325,44.01949],[7.23283,44.01889],[7.23369,44.01722],[7.23391,44.01613],[7.23436,44.01625],[7.23803,44.01759],[7.24085,44.01845],[7.24327,44.0179],[7.24669,44.01705],[7.24758,44.01686],[7.24954,44.01685],[7.25005,44.01692],[7.24977,44.00996],[7.24902,44.00773],[7.24858,44.00708],[7.24793,44.00652],[7.24716,44.00624],[7.24582,44.00598],[7.24527,44.00533],[7.24507,44.00496],[7.24453,44.00396],[7.24421,44.00239],[7.24603,43.99943],[7.24876,43.99694],[7.25314,43.99383],[7.25645,43.99186],[7.25928,43.98888],[7.26064,43.98517],[7.26129,43.97963],[7.26162,43.97196],[7.26475,43.96468],[7.26616,43.96014],[7.26729,43.95601],[7.2678,43.95457],[7.2685,43.95306],[7.2707,43.95049],[7.27475,43.94607],[7.27803,43.94409],[7.27994,43.94317],[7.28321,43.94168],[7.28343,43.94159],[7.28493,43.94247],[7.28552,43.94285],[7.28607,43.94341],[7.28708,43.94351],[7.2902,43.94278],[7.29112,43.94252],[7.29232,43.94202],[7.29303,43.9415],[7.29327,43.94143],[7.29915,43.94014],[7.30253,43.94166],[7.30261,43.94193],[7.30411,43.94336],[7.3045,43.9436],[7.30565,43.94383],[7.30639,43.94379],[7.30899,43.94354],[7.31097,43.94192],[7.31144,43.94125],[7.31233,43.94024],[7.31257,43.94009],[7.31574,43.93996],[7.31859,43.94144],[7.32175,43.94463],[7.32435,43.94656],[7.32754,43.9481],[7.33371,43.94891],[7.33708,43.9488],[7.34078,43.94847],[7.34126,43.94821],[7.3452,43.94602],[7.34788,43.9449],[7.35217,43.94431],[7.35805,43.94344],[7.36553,43.94061],[7.36869,43.93986],[7.36981,43.93961],[7.37021,43.93942],[7.37166,43.93905],[7.3757,43.93821],[7.3788,43.93741],[7.38008,43.93708],[7.3822,43.93644],[7.38738,43.93455],[7.39005,43.93254],[7.38967,43.9278],[7.38858,43.92336],[7.38836,43.92291],[7.38838,43.92237],[7.38885,43.92141],[7.3909,43.9177],[7.39126,43.91733],[7.39531,43.91438],[7.39876,43.9121],[7.39902,43.91146],[7.39932,43.91018],[7.39928,43.90959],[7.39927,43.90958],[7.40042,43.90885],[7.40077,43.90786],[7.40125,43.9066],[7.40152,43.90601],[7.40314,43.90454],[7.40412,43.90368],[7.40507,43.90348],[7.40573,43.90346],[7.40628,43.90355],[7.40738,43.9045],[7.40793,43.90553],[7.40792,43.90906],[7.40831,43.91238],[7.41243,43.91805],[7.41631,43.92025],[7.42219,43.92323],[7.42673,43.92518],[7.42795,43.92599],[7.43114,43.92817],[7.43516,43.92913],[7.43972,43.92977],[7.43976,43.92978],[7.44513,43.93142],[7.44594,43.9318],[7.44992,43.93369],[7.45039,43.93404],[7.45039,43.93404],[7.45106,43.93518],[7.45217,43.93661],[7.45456,43.93898],[7.4559,43.9415],[7.45658,43.94368],[7.45717,43.94753],[7.45471,43.95241],[7.45196,43.95486],[7.44899,43.95844],[7.44809,43.96063],[7.44645,43.96581],[7.4453,43.96916],[7.44047,43.97386],[7.44239,43.97895],[7.44216,43.97986],[7.44175,43.981],[7.44141,43.98142],[7.4402,43.98247],[7.43845,43.98394],[7.43612,43.98732],[7.43527,43.98945],[7.43457,43.99099],[7.43356,43.99242],[7.43258,43.99341],[7.43067,43.99512],[7.42917,43.99595],[7.42797,43.99654],[7.42676,43.99691],[7.4254,43.99711],[7.42561,43.99814],[7.42582,43.99849],[7.42702,43.99924],[7.42812,43.99974],[7.42958,43.99994],[7.43347,44.00098],[7.43396,44.00087],[7.43615,44.00005],[7.43686,43.99962],[7.43812,43.99911],[7.43898,43.99889],[7.44167,43.99823],[7.44391,43.99808],[7.44587,43.9984],[7.45378,43.99822],[7.46,43.99611],[7.46624,43.99266],[7.46841,43.99175],[7.46884,43.99168],[7.4696,43.9917],[7.47035,43.99181],[7.47174,43.992],[7.47291,43.99172],[7.47437,43.99126],[7.47794,43.98938],[7.48344,43.98638],[7.48402,43.98582],[7.48473,43.98551],[7.48883,43.98448],[7.49036,43.98409],[7.49191,43.98401],[7.49823,43.98371],[7.50293,43.98356],[7.50386,43.98347],[7.50532,43.983],[7.50817,43.9785],[7.51185,43.97202],[7.51786,43.96789],[7.52274,43.96584],[7.52574,43.96503],[7.52884,43.96421],[7.52981,43.96398],[7.53568,43.96347],[7.54285,43.96235],[7.54351,43.96211],[7.5446,43.96169],[7.54676,43.96064],[7.54932,43.95926],[7.55319,43.95719],[7.55842,43.9548],[7.5612,43.95281],[7.56471,43.95066],[7.57018,43.94778],[7.57153,43.94764],[7.57169,43.9476],[7.57199,43.94741],[7.57184,43.94715],[7.57157,43.94721],[7.56985,43.94725],[7.5694,43.94668],[7.56711,43.94367],[7.56921,43.94122],[7.5729,43.93779],[7.57362,43.93686],[7.57373,43.93659],[7.57365,43.93573],[7.57338,43.93543],[7.57114,43.93375],[7.57065,43.93287],[7.56942,43.92794],[7.56824,43.92326],[7.56204,43.92003],[7.5604,43.91731],[7.55993,43.91445],[7.56111,43.91236],[7.56187,43.91098],[7.56237,43.90955],[7.56269,43.90328],[7.56282,43.90191],[7.56269,43.90124],[7.56195,43.89974],[7.5611,43.8987],[7.56008,43.8978],[7.55922,43.89729],[7.5573,43.89653],[7.55197,43.89486],[7.54782,43.89377],[7.54352,43.89379],[7.53854,43.89324],[7.53726,43.89285],[7.53607,43.89218],[7.5302,43.88898],[7.52354,43.88644],[7.51925,43.88438],[7.51479,43.88329],[7.51128,43.88226],[7.50909,43.87871],[7.50643,43.87642],[7.50374,43.87513],[7.50341,43.87509],[7.50136,43.87501],[7.50121,43.87483],[7.4987,43.87095],[7.49659,43.86533],[7.4952,43.86229],[7.49494,43.85703],[7.49496,43.85586],[7.49525,43.85499],[7.49597,43.85355],[7.49656,43.85132],[7.49664,43.85087],[7.49243,43.85034],[7.48798,43.85013],[7.48683,43.84991],[7.48094,43.84788],[7.47914,43.84729],[7.47913,43.84652],[7.48156,43.84072],[7.48245,43.83866],[7.48347,43.83685],[7.48486,43.83399],[7.48574,43.83185],[7.4864,43.8269],[7.48666,43.82476],[7.48665,43.82462],[7.48585,43.82412],[7.48489,43.8238],[7.48439,43.82374],[7.48425,43.82361],[7.48417,43.82339],[7.48405,43.8234],[7.48332,43.82364],[7.48155,43.82553],[7.47607,43.82628],[7.47206,43.82592],[7.47061,43.82576],[7.46861,43.82494],[7.46806,43.82474],[7.46729,43.82478],[7.46716,43.82479],[7.46598,43.82426],[7.46303,43.82338],[7.46232,43.82334],[7.4597,43.82331],[7.45889,43.82356],[7.45618,43.82445],[7.45358,43.82556],[7.45226,43.82604],[7.44856,43.82715],[7.44757,43.82738],[7.44761,43.82774],[7.44657,43.83294],[7.44265,43.83743],[7.44202,43.83809],[7.43994,43.84153],[7.4393,43.84263],[7.43914,43.84282],[7.43879,43.84329],[7.43789,43.84437],[7.43642,43.84552],[7.43439,43.84655],[7.42945,43.84768],[7.42499,43.84819],[7.41651,43.84618],[7.41139,43.84497],[7.41127,43.84496],[7.41021,43.84637],[7.40972,43.84738],[7.40923,43.84974],[7.40872,43.85226],[7.40836,43.85372],[7.40775,43.85384],[7.40653,43.85403],[7.40532,43.85421],[7.40389,43.85418],[7.4029,43.85437],[7.40278,43.85433],[7.40122,43.85296],[7.39997,43.85202],[7.39877,43.85112],[7.39766,43.85054],[7.39628,43.85038],[7.39474,43.85053],[7.39357,43.85102],[7.39318,43.8513],[7.39284,43.85175],[7.3923,43.85249],[7.3914,43.85276],[7.38905,43.85303],[7.38871,43.85294],[7.388,43.8526],[7.3858,43.85108],[7.38553,43.85067],[7.38559,43.85004],[7.38521,43.84699],[7.38522,43.84636],[7.38551,43.84598],[7.38858,43.84405],[7.39113,43.84403],[7.39195,43.84412],[7.3926,43.84441],[7.39334,43.845],[7.39379,43.84516],[7.39416,43.8451],[7.39533,43.84365],[7.39588,43.84273],[7.39611,43.84023],[7.39606,43.83893],[7.39592,43.83804],[7.39446,43.83493],[7.39301,43.83316],[7.39015,43.83171],[7.38718,43.8306],[7.38346,43.82938],[7.38075,43.82816],[7.37587,43.82561],[7.37016,43.823],[7.36976,43.82261],[7.36972,43.82216],[7.36984,43.82143],[7.36951,43.82121],[7.3675,43.8188],[7.36663,43.81661],[7.368,43.81506],[7.36836,43.81415],[7.36844,43.81288],[7.36728,43.81172],[7.36681,43.81129],[7.36539,43.81053],[7.36346,43.80985],[7.36218,43.80941],[7.35891,43.80839],[7.35652,43.80903],[7.35667,43.81002],[7.35664,43.8102],[7.35621,43.81026],[7.35406,43.81072],[7.35338,43.81097],[7.35273,43.81163],[7.35179,43.81257],[7.35128,43.81305],[7.35049,43.81349],[7.35012,43.8136],[7.34996,43.81393],[7.34714,43.81724],[7.3429,43.82307],[7.33889,43.82429],[7.33098,43.8233],[7.32476,43.82448],[7.32339,43.82511],[7.32213,43.82574],[7.32089,43.82666],[7.31917,43.82817],[7.31819,43.82925],[7.31774,43.82994],[7.31735,43.83104],[7.3127,43.83657],[7.3094,43.83911],[7.30878,43.84011],[7.30761,43.84276],[7.30568,43.84581],[7.30447,43.84631],[7.30435,43.84632],[7.30428,43.84619],[7.30347,43.84532],[7.30239,43.84446],[7.30028,43.84303],[7.29864,43.84214],[7.29775,43.84187],[7.29663,43.84187],[7.29571,43.84201],[7.29542,43.84233],[7.29165,43.84412],[7.29044,43.84453],[7.28858,43.84475],[7.28001,43.84692],[7.27469,43.84769],[7.27272,43.84746],[7.27249,43.84697],[7.27247,43.8451],[7.27264,43.84374],[7.27331,43.84206]],[[7.39926,43.90956],[7.39916,43.90945],[7.39927,43.90958],[7.39926,43.90956]]]]},"properties":{"ID":"62","id":"62","NOM_MASSIF":"MOYEN PAYS OUEST","dept":"06"}},{"type":"Feature","id":3,"geometry":{"type":"MultiPolygon","coordinates":[[[[6.64073,43.79496],[6.64114,43.79526],[6.64152,43.79547],[6.64643,43.79618],[6.6532,43.79737],[6.65931,43.7988],[6.66669,43.8002],[6.6709,43.80161],[6.67619,43.8021],[6.68048,43.80332],[6.68136,43.80346],[6.68715,43.80347],[6.68865,43.80363],[6.69133,43.80426],[6.69165,43.80442],[6.69197,43.80477],[6.69227,43.80543],[6.69261,43.80573],[6.69521,43.80645],[6.69846,43.80709],[6.70317,43.80785],[6.70606,43.80841],[6.70684,43.80884],[6.70789,43.80952],[6.70983,43.81066],[6.70985,43.81093],[6.71136,43.81353],[6.71184,43.81423],[6.71201,43.81486],[6.71178,43.8159],[6.71152,43.81663],[6.71055,43.81798],[6.70981,43.81882],[6.70857,43.81963],[6.7037,43.82282],[6.69593,43.82552],[6.69345,43.8258],[6.69095,43.82644],[6.6867,43.82792],[6.68477,43.82866],[6.68204,43.82976],[6.67971,43.8303],[6.67633,43.83101],[6.67565,43.83108],[6.67503,43.83102],[6.67194,43.8305],[6.66791,43.83061],[6.66794,43.83093],[6.66938,43.83555],[6.67148,43.8421],[6.67191,43.84277],[6.67278,43.84358],[6.67382,43.84431],[6.6753,43.84579],[6.67647,43.84722],[6.67718,43.84864],[6.67792,43.85096],[6.67978,43.8521],[6.68326,43.85292],[6.68402,43.85309],[6.68489,43.85326],[6.69194,43.85424],[6.69872,43.85521],[6.70251,43.85588],[6.70283,43.85595],[6.70283,43.85604],[6.70181,43.85666],[6.69971,43.85691],[6.69857,43.85766],[6.69827,43.85901],[6.69769,43.86297],[6.69752,43.86786],[6.69762,43.86818],[6.69795,43.86972],[6.69732,43.87365],[6.69689,43.87444],[6.6965,43.87495],[6.69502,43.87628],[6.69234,43.87735],[6.689,43.87841],[6.68715,43.87881],[6.68483,43.87874],[6.68016,43.87888],[6.67875,43.87917],[6.67649,43.88003],[6.67463,43.88101],[6.67398,43.88158],[6.67279,43.88315],[6.67255,43.88407],[6.6721,43.8858],[6.67157,43.88734],[6.67072,43.88774],[6.67264,43.88838],[6.67538,43.88764],[6.68283,43.88587],[6.68966,43.8848],[6.69588,43.88371],[6.70151,43.8826],[6.70629,43.88192],[6.71206,43.88079],[6.7134,43.88033],[6.71651,43.87958],[6.7181,43.87898],[6.72012,43.87855],[6.72245,43.87814],[6.72637,43.87717],[6.72716,43.87692],[6.73183,43.87516],[6.73543,43.87426],[6.74406,43.87284],[6.74497,43.8725],[6.74556,43.87211],[6.74715,43.87173],[6.74839,43.87168],[6.75226,43.87248],[6.75315,43.8728],[6.75524,43.87408],[6.75617,43.87481],[6.76093,43.87691],[6.7656,43.87763],[6.76975,43.87819],[6.77133,43.87859],[6.77288,43.8792],[6.77579,43.88076],[6.77667,43.88153],[6.77783,43.88289],[6.77856,43.88345],[6.77902,43.88369],[6.77989,43.88375],[6.78101,43.88371],[6.78162,43.88355],[6.78197,43.88331],[6.78299,43.88283],[6.7838,43.88279],[6.78599,43.88207],[6.78957,43.8808],[6.79085,43.87868],[6.79181,43.87653],[6.79185,43.87621],[6.7917,43.87595],[6.78938,43.86977],[6.78886,43.86803],[6.78881,43.86718],[6.78906,43.86635],[6.791,43.86085],[6.79148,43.85473],[6.79138,43.85329],[6.79199,43.85056],[6.79248,43.84878],[6.79348,43.84644],[6.79425,43.84415],[6.79448,43.84306],[6.7964,43.84295],[6.79947,43.84233],[6.80288,43.84147],[6.80424,43.84125],[6.80568,43.84128],[6.80663,43.84142],[6.81001,43.8425],[6.81267,43.84321],[6.81484,43.84378],[6.81994,43.845],[6.82452,43.84601],[6.82662,43.84641],[6.83016,43.84729],[6.83265,43.84796],[6.83684,43.84946],[6.84517,43.85105],[6.84948,43.85144],[6.85173,43.85168],[6.85186,43.85172],[6.85399,43.85185],[6.8565,43.85222],[6.86338,43.85335],[6.86768,43.85423],[6.87286,43.85541],[6.88106,43.85727],[6.88181,43.85737],[6.88506,43.85777],[6.88903,43.85802],[6.89125,43.85855],[6.89392,43.85928],[6.8964,43.86003],[6.90134,43.86177],[6.90166,43.86194],[6.90434,43.86376],[6.90719,43.86524],[6.90744,43.86525],[6.90747,43.86474],[6.90762,43.86238],[6.90844,43.86065],[6.90932,43.85929],[6.91005,43.8584],[6.91192,43.85674],[6.91503,43.8535],[6.91657,43.84874],[6.91582,43.84429],[6.91679,43.84152],[6.9165,43.83948],[6.91627,43.83827],[6.91586,43.83631],[6.914,43.8335],[6.91265,43.83219],[6.91235,43.83167],[6.91197,43.83155],[6.90637,43.82989],[6.90232,43.8291],[6.8981,43.82837],[6.89152,43.82699],[6.88851,43.82582],[6.88459,43.82435],[6.88366,43.82439],[6.8815,43.82453],[6.87702,43.82402],[6.87018,43.82246],[6.86227,43.82056],[6.86054,43.82004],[6.85903,43.81988],[6.85866,43.81985],[6.85153,43.81837],[6.84697,43.8168],[6.8404,43.8162],[6.83386,43.81538],[6.83278,43.81501],[6.83015,43.81489],[6.8248,43.81501],[6.82375,43.81515],[6.81689,43.81499],[6.81198,43.81416],[6.80729,43.81308],[6.80344,43.81229],[6.80231,43.81211],[6.80124,43.81198],[6.80013,43.81136],[6.7956,43.809],[6.79379,43.80817],[6.79085,43.80796],[6.7864,43.80836],[6.78547,43.80849],[6.7832,43.80845],[6.78053,43.80801],[6.77858,43.80768],[6.77755,43.80736],[6.77632,43.80629],[6.77371,43.80597],[6.77184,43.80583],[6.7706,43.80587],[6.76963,43.80537],[6.76905,43.80436],[6.7692,43.80399],[6.77103,43.79824],[6.77163,43.7947],[6.77174,43.79186],[6.77173,43.78924],[6.77111,43.78616],[6.77032,43.7837],[6.77003,43.78335],[6.76896,43.78385],[6.76847,43.78392],[6.76442,43.78411],[6.76284,43.78445],[6.75898,43.78564],[6.75504,43.7876],[6.74977,43.78764],[6.74588,43.78815],[6.743,43.78865],[6.73914,43.7883],[6.73462,43.78726],[6.73269,43.78643],[6.72968,43.78483],[6.72518,43.78245],[6.72414,43.7819],[6.72287,43.7815],[6.72199,43.7813],[6.72087,43.78135],[6.72002,43.7816],[6.71952,43.78153],[6.71479,43.78071],[6.70889,43.78001],[6.70651,43.77978],[6.70483,43.7798],[6.70384,43.77989],[6.70096,43.78049],[6.69627,43.78047],[6.69005,43.78015],[6.68892,43.78],[6.68493,43.77899],[6.68064,43.77816],[6.6785,43.77779],[6.6777,43.77783],[6.67073,43.77948],[6.66163,43.78101],[6.65421,43.78336],[6.64931,43.78521],[6.64588,43.78697],[6.64164,43.78852],[6.63921,43.78925],[6.63622,43.79008],[6.63604,43.79018],[6.63617,43.79035],[6.64073,43.79496]]]]},"properties":{"ID":"67","id":"67","NOM_MASSIF":"HAUT ESTERON","dept":"06"}},{"type":"Feature","id":4,"geometry":{"type":"MultiPolygon","coordinates":[[[[6.84656,43.6493],[6.84654,43.64924],[6.8459,43.64871],[6.84518,43.64833],[6.8448,43.64808],[6.84146,43.64497],[6.8378,43.6407],[6.83331,43.63416],[6.83327,43.63358],[6.83297,43.63282],[6.83239,43.63175],[6.8321,43.63132],[6.83078,43.6303],[6.82994,43.62979],[6.82675,43.62788],[6.82529,43.62517],[6.82516,43.62493],[6.82461,43.62318],[6.82449,43.62324],[6.82142,43.62539],[6.81732,43.62871],[6.81713,43.62948],[6.81679,43.62976],[6.81354,43.63053],[6.81286,43.63051],[6.81009,43.62945],[6.80539,43.62765],[6.80309,43.62679],[6.80253,43.62672],[6.80009,43.62727],[6.79874,43.62818],[6.79633,43.63166],[6.79381,43.63545],[6.79397,43.63576],[6.79413,43.63792],[6.79406,43.63882],[6.79392,43.63932],[6.79139,43.6428],[6.79092,43.64318],[6.7905,43.64347],[6.79001,43.64348],[6.78975,43.64337],[6.78963,43.64337],[6.78944,43.64342],[6.78797,43.64559],[6.78557,43.64975],[6.7823,43.65416],[6.77725,43.65882],[6.77628,43.65989],[6.77567,43.66009],[6.77456,43.66018],[6.77163,43.66025],[6.7678,43.66027],[6.76582,43.6603],[6.76557,43.66035],[6.7651,43.66065],[6.76325,43.66189],[6.76286,43.66226],[6.76246,43.66286],[6.76234,43.6639],[6.76189,43.66514],[6.76137,43.66575],[6.76113,43.66589],[6.7608,43.66649],[6.76104,43.67272],[6.76198,43.67901],[6.76425,43.68381],[6.7647,43.68716],[6.76443,43.68767],[6.76446,43.68821],[6.76486,43.68864],[6.76598,43.68945],[6.77004,43.69194],[6.77435,43.69341],[6.77468,43.6937],[6.7747,43.69372],[6.7747,43.69374],[6.7747,43.69385],[6.77421,43.69391],[6.77403,43.69405],[6.77272,43.69564],[6.77261,43.69794],[6.77255,43.69929],[6.7728,43.70011],[6.77325,43.70116],[6.77383,43.70231],[6.77424,43.70364],[6.77417,43.70427],[6.77383,43.70469],[6.77204,43.70618],[6.77029,43.70756],[6.76796,43.70921],[6.7675,43.71157],[6.76704,43.716],[6.76659,43.72021],[6.76205,43.72345],[6.75994,43.7244],[6.75829,43.72554],[6.75717,43.72635],[6.75613,43.72747],[6.75572,43.72861],[6.75586,43.72884],[6.75653,43.72956],[6.7574,43.73035],[6.75749,43.73153],[6.75751,43.73265],[6.75733,43.73365],[6.75711,43.73411],[6.75354,43.73817],[6.75034,43.73819],[6.74692,43.73748],[6.74,43.73802],[6.73799,43.73845],[6.73718,43.73849],[6.73295,43.73847],[6.72895,43.73826],[6.71942,43.73814],[6.71498,43.73866],[6.71251,43.74002],[6.71249,43.74039],[6.71281,43.74191],[6.71337,43.74407],[6.71111,43.74711],[6.705,43.75158],[6.7014,43.75407],[6.70079,43.75431],[6.69821,43.7547],[6.69444,43.7551],[6.68841,43.75677],[6.68732,43.75712],[6.68271,43.75794],[6.68184,43.75792],[6.67982,43.7575],[6.6788,43.75714],[6.67688,43.75564],[6.67424,43.75344],[6.67216,43.75226],[6.67075,43.75154],[6.66523,43.75],[6.65866,43.74858],[6.65742,43.74872],[6.65758,43.74921],[6.65764,43.74997],[6.65709,43.75103],[6.65559,43.75672],[6.65495,43.75994],[6.65399,43.76223],[6.65272,43.76458],[6.6521,43.76545],[6.65146,43.76593],[6.64994,43.76663],[6.64806,43.76715],[6.64247,43.76817],[6.64185,43.76818],[6.64088,43.76836],[6.64009,43.76861],[6.6393,43.76919],[6.64077,43.7704],[6.64243,43.77182],[6.64337,43.77277],[6.64518,43.77464],[6.64554,43.77582],[6.64522,43.77784],[6.64465,43.77854],[6.64401,43.77901],[6.64351,43.77903],[6.64066,43.77962],[6.63798,43.78086],[6.6378,43.78096],[6.63758,43.78137],[6.63614,43.78641],[6.6366,43.78848],[6.6364,43.78895],[6.63629,43.78936],[6.63611,43.78959],[6.63596,43.78996],[6.63604,43.79018],[6.63622,43.79008],[6.63921,43.78925],[6.64164,43.78852],[6.64588,43.78697],[6.64931,43.78521],[6.65421,43.78336],[6.66163,43.78101],[6.67073,43.77948],[6.6777,43.77783],[6.6785,43.77779],[6.68064,43.77816],[6.68493,43.77899],[6.68892,43.78],[6.69005,43.78015],[6.69627,43.78047],[6.70096,43.78049],[6.70384,43.77989],[6.70483,43.7798],[6.70651,43.77978],[6.70889,43.78001],[6.71479,43.78071],[6.71952,43.78153],[6.72002,43.7816],[6.72087,43.78135],[6.72199,43.7813],[6.72287,43.7815],[6.72414,43.7819],[6.72518,43.78245],[6.72968,43.78483],[6.73269,43.78643],[6.73462,43.78726],[6.73914,43.7883],[6.743,43.78865],[6.74588,43.78815],[6.74977,43.78764],[6.75504,43.7876],[6.75898,43.78564],[6.76284,43.78445],[6.76442,43.78411],[6.76847,43.78392],[6.76896,43.78385],[6.77003,43.78335],[6.77032,43.7837],[6.77111,43.78616],[6.77173,43.78924],[6.77174,43.79186],[6.77163,43.7947],[6.77103,43.79824],[6.7692,43.80399],[6.76905,43.80436],[6.76963,43.80537],[6.7706,43.80587],[6.77184,43.80583],[6.77371,43.80597],[6.77632,43.80629],[6.77755,43.80736],[6.77858,43.80768],[6.78053,43.80801],[6.7832,43.80845],[6.78547,43.80849],[6.7864,43.80836],[6.79085,43.80796],[6.79379,43.80817],[6.7956,43.809],[6.80013,43.81136],[6.80124,43.81198],[6.80231,43.81211],[6.80344,43.81229],[6.80729,43.81308],[6.81198,43.81416],[6.81689,43.81499],[6.82375,43.81515],[6.8248,43.81501],[6.83015,43.81489],[6.83278,43.81501],[6.83386,43.81538],[6.8404,43.8162],[6.84697,43.8168],[6.85153,43.81837],[6.85866,43.81985],[6.85903,43.81988],[6.86054,43.82004],[6.86227,43.82056],[6.87018,43.82246],[6.87702,43.82402],[6.8815,43.82453],[6.88366,43.82439],[6.88459,43.82435],[6.88851,43.82582],[6.89152,43.82699],[6.8981,43.82837],[6.90232,43.8291],[6.90637,43.82989],[6.91197,43.83155],[6.91235,43.83167],[6.91265,43.83219],[6.914,43.8335],[6.91586,43.83631],[6.91627,43.83827],[6.9165,43.83948],[6.91679,43.84152],[6.91582,43.84429],[6.91657,43.84874],[6.91503,43.8535],[6.91192,43.85674],[6.91005,43.8584],[6.90932,43.85929],[6.90844,43.86065],[6.90762,43.86238],[6.90747,43.86474],[6.90744,43.86525],[6.90719,43.86524],[6.90434,43.86376],[6.90166,43.86194],[6.90134,43.86177],[6.8964,43.86003],[6.89392,43.85928],[6.89125,43.85855],[6.88903,43.85802],[6.88506,43.85777],[6.88181,43.85737],[6.88106,43.85727],[6.87286,43.85541],[6.86768,43.85423],[6.86338,43.85335],[6.8565,43.85222],[6.85399,43.85185],[6.85186,43.85172],[6.85173,43.85168],[6.84948,43.85144],[6.84517,43.85105],[6.83684,43.84946],[6.83265,43.84796],[6.83016,43.84729],[6.82662,43.84641],[6.82452,43.84601],[6.81994,43.845],[6.81484,43.84378],[6.81267,43.84321],[6.81001,43.8425],[6.80663,43.84142],[6.80568,43.84128],[6.80424,43.84125],[6.80288,43.84147],[6.79947,43.84233],[6.7964,43.84295],[6.79448,43.84306],[6.79425,43.84415],[6.79348,43.84644],[6.79248,43.84878],[6.79199,43.85056],[6.79138,43.85329],[6.79148,43.85473],[6.791,43.86085],[6.78906,43.86635],[6.78881,43.86718],[6.78886,43.86803],[6.78938,43.86977],[6.7917,43.87595],[6.79185,43.87621],[6.79181,43.87653],[6.79085,43.87868],[6.78957,43.8808],[6.78599,43.88207],[6.7838,43.88279],[6.78299,43.88283],[6.78197,43.88331],[6.78162,43.88355],[6.78206,43.88452],[6.78262,43.88524],[6.78426,43.88651],[6.7866,43.88935],[6.78776,43.8908],[6.78888,43.89309],[6.78969,43.89486],[6.79144,43.89788],[6.79506,43.90084],[6.79776,43.90337],[6.79951,43.90691],[6.80187,43.90914],[6.80429,43.91079],[6.81019,43.91213],[6.81127,43.91245],[6.8138,43.91325],[6.81694,43.91483],[6.81924,43.91552],[6.82748,43.9175],[6.83071,43.91836],[6.83229,43.91846],[6.83321,43.91564],[6.83338,43.91541],[6.83593,43.91544],[6.83595,43.91542],[6.83673,43.91571],[6.83679,43.91573],[6.84134,43.91594],[6.84258,43.91586],[6.85111,43.91412],[6.85386,43.90917],[6.86,43.9071],[6.86592,43.90483],[6.87334,43.90044],[6.87662,43.8986],[6.8772,43.89808],[6.88006,43.89469],[6.88404,43.88977],[6.88461,43.88912],[6.89077,43.88974],[6.89259,43.88997],[6.89408,43.89055],[6.89633,43.89142],[6.89818,43.89214],[6.89856,43.89222],[6.90137,43.8926],[6.90725,43.89327],[6.91181,43.8934],[6.91699,43.89346],[6.91868,43.89357],[6.92048,43.89351],[6.92916,43.89451],[6.9367,43.89614],[6.93758,43.89633],[6.93818,43.89662],[6.94175,43.89697],[6.94227,43.89726],[6.94223,43.89753],[6.94273,43.89833],[6.94328,43.90015],[6.94273,43.9031],[6.94244,43.90344],[6.94154,43.90421],[6.9383,43.90651],[6.93673,43.90733],[6.93533,43.90778],[6.93389,43.90823],[6.93338,43.9084],[6.92912,43.91026],[6.92675,43.91349],[6.92495,43.91601],[6.92459,43.91677],[6.92285,43.91857],[6.91947,43.92124],[6.91644,43.92292],[6.91326,43.92777],[6.91309,43.92797],[6.91182,43.92842],[6.9097,43.92914],[6.90902,43.9292],[6.90808,43.92911],[6.90737,43.92895],[6.90158,43.9274],[6.89967,43.92679],[6.89967,43.92674],[6.89936,43.9268],[6.89555,43.92763],[6.89513,43.92782],[6.893,43.92931],[6.89172,43.93022],[6.89164,43.93031],[6.88767,43.93308],[6.88549,43.93437],[6.88404,43.9353],[6.88102,43.93812],[6.88072,43.93849],[6.88008,43.93949],[6.87631,43.94521],[6.87524,43.9494],[6.87579,43.95024],[6.87553,43.95231],[6.87547,43.95282],[6.87108,43.95388],[6.86484,43.95441],[6.85527,43.95502],[6.85189,43.95479],[6.84912,43.95556],[6.84744,43.95736],[6.84717,43.95998],[6.84711,43.96291],[6.84805,43.96491],[6.84807,43.96522],[6.84744,43.9675],[6.84546,43.97323],[6.84455,43.97644],[6.84382,43.97837],[6.83643,43.98208],[6.83572,43.9827],[6.83501,43.98318],[6.83471,43.98329],[6.83501,43.98399],[6.83638,43.98723],[6.8372,43.98873],[6.83761,43.98923],[6.83873,43.9897],[6.839,43.99008],[6.83956,43.99058],[6.84017,43.99267],[6.84068,43.99458],[6.84072,44.0011],[6.8412,44.00303],[6.83982,44.00706],[6.83871,44.00823],[6.83639,44.01044],[6.83603,44.01068],[6.83573,44.01078],[6.83563,44.01119],[6.8395,44.01184],[6.84712,44.01358],[6.85143,44.0173],[6.85469,44.01879],[6.85676,44.02045],[6.8576,44.02246],[6.85665,44.02388],[6.8568,44.0258],[6.8571,44.02652],[6.85928,44.0299],[6.85983,44.03034],[6.86099,44.03087],[6.86272,44.03139],[6.86306,44.03259],[6.86339,44.03402],[6.86342,44.03524],[6.86287,44.03652],[6.86133,44.03685],[6.86033,44.03702],[6.85952,44.03711],[6.8593,44.03725],[6.85901,44.03771],[6.85816,44.03963],[6.85777,44.04105],[6.85845,44.04102],[6.86315,44.03867],[6.86584,44.03626],[6.86691,44.0346],[6.87091,44.03147],[6.87213,44.03061],[6.87323,44.02985],[6.87485,44.02902],[6.87577,44.02885],[6.87666,44.02908],[6.88178,44.03126],[6.8867,44.03373],[6.88984,44.03387],[6.89084,44.03388],[6.89195,44.03365],[6.89458,44.03301],[6.90355,44.03264],[6.9038,44.03268],[6.90387,44.03272],[6.90529,44.0333],[6.90822,44.03485],[6.91168,44.03669],[6.91294,44.03867],[6.91279,44.03899],[6.91252,44.03993],[6.91201,44.04272],[6.91201,44.04349],[6.91217,44.04564],[6.91243,44.04645],[6.91276,44.04675],[6.91295,44.04674],[6.9133,44.0461],[6.91384,44.0454],[6.91414,44.0452],[6.91633,44.04435],[6.9173,44.04404],[6.92369,44.04335],[6.92625,44.04311],[6.92843,44.04332],[6.93054,44.04353],[6.9333,44.0438],[6.94002,44.04123],[6.94014,44.04118],[6.94011,44.04087],[6.94029,44.04068],[6.94228,44.04055],[6.94253,44.04055],[6.94324,44.04092],[6.94473,44.04077],[6.94865,44.03903],[6.94975,44.03854],[6.95003,44.03835],[6.95067,44.03846],[6.95521,44.03902],[6.95964,44.03915],[6.96372,44.03937],[6.9661,44.03995],[6.97054,44.04002],[6.97587,44.03951],[6.97638,44.03963],[6.97657,44.03962],[6.97784,44.03907],[6.97842,44.0386],[6.97843,44.03625],[6.97834,44.03585],[6.9778,44.03537],[6.97598,44.03212],[6.97642,44.02646],[6.97858,44.02304],[6.97911,44.02261],[6.98065,44.02059],[6.98165,44.01918],[6.98199,44.01777],[6.98197,44.01687],[6.9819,44.01598],[6.98197,44.01524],[6.9824,44.01189],[6.98292,44.01127],[6.98419,44.01018],[6.99083,44.00644],[6.99297,44.00492],[6.99435,44.00423],[6.99744,44.00293],[6.99865,44.00261],[6.99946,44.00258],[7.00052,44.00321],[7.00141,44.00349],[7.00229,44.00354],[7.00198,43.99964],[7.00158,43.99681],[7.00127,43.9929],[7.00139,43.99281],[7.00433,43.99202],[7.00561,43.99022],[7.00816,43.98527],[7.00984,43.98209],[7.01111,43.97984],[7.01116,43.9797],[7.00741,43.97894],[7.00645,43.97863],[7.00534,43.97799],[7.00538,43.97777],[7.00644,43.9752],[7.00728,43.97323],[7.00823,43.9726],[7.0095,43.97137],[7.01017,43.96982],[7.01066,43.96867],[7.0106,43.96809],[7.0104,43.96769],[7.00944,43.96661],[7.00879,43.96631],[7.00095,43.96233],[6.99483,43.95846],[6.99402,43.95785],[6.99334,43.95717],[6.99352,43.95706],[6.99602,43.95544],[6.99648,43.95505],[6.99638,43.95452],[6.99609,43.95394],[6.99613,43.95367],[6.99725,43.95209],[6.99748,43.95186],[6.99816,43.95183],[6.99935,43.95187],[7.00174,43.952],[7.00417,43.95237],[7.00598,43.95354],[7.00631,43.95389],[7.00671,43.95497],[7.0064,43.95658],[7.00626,43.95731],[7.00627,43.9574],[7.00818,43.95863],[7.0093,43.95926],[7.01156,43.96017],[7.01837,43.96042],[7.02077,43.95833],[7.02211,43.9572],[7.02818,43.95538],[7.03488,43.95188],[7.03951,43.94901],[7.04692,43.9473],[7.04995,43.94713],[7.05502,43.94714],[7.05577,43.94724],[7.05597,43.94732],[7.05534,43.94932],[7.05577,43.95291],[7.05908,43.95604],[7.06053,43.95831],[7.06151,43.96054],[7.06185,43.96164],[7.06205,43.96279],[7.06243,43.96506],[7.062,43.96669],[7.06191,43.96787],[7.06204,43.96881],[7.06244,43.96991],[7.06251,43.97004],[7.0646,43.97181],[7.06689,43.97374],[7.06995,43.97569],[7.07272,43.97742],[7.07417,43.97854],[7.07564,43.97969],[7.07874,43.98561],[7.0789,43.98618],[7.07914,43.98905],[7.07919,43.99058],[7.07893,43.99113],[7.0786,43.99169],[7.07859,43.99228],[7.07878,43.99321],[7.07925,43.99361],[7.07977,43.99395],[7.07937,43.99428],[7.07378,43.99798],[7.07252,44.00091],[7.0719,44.00176],[7.07073,44.0027],[7.07012,44.00287],[7.07067,44.00352],[7.07099,44.00436],[7.07095,44.00531],[7.06985,44.00572],[7.06769,44.00692],[7.06482,44.00894],[7.06347,44.01031],[7.06182,44.01227],[7.06145,44.01312],[7.06097,44.01429],[7.06073,44.01502],[7.05933,44.01677],[7.05674,44.01915],[7.05528,44.02038],[7.05397,44.02111],[7.05267,44.02221],[7.0529,44.02278],[7.05518,44.02672],[7.05775,44.03104],[7.058,44.03221],[7.05921,44.03798],[7.05937,44.0405],[7.05875,44.04124],[7.05799,44.04195],[7.05587,44.04357],[7.05539,44.04378],[7.0539,44.04388],[7.05352,44.04399],[7.05283,44.0446],[7.05131,44.0466],[7.05073,44.04887],[7.05077,44.04932],[7.05105,44.04985],[7.05255,44.05133],[7.05322,44.0518],[7.05438,44.05238],[7.05485,44.05286],[7.05485,44.05344],[7.0543,44.05523],[7.05403,44.05592],[7.05285,44.05687],[7.05029,44.05823],[7.04826,44.05958],[7.04766,44.0606],[7.04863,44.06091],[7.0538,44.06476],[7.0587,44.06735],[7.06534,44.0714],[7.06622,44.07213],[7.06743,44.07185],[7.06779,44.07161],[7.06823,44.07097],[7.06895,44.07035],[7.07021,44.06972],[7.07063,44.06956],[7.07224,44.06926],[7.07296,44.06915],[7.07722,44.06969],[7.08264,44.07061],[7.08302,44.07067],[7.08334,44.07074],[7.0832,44.06967],[7.08312,44.06624],[7.0854,44.06358],[7.08655,44.06376],[7.08864,44.06412],[7.09048,44.0645],[7.09094,44.06479],[7.09243,44.06594],[7.09684,44.06899],[7.1055,44.07023],[7.10727,44.07042],[7.10846,44.07051],[7.1091,44.07048],[7.10989,44.07014],[7.11022,44.06972],[7.1118,44.06764],[7.11288,44.06469],[7.11305,44.0645],[7.11385,44.06424],[7.11396,44.06414],[7.11697,44.05881],[7.11758,44.05714],[7.12182,44.05305],[7.12688,44.05007],[7.12761,44.04962],[7.1284,44.04752],[7.12842,44.04586],[7.12814,44.04538],[7.12789,44.04535],[7.12756,44.04509],[7.12738,44.0446],[7.12775,44.04378],[7.12773,44.04351],[7.12763,44.0373],[7.13078,44.03037],[7.13219,44.02529],[7.13223,44.02475],[7.13134,44.0189],[7.13134,44.01407],[7.13147,44.01383],[7.13156,44.01334],[7.13448,44.00811],[7.13523,44.00711],[7.13624,44.00535],[7.13664,44.00301],[7.13617,43.99708],[7.13579,43.99148],[7.13534,43.98615],[7.13642,43.98365],[7.13837,43.98184],[7.13845,43.97895],[7.13795,43.97591],[7.14003,43.97298],[7.14037,43.97252],[7.14071,43.97232],[7.14189,43.97214],[7.14302,43.97223],[7.1442,43.97217],[7.14531,43.97203],[7.14604,43.97169],[7.14661,43.97103],[7.14908,43.96699],[7.15128,43.96408],[7.15146,43.96389],[7.15192,43.96337],[7.15202,43.9631],[7.15511,43.95797],[7.15742,43.95588],[7.15805,43.95513],[7.15835,43.95426],[7.15933,43.95089],[7.16078,43.94562],[7.16104,43.9408],[7.16357,43.93902],[7.167,43.93738],[7.17487,43.93362],[7.1814,43.92999],[7.18629,43.92748],[7.18683,43.92721],[7.18752,43.92624],[7.18776,43.92521],[7.18775,43.92485],[7.1875,43.92339],[7.18969,43.91911],[7.19002,43.91874],[7.19006,43.91833],[7.18936,43.91661],[7.18718,43.91447],[7.18505,43.9126],[7.18482,43.91224],[7.18484,43.9117],[7.18567,43.91126],[7.1935,43.9094],[7.19505,43.90775],[7.19534,43.90742],[7.1956,43.90683],[7.19585,43.90461],[7.19323,43.90368],[7.19098,43.90288],[7.18825,43.9007],[7.188,43.90007],[7.18811,43.89984],[7.18927,43.89818],[7.19039,43.89727],[7.18851,43.89469],[7.18797,43.89422],[7.18784,43.89345],[7.18792,43.88946],[7.18928,43.88668],[7.1897,43.88589],[7.18997,43.88515],[7.19004,43.88384],[7.18982,43.88269],[7.18958,43.88184],[7.18916,43.88048],[7.18829,43.87935],[7.18871,43.8787],[7.18921,43.8783],[7.19088,43.87761],[7.19137,43.87723],[7.19187,43.87684],[7.1922,43.87634],[7.19484,43.87205],[7.19771,43.86932],[7.19805,43.86809],[7.19808,43.86633],[7.19771,43.86377],[7.19719,43.86047],[7.19687,43.86014],[7.19586,43.8594],[7.19534,43.85855],[7.19508,43.85771],[7.19508,43.85695],[7.19532,43.85622],[7.19659,43.85481],[7.19609,43.85027],[7.19584,43.84943],[7.19589,43.8479],[7.196,43.84758],[7.19599,43.84677],[7.19559,43.84566],[7.19485,43.84424],[7.19441,43.8434],[7.19381,43.84141],[7.19261,43.83816],[7.19177,43.83635],[7.19154,43.83556],[7.19127,43.83447],[7.19108,43.83354],[7.19079,43.83316],[7.18898,43.82799],[7.18756,43.82386],[7.18497,43.82241],[7.18512,43.82107],[7.1857,43.81674],[7.18584,43.81572],[7.18615,43.81417],[7.18624,43.81371],[7.18664,43.81313],[7.18693,43.8127],[7.18695,43.81267],[7.18698,43.81263],[7.18704,43.81256],[7.18816,43.81135],[7.18915,43.81032],[7.18923,43.81023],[7.19081,43.80872],[7.19216,43.80744],[7.19266,43.80698],[7.19407,43.80568],[7.19461,43.80518],[7.18988,43.80243],[7.1869,43.80166],[7.1857,43.80145],[7.18413,43.80119],[7.18187,43.80098],[7.17571,43.79935],[7.17481,43.79912],[7.17124,43.79818],[7.16745,43.79753],[7.16393,43.79758],[7.16168,43.79717],[7.15977,43.7964],[7.15857,43.79538],[7.15796,43.79464],[7.15716,43.79346],[7.15328,43.79002],[7.15212,43.78943],[7.14856,43.78787],[7.14498,43.78361],[7.14361,43.78141],[7.14333,43.78156],[7.13978,43.78372],[7.13458,43.78896],[7.13433,43.78956],[7.13324,43.79064],[7.13299,43.79083],[7.13267,43.79058],[7.13223,43.79046],[7.13167,43.79061],[7.13135,43.79059],[7.13107,43.79024],[7.13013,43.78919],[7.12957,43.78813],[7.12868,43.78674],[7.12749,43.78583],[7.1258,43.78487],[7.12406,43.78413],[7.12149,43.7832],[7.11773,43.78273],[7.11446,43.78113],[7.11208,43.7799],[7.11098,43.77941],[7.11037,43.77957],[7.11009,43.77994],[7.10653,43.78139],[7.10264,43.7825],[7.10101,43.78221],[7.09535,43.78119],[7.08909,43.78109],[7.0886,43.78111],[7.08824,43.78073],[7.08804,43.78029],[7.08838,43.77909],[7.08837,43.77833],[7.08812,43.77761],[7.08746,43.77692],[7.08532,43.77588],[7.08371,43.77528],[7.08213,43.77489],[7.08043,43.7746],[7.07921,43.77425],[7.0787,43.77396],[7.0779,43.7733],[7.07412,43.76954],[7.07317,43.7686],[7.07295,43.7682],[7.07308,43.76749],[7.07334,43.76682],[7.07399,43.76636],[7.07475,43.76506],[7.07523,43.76319],[7.07521,43.76229],[7.07496,43.76144],[7.07429,43.7608],[7.07201,43.75953],[7.06515,43.75536],[7.06094,43.75339],[7.05605,43.75113],[7.05573,43.75106],[7.05555,43.75125],[7.0544,43.75071],[7.05289,43.74969],[7.05284,43.74924],[7.05259,43.74763],[7.05197,43.74671],[7.05109,43.74747],[7.04832,43.74632],[7.04152,43.74312],[7.03835,43.74148],[7.03173,43.74001],[7.0294,43.73824],[7.02749,43.73609],[7.02451,43.73127],[7.01508,43.73147],[7.00611,43.72972],[6.99844,43.73188],[6.99802,43.73199],[6.99781,43.73164],[6.99644,43.72917],[6.99372,43.72451],[6.99204,43.72065],[6.99087,43.71776],[6.99075,43.71619],[6.99082,43.71376],[6.99092,43.71344],[6.9901,43.71325],[6.98841,43.71296],[6.98594,43.71279],[6.98371,43.71275],[6.98248,43.71279],[6.98085,43.71349],[6.97885,43.71425],[6.97855,43.71431],[6.97672,43.71299],[6.97637,43.7125],[6.97625,43.71188],[6.9764,43.71056],[6.97664,43.70974],[6.9774,43.70903],[6.97837,43.70796],[6.98005,43.70555],[6.97963,43.70394],[6.97391,43.70346],[6.96716,43.70275],[6.96507,43.70232],[6.96337,43.7019],[6.96247,43.70149],[6.9614,43.70058],[6.9611,43.70009],[6.96072,43.69985],[6.95984,43.6997],[6.95915,43.69969],[6.95854,43.69985],[6.95494,43.70144],[6.95425,43.70209],[6.95353,43.70329],[6.95333,43.70395],[6.95315,43.70489],[6.95282,43.7054],[6.95148,43.7059],[6.95113,43.70596],[6.94921,43.7054],[6.94813,43.705],[6.94424,43.70261],[6.94083,43.70056],[6.93999,43.70015],[6.93589,43.69924],[6.93081,43.69802],[6.92952,43.69766],[6.92843,43.69737],[6.92737,43.69738],[6.92684,43.69754],[6.92646,43.70053],[6.92641,43.70362],[6.92577,43.7083],[6.92459,43.71375],[6.92417,43.71604],[6.92399,43.71593],[6.91686,43.7143],[6.91197,43.71358],[6.90276,43.71292],[6.89922,43.71308],[6.89753,43.71277],[6.89478,43.7127],[6.88932,43.71274],[6.88864,43.71285],[6.88546,43.71357],[6.88194,43.71471],[6.88086,43.71511],[6.88009,43.71564],[6.87737,43.7175],[6.8759,43.7186],[6.87021,43.72234],[6.86694,43.72419],[6.86397,43.72593],[6.86486,43.72769],[6.86562,43.72874],[6.86603,43.72926],[6.86681,43.72982],[6.86887,43.73075],[6.86999,43.73164],[6.87077,43.73235],[6.87149,43.73315],[6.87194,43.73422],[6.87051,43.73508],[6.86629,43.73683],[6.85794,43.73508],[6.8489,43.73315],[6.84111,43.73111],[6.84041,43.73087],[6.84025,43.728],[6.83795,43.72717],[6.83678,43.72675],[6.8317,43.72577],[6.82379,43.72382],[6.81617,43.72331],[6.81473,43.72364],[6.81164,43.72423],[6.80737,43.72204],[6.80598,43.72097],[6.80578,43.71909],[6.80426,43.71248],[6.80277,43.71203],[6.80142,43.7116],[6.79963,43.7097],[6.79756,43.7066],[6.79433,43.70303],[6.79098,43.7011],[6.7907,43.7009],[6.78902,43.69928],[6.78774,43.69731],[6.78713,43.69544],[6.78727,43.69507],[6.78724,43.69462],[6.7873,43.69461],[6.7878,43.6945],[6.78833,43.69426],[6.7891,43.69373],[6.78984,43.69271],[6.79021,43.69193],[6.79025,43.69179],[6.7909,43.68942],[6.79069,43.68682],[6.79098,43.6864],[6.79185,43.68564],[6.79353,43.68491],[6.79863,43.6834],[6.80587,43.68139],[6.81121,43.6785],[6.81769,43.67507],[6.82075,43.67293],[6.82165,43.6723],[6.82205,43.672],[6.82651,43.66901],[6.82944,43.66782],[6.83063,43.667],[6.83236,43.66536],[6.83475,43.6631],[6.83582,43.6623],[6.83666,43.66206],[6.8381,43.6619],[6.84123,43.66189],[6.84201,43.66189],[6.84594,43.66191],[6.84863,43.6617],[6.84985,43.6615],[6.84642,43.65151],[6.84684,43.65],[6.84656,43.6493]],[[6.77478,43.69393],[6.77487,43.69402],[6.7747,43.69385],[6.77478,43.69393]]]]},"properties":{"ID":"64","id":"64","NOM_MASSIF":"MOYEN PAYS OUEST","dept":"06"}},{"type":"Feature","id":5,"geometry":{"type":"MultiPolygon","coordinates":[[[[7.05315,43.50863],[7.05538,43.508],[7.05531,43.50734],[7.05382,43.50669],[7.05153,43.50677],[7.048,43.50543],[7.04756,43.50478],[7.04744,43.50564],[7.04635,43.5059],[7.04433,43.50601],[7.04049,43.50614],[7.03819,43.50662],[7.03667,43.50749],[7.03701,43.50868],[7.04059,43.50916],[7.04456,43.5093],[7.04664,43.50922],[7.0476,43.50943],[7.04823,43.50912],[7.05163,43.50931],[7.05192,43.509],[7.05307,43.50908],[7.05315,43.50863]]],[[[7.03403,43.52262],[7.04535,43.52296],[7.05576,43.52046],[7.06447,43.5193],[7.07088,43.51736],[7.0708,43.5171],[7.07045,43.51667],[7.06977,43.51588],[7.06744,43.51377],[7.06711,43.51365],[7.06695,43.51374],[7.06,43.51529],[7.05492,43.5157],[7.04929,43.51548],[7.0491,43.51544],[7.04836,43.5154],[7.04666,43.51549],[7.04528,43.51559],[7.04279,43.51582],[7.04157,43.51615],[7.03525,43.51789],[7.03256,43.52028],[7.03403,43.52262]]],[[[7.05575,43.54779],[7.05507,43.54742],[7.05332,43.54689],[7.05108,43.54673],[7.04775,43.5461],[7.04157,43.54248],[7.04132,43.54231],[7.04045,43.54158],[7.04011,43.5412],[7.03973,43.54036],[7.03956,43.53968],[7.0392,43.53825],[7.03634,43.53705],[7.03417,43.53891],[7.0343,43.54225],[7.0339,43.54339],[7.03233,43.54551],[7.02925,43.5474],[7.02661,43.54861],[7.02365,43.54945],[7.01657,43.55077],[7.01571,43.55086],[7.01483,43.55086],[7.01276,43.55048],[7.00401,43.54863],[6.99714,43.54887],[6.99373,43.54888],[6.98899,43.54858],[6.98725,43.54842],[6.98205,43.54761],[6.97985,43.54724],[6.97784,43.54683],[6.9743,43.54608],[6.97183,43.54545],[6.96909,43.54452],[6.96653,43.54351],[6.96333,43.54216],[6.9598,43.54027],[6.95901,43.5398],[6.95763,43.53891],[6.95515,43.53717],[6.95217,43.53472],[6.95157,43.53411],[6.95151,43.53411],[6.95119,43.5349],[6.95142,43.53628],[6.9525,43.53826],[6.95299,43.53892],[6.95439,43.54017],[6.95617,43.54176],[6.95729,43.54321],[6.95764,43.54382],[6.95762,43.54432],[6.95727,43.54457],[6.95666,43.54468],[6.95561,43.54472],[6.95447,43.54436],[6.95402,43.54415],[6.95293,43.54375],[6.95243,43.54372],[6.95065,43.54393],[6.94963,43.54442],[6.94964,43.54456],[6.94988,43.5459],[6.95037,43.54802],[6.9525,43.55016],[6.95551,43.55139],[6.95622,43.5534],[6.95589,43.55566],[6.95422,43.56175],[6.9504,43.56729],[6.94517,43.57084],[6.94456,43.57114],[6.94425,43.57115],[6.9426,43.57131],[6.94175,43.57084],[6.9396,43.57188],[6.93993,43.57376],[6.93644,43.57688],[6.93241,43.5804],[6.92967,43.58296],[6.92981,43.58318],[6.93421,43.5863],[6.9352,43.58715],[6.93655,43.58863],[6.94121,43.59363],[6.94379,43.59642],[6.9438,43.5966],[6.94385,43.59812],[6.94366,43.59889],[6.94322,43.59945],[6.93971,43.60187],[6.93586,43.60471],[6.93452,43.60575],[6.93454,43.60593],[6.93501,43.60812],[6.93546,43.60991],[6.9358,43.61021],[6.93613,43.61074],[6.93629,43.6119],[6.93618,43.61281],[6.93551,43.61459],[6.93522,43.61492],[6.93416,43.61555],[6.93371,43.6153],[6.9294,43.6134],[6.92934,43.6135],[6.92746,43.61641],[6.92513,43.61916],[6.91895,43.62301],[6.91598,43.6235],[6.91351,43.62392],[6.90793,43.62311],[6.90305,43.62339],[6.90249,43.62341],[6.90192,43.62321],[6.90167,43.62318],[6.90161,43.62317],[6.90119,43.62338],[6.90113,43.62342],[6.89716,43.62631],[6.89709,43.62643],[6.89376,43.6315],[6.89424,43.63637],[6.89384,43.63982],[6.89332,43.64231],[6.89337,43.64547],[6.89356,43.64716],[6.89163,43.64768],[6.89069,43.648],[6.88987,43.64859],[6.88955,43.64981],[6.88905,43.6505],[6.888,43.65095],[6.88698,43.65099],[6.88364,43.65092],[6.88089,43.65015],[6.87606,43.64814],[6.87274,43.64727],[6.87005,43.64739],[6.86917,43.64655],[6.86899,43.6463],[6.86899,43.64626],[6.86655,43.64629],[6.86442,43.64642],[6.86213,43.64433],[6.85987,43.64153],[6.86108,43.63869],[6.86112,43.63717],[6.8604,43.63687],[6.85945,43.63759],[6.85752,43.63935],[6.85678,43.6401],[6.85615,43.64096],[6.85078,43.64524],[6.84773,43.64658],[6.8465,43.64723],[6.84518,43.64833],[6.8459,43.64871],[6.84654,43.64924],[6.84656,43.6493],[6.84684,43.65],[6.84642,43.65151],[6.84985,43.6615],[6.84863,43.6617],[6.84594,43.66191],[6.84201,43.66189],[6.84123,43.66189],[6.8381,43.6619],[6.83666,43.66206],[6.83582,43.6623],[6.83475,43.6631],[6.83236,43.66536],[6.83063,43.667],[6.82944,43.66782],[6.82651,43.66901],[6.82205,43.672],[6.82165,43.6723],[6.82075,43.67293],[6.81769,43.67507],[6.81121,43.6785],[6.80587,43.68139],[6.79863,43.6834],[6.79353,43.68491],[6.79185,43.68564],[6.79098,43.6864],[6.79069,43.68682],[6.7909,43.68942],[6.79025,43.69179],[6.79021,43.69193],[6.78984,43.69271],[6.7891,43.69373],[6.78833,43.69426],[6.7878,43.6945],[6.7873,43.69461],[6.78724,43.69462],[6.78727,43.69507],[6.78713,43.69544],[6.78714,43.69548],[6.78745,43.69642],[6.78774,43.69731],[6.78826,43.69812],[6.78902,43.69928],[6.78909,43.69935],[6.79054,43.70074],[6.7907,43.7009],[6.79094,43.70108],[6.79098,43.7011],[6.79433,43.70303],[6.79711,43.7061],[6.79756,43.7066],[6.79855,43.70809],[6.79963,43.7097],[6.80142,43.7116],[6.80277,43.71203],[6.80293,43.71208],[6.80426,43.71248],[6.80578,43.71909],[6.80598,43.72097],[6.80737,43.72204],[6.81164,43.72423],[6.81473,43.72364],[6.81617,43.72331],[6.82379,43.72382],[6.8317,43.72577],[6.83678,43.72675],[6.83795,43.72717],[6.84025,43.728],[6.84041,43.73087],[6.84111,43.73111],[6.8489,43.73315],[6.85794,43.73508],[6.86629,43.73683],[6.87051,43.73508],[6.87194,43.73422],[6.87149,43.73315],[6.87077,43.73235],[6.86999,43.73164],[6.86887,43.73075],[6.86681,43.72982],[6.86603,43.72926],[6.86562,43.72874],[6.86486,43.72769],[6.86397,43.72593],[6.86694,43.72419],[6.87021,43.72234],[6.8759,43.7186],[6.87737,43.7175],[6.88009,43.71564],[6.88086,43.71511],[6.88194,43.71471],[6.88546,43.71357],[6.88864,43.71285],[6.88932,43.71274],[6.89478,43.7127],[6.89753,43.71277],[6.89922,43.71308],[6.90276,43.71292],[6.91197,43.71358],[6.91686,43.7143],[6.92399,43.71593],[6.92417,43.71604],[6.92459,43.71375],[6.92577,43.7083],[6.92641,43.70362],[6.92646,43.70053],[6.92684,43.69754],[6.92737,43.69738],[6.92843,43.69737],[6.92952,43.69766],[6.93081,43.69802],[6.93589,43.69924],[6.93999,43.70015],[6.94083,43.70056],[6.94424,43.70261],[6.94813,43.705],[6.94921,43.7054],[6.95113,43.70596],[6.95148,43.7059],[6.95282,43.7054],[6.95315,43.70489],[6.95333,43.70395],[6.95353,43.70329],[6.95425,43.70209],[6.95494,43.70144],[6.95854,43.69985],[6.95915,43.69969],[6.95984,43.6997],[6.96072,43.69985],[6.9611,43.70009],[6.9614,43.70058],[6.96247,43.70149],[6.96337,43.7019],[6.96382,43.70201],[6.96507,43.70232],[6.96716,43.70275],[6.96747,43.70278],[6.97033,43.70308],[6.97391,43.70346],[6.97878,43.70387],[6.97963,43.70394],[6.98,43.70535],[6.98005,43.70555],[6.97902,43.70702],[6.97837,43.70796],[6.9774,43.70903],[6.97664,43.70974],[6.97652,43.71017],[6.9764,43.71056],[6.9763,43.7115],[6.97625,43.71188],[6.97637,43.7125],[6.97645,43.71261],[6.97672,43.71299],[6.97855,43.71431],[6.97885,43.71425],[6.98018,43.71375],[6.98021,43.71374],[6.9817,43.7135],[6.98282,43.71302],[6.98431,43.71299],[6.98594,43.71279],[6.98841,43.71296],[6.9901,43.71325],[6.99092,43.71344],[6.99092,43.71345],[6.99082,43.71376],[6.99081,43.71418],[6.99075,43.71619],[6.99083,43.71714],[6.99086,43.71758],[6.99087,43.71776],[6.99202,43.72062],[6.99143,43.71915],[6.99143,43.71916],[6.99121,43.7186],[6.99139,43.71911],[6.99204,43.72065],[6.99365,43.72436],[6.99372,43.72451],[6.99417,43.72528],[6.99644,43.72917],[6.99693,43.73006],[6.99701,43.7302],[6.99781,43.73164],[6.99802,43.73199],[6.99844,43.73188],[7.00346,43.73047],[7.00611,43.72972],[7.01508,43.73147],[7.02451,43.73127],[7.02749,43.73609],[7.0294,43.73824],[7.03173,43.74001],[7.03835,43.74148],[7.04152,43.74312],[7.04832,43.74632],[7.05109,43.74747],[7.05197,43.74671],[7.05259,43.74763],[7.05284,43.74924],[7.05289,43.74969],[7.0544,43.75071],[7.05555,43.75125],[7.05573,43.75106],[7.05605,43.75113],[7.06094,43.75339],[7.06515,43.75536],[7.07201,43.75953],[7.07429,43.7608],[7.07496,43.76144],[7.07521,43.76229],[7.07523,43.76319],[7.07475,43.76506],[7.07399,43.76636],[7.07334,43.76682],[7.07308,43.76749],[7.07295,43.7682],[7.07317,43.7686],[7.07412,43.76954],[7.0779,43.7733],[7.0787,43.77396],[7.07921,43.77425],[7.08043,43.7746],[7.08213,43.77489],[7.08371,43.77528],[7.08532,43.77588],[7.08746,43.77692],[7.08812,43.77761],[7.08837,43.77833],[7.08838,43.77909],[7.08804,43.78029],[7.08824,43.78073],[7.0886,43.78111],[7.08909,43.78109],[7.09535,43.78119],[7.10101,43.78221],[7.10264,43.7825],[7.10653,43.78139],[7.11009,43.77994],[7.11037,43.77957],[7.11084,43.77945],[7.11098,43.77941],[7.11091,43.77923],[7.11038,43.77632],[7.11062,43.77259],[7.11255,43.76712],[7.11682,43.76144],[7.11848,43.75813],[7.12478,43.75516],[7.1274,43.7537],[7.12799,43.7533],[7.12899,43.75264],[7.12903,43.75236],[7.12922,43.75091],[7.12938,43.75046],[7.12973,43.74956],[7.13069,43.74829],[7.13287,43.74562],[7.13403,43.74422],[7.13568,43.73842],[7.13477,43.73721],[7.13441,43.73653],[7.13438,43.73617],[7.13561,43.73445],[7.13578,43.73422],[7.13692,43.73374],[7.13706,43.73241],[7.13712,43.72629],[7.13721,43.72574],[7.1382,43.72412],[7.14056,43.72217],[7.14128,43.72299],[7.14137,43.72411],[7.14214,43.72521],[7.14282,43.72586],[7.14424,43.72656],[7.14448,43.72646],[7.14597,43.72573],[7.14713,43.72469],[7.14592,43.72106],[7.1436,43.71708],[7.14294,43.71358],[7.14292,43.71151],[7.14342,43.70794],[7.14269,43.7046],[7.14164,43.70115],[7.14166,43.70075],[7.14192,43.70006],[7.14112,43.69947],[7.14048,43.69904],[7.14024,43.69812],[7.14013,43.69692],[7.14033,43.69586],[7.14116,43.69455],[7.14272,43.69308],[7.14301,43.69285],[7.1436,43.69161],[7.14322,43.69162],[7.14297,43.69159],[7.14101,43.691],[7.13721,43.68714],[7.134,43.68431],[7.13295,43.68278],[7.13259,43.68215],[7.1318,43.67922],[7.13201,43.67732],[7.13261,43.67548],[7.13285,43.6747],[7.13126,43.67414],[7.12793,43.67361],[7.12492,43.6736],[7.12402,43.67364],[7.12374,43.67329],[7.12349,43.67314],[7.12079,43.67248],[7.1206,43.67058],[7.12077,43.67039],[7.12212,43.66785],[7.12355,43.66477],[7.12413,43.66407],[7.12719,43.66133],[7.12863,43.66014],[7.13012,43.65368],[7.1355,43.64962],[7.1413,43.64565],[7.14471,43.64301],[7.14524,43.64249],[7.14549,43.64185],[7.14424,43.64162],[7.14362,43.64102],[7.13927,43.63609],[7.13606,43.63035],[7.13444,43.62723],[7.13301,43.62415],[7.13174,43.62134],[7.13112,43.61987],[7.13009,43.6178],[7.12967,43.6165],[7.12849,43.61263],[7.12688,43.6072],[7.12647,43.60528],[7.12613,43.60087],[7.12603,43.59919],[7.12581,43.5952],[7.12581,43.59458],[7.123,43.5883],[7.12377,43.58611],[7.12547,43.58413],[7.12898,43.58303],[7.12969,43.58265],[7.12935,43.58162],[7.12744,43.57846],[7.12488,43.57521],[7.12491,43.57415],[7.12501,43.57382],[7.12571,43.57317],[7.12877,43.57108],[7.1319,43.56916],[7.13599,43.56989],[7.13885,43.57],[7.13927,43.56791],[7.13924,43.56445],[7.13755,43.5606],[7.1363,43.55926],[7.13572,43.55823],[7.13479,43.55575],[7.13507,43.55508],[7.13569,43.55453],[7.1364,43.55419],[7.13701,43.55407],[7.1378,43.55458],[7.1387,43.55503],[7.13953,43.55541],[7.14052,43.55541],[7.14179,43.55461],[7.14417,43.55295],[7.14503,43.55206],[7.14508,43.55188],[7.14507,43.55165],[7.13861,43.54702],[7.1385,43.54562],[7.13515,43.54427],[7.13342,43.544],[7.13065,43.54366],[7.12927,43.54421],[7.12576,43.54443],[7.12162,43.5439],[7.12124,43.54319],[7.1192,43.54446],[7.11793,43.54764],[7.11986,43.55123],[7.12162,43.55419],[7.12184,43.55774],[7.12175,43.5595],[7.1212,43.56003],[7.1206,43.56049],[7.1196,43.56107],[7.11459,43.56583],[7.11405,43.56636],[7.11294,43.56703],[7.11109,43.56784],[7.10467,43.56995],[7.10127,43.57068],[7.09985,43.57083],[7.09626,43.57089],[7.09514,43.57081],[7.0905,43.57019],[7.08724,43.56987],[7.0865,43.56982],[7.08575,43.56975],[7.08431,43.56954],[7.082,43.56865],[7.07566,43.56608],[7.07354,43.56515],[7.07104,43.56392],[7.06941,43.563],[7.06757,43.56164],[7.06655,43.56061],[7.06551,43.55945],[7.06032,43.55373],[7.05861,43.55152],[7.05788,43.5505],[7.0578,43.55032],[7.05765,43.54997],[7.05594,43.54797],[7.05575,43.54779]]]]},"properties":{"ID":"65","id":"65","NOM_MASSIF":"LITTORAL OUEST","dept":"06"}},{"type":"Feature","id":6,"geometry":{"type":"MultiPolygon","coordinates":[[[[6.92066,43.48207],[6.91594,43.48232],[6.91423,43.48258],[6.91381,43.48277],[6.91292,43.48732],[6.91259,43.49189],[6.9099,43.49321],[6.90621,43.49435],[6.90546,43.49433],[6.90422,43.49492],[6.90392,43.49507],[6.90386,43.49507],[6.90297,43.49517],[6.90059,43.49543],[6.89966,43.49619],[6.89953,43.49674],[6.89919,43.49721],[6.89759,43.4983],[6.89363,43.50059],[6.88565,43.50234],[6.88423,43.50254],[6.88472,43.50409],[6.88773,43.50853],[6.89171,43.51304],[6.89475,43.51785],[6.89568,43.52264],[6.89638,43.52716],[6.8906,43.52769],[6.88812,43.52758],[6.88701,43.52771],[6.88193,43.5291],[6.87993,43.53224],[6.87987,43.53237],[6.87914,43.53245],[6.87939,43.53487],[6.87954,43.53536],[6.88081,43.53653],[6.88137,43.53732],[6.88226,43.53931],[6.88307,43.5418],[6.88384,43.54542],[6.88497,43.54875],[6.88573,43.54999],[6.8869,43.55156],[6.8878,43.55274],[6.89763,43.55744],[6.89791,43.55775],[6.89801,43.55823],[6.89896,43.5613],[6.90104,43.56384],[6.90292,43.5648],[6.90664,43.56415],[6.90719,43.56409],[6.90845,43.56651],[6.90888,43.56739],[6.90878,43.56858],[6.90717,43.57296],[6.90316,43.57572],[6.90002,43.57812],[6.89878,43.57961],[6.89843,43.58156],[6.89891,43.58223],[6.89977,43.58291],[6.90251,43.58711],[6.90375,43.5896],[6.90485,43.59172],[6.9072,43.59372],[6.90797,43.59412],[6.90904,43.59475],[6.91025,43.59587],[6.91099,43.5966],[6.9117,43.59776],[6.91199,43.59833],[6.91155,43.59826],[6.91056,43.59829],[6.9095,43.59839],[6.90879,43.59859],[6.90801,43.59908],[6.90217,43.60341],[6.89846,43.60631],[6.89523,43.60938],[6.89463,43.60998],[6.89443,43.61049],[6.89447,43.61102],[6.89427,43.61153],[6.89397,43.61168],[6.89329,43.61171],[6.8929,43.61145],[6.89065,43.60972],[6.88846,43.60784],[6.88793,43.60741],[6.88729,43.60717],[6.88534,43.6067],[6.88299,43.60644],[6.88269,43.60623],[6.88125,43.60601],[6.88082,43.60603],[6.87661,43.60697],[6.87368,43.60758],[6.87294,43.60766],[6.87231,43.60749],[6.87134,43.60686],[6.86879,43.60533],[6.86737,43.6045],[6.86342,43.60513],[6.85933,43.60892],[6.85578,43.60956],[6.85349,43.60716],[6.85032,43.60824],[6.84737,43.60988],[6.84102,43.6128],[6.84028,43.61296],[6.83878,43.61361],[6.83867,43.6138],[6.83887,43.61415],[6.83926,43.61436],[6.83999,43.61555],[6.83875,43.61741],[6.83846,43.61764],[6.83491,43.61994],[6.82979,43.62195],[6.82719,43.6221],[6.82519,43.62277],[6.82467,43.62309],[6.82461,43.62318],[6.82516,43.62493],[6.82529,43.62517],[6.82675,43.62788],[6.82994,43.62979],[6.83078,43.6303],[6.8321,43.63132],[6.83239,43.63175],[6.83297,43.63282],[6.83327,43.63358],[6.83331,43.63416],[6.8378,43.6407],[6.84146,43.64497],[6.8448,43.64808],[6.84518,43.64833],[6.8465,43.64723],[6.84773,43.64658],[6.85078,43.64524],[6.85615,43.64096],[6.85678,43.6401],[6.85752,43.63935],[6.85945,43.63759],[6.8604,43.63687],[6.86112,43.63717],[6.86108,43.63869],[6.85987,43.64153],[6.86213,43.64433],[6.86442,43.64642],[6.86655,43.64629],[6.86899,43.64626],[6.86899,43.6463],[6.86917,43.64655],[6.87005,43.64739],[6.87274,43.64727],[6.87606,43.64814],[6.88089,43.65015],[6.88364,43.65092],[6.88698,43.65099],[6.888,43.65095],[6.88905,43.6505],[6.88955,43.64981],[6.88987,43.64859],[6.89069,43.648],[6.89163,43.64768],[6.89356,43.64716],[6.89337,43.64547],[6.89332,43.64231],[6.89384,43.63982],[6.89424,43.63637],[6.89376,43.6315],[6.89709,43.62643],[6.89716,43.62631],[6.90113,43.62342],[6.90125,43.62317],[6.90164,43.62316],[6.90167,43.62318],[6.90192,43.62321],[6.90249,43.62341],[6.90305,43.62339],[6.90793,43.62311],[6.91351,43.62392],[6.91598,43.6235],[6.91895,43.62301],[6.92513,43.61916],[6.92746,43.61641],[6.92934,43.6135],[6.9294,43.6134],[6.93371,43.6153],[6.93416,43.61555],[6.93522,43.61492],[6.93551,43.61459],[6.93618,43.61281],[6.93629,43.6119],[6.93613,43.61074],[6.9358,43.61021],[6.93546,43.60991],[6.93501,43.60812],[6.93454,43.60593],[6.93452,43.60575],[6.93586,43.60471],[6.93971,43.60187],[6.94322,43.59945],[6.94366,43.59889],[6.94385,43.59812],[6.9438,43.5966],[6.94379,43.59642],[6.94121,43.59363],[6.93655,43.58863],[6.9352,43.58715],[6.93421,43.5863],[6.92981,43.58318],[6.92967,43.58296],[6.93241,43.5804],[6.93644,43.57688],[6.93993,43.57376],[6.9396,43.57188],[6.94175,43.57084],[6.9426,43.57131],[6.94425,43.57115],[6.94456,43.57114],[6.94517,43.57084],[6.9504,43.56729],[6.95422,43.56175],[6.95589,43.55566],[6.95622,43.5534],[6.95551,43.55139],[6.9525,43.55016],[6.95037,43.54802],[6.94988,43.5459],[6.94964,43.54456],[6.94963,43.54442],[6.95065,43.54393],[6.95243,43.54372],[6.95293,43.54375],[6.95402,43.54415],[6.95447,43.54436],[6.95561,43.54472],[6.95666,43.54468],[6.95727,43.54457],[6.95762,43.54432],[6.95764,43.54382],[6.95729,43.54321],[6.95617,43.54176],[6.95439,43.54017],[6.95299,43.53892],[6.9525,43.53826],[6.95142,43.53628],[6.95119,43.5349],[6.95151,43.53411],[6.95157,43.53411],[6.95154,43.53361],[6.94951,43.5304],[6.94508,43.52521],[6.94134,43.52037],[6.94075,43.51953],[6.93903,43.51708],[6.93837,43.51639],[6.93841,43.51607],[6.9381,43.51393],[6.93743,43.51066],[6.93741,43.51035],[6.93783,43.50947],[6.93839,43.50863],[6.93869,43.5084],[6.93941,43.5081],[6.9432,43.50678],[6.94495,43.50625],[6.94673,43.50591],[6.94989,43.50592],[6.95155,43.50596],[6.95475,43.50472],[6.95628,43.50129],[6.95605,43.49985],[6.95511,43.49815],[6.95321,43.49685],[6.94899,43.49348],[6.94798,43.48832],[6.94809,43.48814],[6.94864,43.48582],[6.94708,43.48436],[6.94442,43.48403],[6.94094,43.48444],[6.93932,43.48448],[6.9327,43.48435],[6.93193,43.48402],[6.93109,43.48364],[6.93069,43.48317],[6.93145,43.48111],[6.9315,43.48101],[6.93203,43.48054],[6.93295,43.4805],[6.93362,43.48025],[6.93373,43.48007],[6.93275,43.48019],[6.92678,43.48118],[6.92066,43.48207]]]]},"properties":{"ID":"66","id":"66","NOM_MASSIF":"TANNERON","dept":"06"}}]}